{"version": 0.6, "generator": "Overpass API 0.7.62.1 084b4234", "osm3s": {"timestamp_osm_base": "2024-11-06T19:41:29Z", "copyright": "The data included in this document is from www.openstreetmap.org. The data is made available under ODbL."}, "elements": [{"type": "node", "id": 6087295117, "lat": 43.8250435, "lon": 7.122696, "tags": {"amenity": "charging_station", "authentication:membership_card": "yes", "capacity": "2", "fee": "yes", "motorcar": "yes", "name": "Bouyon Parking Village", "network": "WiiiZ", "note": "info non-reportees: authentication par QR code; puissance max 22; id_pdc", "opening_hours": "24/7", "operator": "Sodetrel", "owner": "CASA", "ref": "FR*A16*P*WIIZ*32*_*_*_", "ref:EU:EVSE": "FR*A16*P*WIIZ*32*_*_*_", "socket:type2": "2", "socket:typee": "2"}}, {"type": "node", "id": 7121622642, "lat": 44.0903832, "lon": 6.9693302, "tags": {"amenity": "charging_station", "bicycle": "yes", "fee": "no", "motorcar": "no", "name": "Bosch eBike Power Station", "operator": "G\u00eete Nature et Montagne"}}, {"type": "node", "id": 7132862968, "lat": 44.0707525, "lon": 7.2533666, "tags": {"amenity": "charging_station", "bicycle": "yes", "fee": "no", "motorcar": "no", "name": "Bosch eBike Power Station", "operator": "V\u00e9subia Mountain Park"}}, {"type": "node", "id": 7239256655, "lat": 44.0707172, "lon": 7.2222378, "tags": {"amenity": "charging_station", "bicycle": "yes", "fee": "no", "motorcar": "no", "name": "Bosch eBike Power Station", "operator": "Office Tourisme Colmiane"}}, {"type": "node", "id": 7480271831, "lat": 44.0959192, "lon": 6.9300294, "tags": {"amenity": "charging_station", "motorcar": "yes"}}, {"type": "node", "id": 8811015336, "lat": 43.8603926, "lon": 7.1988355, "tags": {"amenity": "charging_station"}}, {"type": "node", "id": 8963626951, "lat": 44.0832981, "lon": 7.0426124, "tags": {"amenity": "charging_station", "capacity": "2", "image": "https://i.imgur.com/bXne97D.jpg", "motorcar": "yes", "network": "EVlink", "opening_hours": "24/7"}}, {"type": "node", "id": 9609175193, "lat": 44.0950799, "lon": 6.927915, "tags": {"amenity": "charging_station", "motorcar": "yes"}}, {"type": "node", "id": 9688448770, "lat": 43.9963601, "lon": 7.146984, "tags": {"amenity": "charging_station", "fee": "yes", "operator": "Prise de Nice"}}, {"type": "node", "id": 9991453788, "lat": 44.0709656, "lon": 7.2218692, "tags": {"access": "yes", "amenity": "charging_station", "capacity": "2", "fee": "yes", "name": "Station Valdeblore - Parking Colmiane", "operator": "M\u00e9tropole Nice C\u00f4te d'Azur", "ref": "MAT007193", "website": "https://prisedenice.fr/portal/#/"}}, {"type": "node", "id": 11109169706, "lat": 43.995534, "lon": 7.016601, "tags": {"amenity": "charging_station", "authentication:none": "true", "email": "sav@izivia.com", "fee": "no", "network": "WIIIZ", "opening_hours": "24/7", "operator": "Izivia", "owner:ref:FR:SIREN": "240600585", "phone": "0972668001", "ref": "FR*SOD*S*WIIZ*166*1*_*_", "reservation": "no", "socket:type2": "yes", "socket:typee": "yes", "start_date": "2022-12-09"}}, {"type": "node", "id": 11109169707, "lat": 44.032071, "lon": 7.035057, "tags": {"amenity": "charging_station", "authentication:none": "true", "email": "sav@izivia.com", "fee": "no", "network": "WIIIZ", "opening_hours": "24/7", "operator": "Izivia", "owner:ref:FR:SIREN": "240600585", "phone": "0972668001", "ref": "FR*SOD*S*WIIZ*167*1*_*_", "reservation": "no", "socket:type2": "yes", "socket:typee": "yes", "start_date": "2023-01-09"}}, {"type": "node", "id": 11109169711, "lat": 43.782424, "lon": 6.954072, "tags": {"amenity": "charging_station", "authentication:none": "true", "email": "sav@izivia.com", "fee": "no", "network": "WIIIZ", "opening_hours": "24/7", "operator": "Izivia", "owner:ref:FR:SIREN": "240600585", "phone": "0972668001", "ref": "FR*SOD*S*WIIZ*191*1*_*_", "reservation": "no", "socket:type2": "yes", "socket:typee": "yes", "start_date": "2022-09-15"}}, {"type": "node", "id": 11109169712, "lat": 44.094825, "lon": 6.989727, "tags": {"amenity": "charging_station", "authentication:none": "true", "email": "sav@izivia.com", "fee": "no", "network": "WIIIZ", "opening_hours": "24/7", "operator": "Izivia", "owner:ref:FR:SIREN": "240600585", "phone": "0972668001", "ref": "FR*SOD*S*WIIZ*168*1*_*_", "reservation": "no", "socket:type2": "yes", "socket:typee": "yes", "start_date": "2022-10-28"}}, {"type": "node", "id": 11109169713, "lat": 44.1045756, "lon": 6.9399358, "tags": {"amenity": "charging_station", "authentication:none": "true", "email": "sav@izivia.com", "fee": "no", "network": "WIIIZ", "opening_hours": "24/7", "operator": "Izivia", "owner:ref:FR:SIREN": "240600585", "phone": "0972668001", "ref": "FR*SOD*S*WIIZ*150*1*_*_", "reservation": "no", "socket:type2": "yes", "socket:typee": "yes", "start_date": "2022-11-17"}}, {"type": "node", "id": 11109169714, "lat": 44.116352, "lon": 6.906609, "tags": {"amenity": "charging_station", "authentication:none": "true", "email": "sav@izivia.com", "fee": "no", "network": "WIIIZ", "opening_hours": "24/7", "operator": "Izivia", "owner:ref:FR:SIREN": "240600585", "phone": "0972668001", "ref": "FR*SOD*S*WIIZ*160*1*_*_", "reservation": "no", "socket:type2": "yes", "socket:typee": "yes", "start_date": "2022-10-06"}}, {"type": "node", "id": 11109169719, "lat": 43.978437, "lon": 7.031442, "tags": {"amenity": "charging_station", "authentication:none": "true", "email": "sav@izivia.com", "fee": "no", "network": "WIIIZ", "opening_hours": "24/7", "operator": "Izivia", "owner:ref:FR:SIREN": "240600585", "phone": "0972668001", "ref": "FR*SOD*S*WIIZ*177*1*_*_", "reservation": "no", "socket:type2": "yes", "socket:typee": "yes", "start_date": "2023-01-23"}}, {"type": "node", "id": 11109169721, "lat": 43.942747, "lon": 7.125003, "tags": {"amenity": "charging_station", "authentication:none": "true", "email": "sav@izivia.com", "fee": "no", "network": "WIIIZ", "opening_hours": "24/7", "operator": "Izivia", "owner:ref:FR:SIREN": "240600585", "phone": "0972668001", "ref": "FR*SOD*S*WIIZ*174*1*_*_", "reservation": "no", "socket:type2": "yes", "socket:typee": "yes", "start_date": "2022-10-05"}}, {"type": "node", "id": 11109169722, "lat": 43.927462, "lon": 6.947498, "tags": {"amenity": "charging_station", "authentication:none": "true", "email": "sav@izivia.com", "fee": "no", "network": "WIIIZ", "opening_hours": "24/7", "operator": "Izivia", "owner:ref:FR:SIREN": "240600585", "phone": "0972668001", "ref": "FR*SOD*S*WIIZ*182*1*_*_", "reservation": "no", "socket:type2": "yes", "socket:typee": "yes", "start_date": "2022-10-06"}}, {"type": "node", "id": 11109169723, "lat": 43.873123, "lon": 6.964126, "tags": {"amenity": "charging_station", "authentication:none": "true", "email": "sav@izivia.com", "fee": "no", "network": "WIIIZ", "opening_hours": "24/7", "operator": "Izivia", "owner:ref:FR:SIREN": "240600585", "phone": "0972668001", "ref": "FR*SOD*S*WIIZ*176*1*_*_", "reservation": "no", "socket:type2": "yes", "socket:typee": "yes", "start_date": "2022-10-31"}}, {"type": "node", "id": 11109169724, "lat": 43.874341, "lon": 7.004788, "tags": {"amenity": "charging_station", "authentication:none": "true", "email": "sav@izivia.com", "fee": "no", "network": "WIIIZ", "opening_hours": "24/7", "operator": "Izivia", "owner:ref:FR:SIREN": "240600585", "phone": "0972668001", "ref": "FR*SOD*S*WIIZ*180*1*_*_", "reservation": "no", "socket:type2": "yes", "socket:typee": "yes", "start_date": "2022-10-11"}}, {"type": "node", "id": 11109169725, "lat": 43.909768, "lon": 6.982924, "tags": {"amenity": "charging_station", "authentication:none": "true", "email": "sav@izivia.com", "fee": "no", "network": "WIIIZ", "opening_hours": "24/7", "operator": "Izivia", "owner:ref:FR:SIREN": "240600585", "phone": "0972668001", "ref": "FR*SOD*S*WIIZ*181*1*_*_", "reservation": "no", "socket:type2": "yes", "socket:typee": "yes", "start_date": "2022-10-31"}}, {"type": "node", "id": 11109169728, "lat": 43.794887, "lon": 7.04193, "tags": {"amenity": "charging_station", "authentication:none": "true", "email": "sav@izivia.com", "fee": "no", "network": "WIIIZ", "opening_hours": "24/7", "operator": "Izivia", "owner:ref:FR:SIREN": "240600585", "phone": "0972668001", "ref": "FR*SOD*S*WIIZ*231*1*_*_", "reservation": "no", "socket:type2": "yes", "socket:typee": "yes", "start_date": "2023-06-13"}}, {"type": "node", "id": 11109169730, "lat": 43.881513, "lon": 7.156247, "tags": {"amenity": "charging_station", "authentication:none": "true", "email": "sav@izivia.com", "fee": "no", "network": "WIIIZ", "opening_hours": "24/7", "operator": "Izivia", "owner:ref:FR:SIREN": "240600585", "phone": "0972668001", "ref": "FR*SOD*S*WIIZ*185*1*_*_", "reservation": "no", "socket:type2": "yes", "socket:typee": "yes", "start_date": "2022-12-19"}}, {"type": "node", "id": 11109169731, "lat": 43.863651, "lon": 7.091959, "tags": {"amenity": "charging_station", "authentication:none": "true", "email": "sav@izivia.com", "fee": "no", "network": "WIIIZ", "opening_hours": "24/7", "operator": "Izivia", "owner:ref:FR:SIREN": "240600585", "phone": "0972668001", "ref": "FR*SOD*S*WIIZ*178*1*_*_", "reservation": "no", "socket:type2": "yes", "socket:typee": "yes", "start_date": "2022-08-25"}}, {"type": "node", "id": 11109169732, "lat": 43.874919, "lon": 7.082716, "tags": {"amenity": "charging_station", "authentication:none": "true", "email": "sav@izivia.com", "fee": "no", "network": "WIIIZ", "opening_hours": "24/7", "operator": "Izivia", "owner:ref:FR:SIREN": "240600585", "phone": "0972668001", "ref": "FR*SOD*S*WIIZ*179*1*_*_", "reservation": "no", "socket:type2": "yes", "socket:typee": "yes", "start_date": "2022-10-11"}}, {"type": "node", "id": 11109169733, "lat": 43.936102, "lon": 7.095503, "tags": {"amenity": "charging_station", "authentication:none": "true", "email": "sav@izivia.com", "fee": "no", "network": "WIIIZ", "opening_hours": "24/7", "operator": "Izivia", "owner:ref:FR:SIREN": "240600585", "phone": "0972668001", "ref": "FR*SOD*S*WIIZ*170*1*_*_", "reservation": "no", "socket:type2": "yes", "socket:typee": "yes", "start_date": "2023-03-20"}}, {"type": "node", "id": 11109169734, "lat": 43.937045, "lon": 7.096915, "tags": {"amenity": "charging_station", "authentication:none": "true", "email": "sav@izivia.com", "fee": "no", "network": "WIIIZ", "opening_hours": "24/7", "operator": "Izivia", "owner:ref:FR:SIREN": "240600585", "phone": "0972668001", "ref": "FR*SOD*S*WIIZ*171*1*_*_", "reservation": "no", "socket:type2": "yes", "socket:typee": "yes", "start_date": "2022-11-22"}}, {"type": "node", "id": 11109169735, "lat": 43.948198, "lon": 7.009405, "tags": {"amenity": "charging_station", "authentication:none": "true", "email": "sav@izivia.com", "fee": "no", "network": "WIIIZ", "opening_hours": "24/7", "operator": "Izivia", "owner:ref:FR:SIREN": "240600585", "phone": "0972668001", "ref": "FR*SOD*S*WIIZ*173*1*_*_", "reservation": "no", "socket:type2": "yes", "socket:typee": "yes", "start_date": "2022-12-19"}}, {"type": "node", "id": 12106364498, "lat": 44.0127853, "lon": 7.3080909, "tags": {"amenity": "charging_station", "survey:date": "2024-08-12"}}]}