{"version": 0.6, "generator": "Overpass API 0.7.62.1 084b4234", "osm3s": {"timestamp_osm_base": "2024-11-06T19:37:16Z", "copyright": "The data included in this document is from www.openstreetmap.org. The data is made available under ODbL."}, "elements": [{"type": "node", "id": 1105304701, "lat": 46.4907294, "lon": 11.7810466, "tags": {"access": "yes", "amenity": "charging_station", "bicycle": "yes", "fixme": "verificare la posizione", "name": "DINAclub - Stazione di Ricarica e-Bike", "network": "DINAclub", "operator": "Repower", "operator:wikidata": "Q674712", "website": "https://www.repower.com/it/dina/"}}, {"type": "node", "id": 2091043693, "lat": 46.2280802, "lon": 11.9576743, "tags": {"access": "yes", "amenity": "charging_station", "bicycle": "yes", "network": "DINAclub", "operator": "Repower", "operator:wikidata": "Q674712", "operator:wikipedia": "it:Repower", "website": "https://www.repower.com/it/dina/"}}, {"type": "node", "id": 4959840467, "lat": 46.6269575, "lon": 11.7658009, "tags": {"amenity": "charging_station", "amperage": "16", "bicycle": "yes", "car": "no", "socket:schuko": "4", "voltage": "230"}}, {"type": "node", "id": 4959840490, "lat": 46.6360567, "lon": 11.7659038, "tags": {"amenity": "charging_station", "amperage": "16", "bicycle": "yes", "motorcar": "no", "socket:schuko": "4", "voltage": "230"}}, {"type": "node", "id": 4959840492, "lat": 46.6210224, "lon": 11.7498342, "tags": {"amenity": "charging_station", "amperage": "16", "bicycle": "yes", "car": "no", "operator": "e-bike Villn\u00f6ss", "socket:schuko": "4", "voltage": "230"}}, {"type": "node", "id": 5709136457, "lat": 46.6382726, "lon": 12.0415181, "tags": {"amenity": "charging_station", "bicycle": "yes", "fee": "no", "operator": "EvWay", "socket:schuko": "4", "voltage": "230"}}, {"type": "node", "id": 5766395356, "lat": 46.5511832, "lon": 11.8709, "tags": {"amenity": "charging_station", "brand": "Enel", "brand:wikidata": "Q651222", "capacity": "2", "covered": "no", "fee": "yes", "name": "Enel", "operator": "Enel", "operator:wikidata": "Q651222"}}, {"type": "node", "id": 5766395912, "lat": 46.5527186, "lon": 11.8750697, "tags": {"access": "yes", "amenity": "charging_station", "brand": "Enel", "brand:wikidata": "Q651222", "capacity": "2", "covered": "no", "fee": "yes", "name": "Enel", "operator": "Enel", "operator:wikidata": "Q651222"}}, {"type": "node", "id": 6345310461, "lat": 46.5055092, "lon": 11.5352795, "tags": {"amenity": "charging_station", "capacity": "4", "charging_station": "pedelec", "description": "POINT P4B f\u00fcr 4 E-Bikes.\nDas passende Ladekabel f\u00fcr Ihr E-Bike kann vor Ort ausgeliehen oder direkt auf www.bike-energy.com bestellt werden.", "operator": "Almh\u00fctte Hofer Alpl"}}, {"type": "node", "id": 6347750420, "lat": 46.5092806, "lon": 11.6529049, "tags": {"amenity": "charging_station", "capacity": "4", "charging_station": "pedelec", "description": "POINT P2B f\u00fcr 2 E-Bikes. Das passende Ladekabel f\u00fcr Ihr E-Bike kann vor Ort ausgeliehen oder direkt auf www.bike-energy.com bestellt werden.", "operator": "Schutzhaus Mahlknechth\u00fctte - Rifugio Molignon"}}, {"type": "node", "id": 6347754111, "lat": 46.5468951, "lon": 11.8754643, "tags": {"addr:country": "IT", "addr:housenumber": "97", "addr:postcode": "39033", "addr:street": "Str. Col Alt", "amenity": "charging_station", "capacity": "2", "description": "POINT P2B f\u00fcr 2 E-Bikes. Das passende Ladekabel f\u00fcr Ihr E-Bike kann vor Ort ausgeliehen oder direkt auf www.bike-energy.com bestellt werden.", "name": "bike-energy Ladestation", "operator": "Kostner Andreas Srl"}}, {"type": "node", "id": 6347762544, "lat": 46.6355315, "lon": 12.0608518, "tags": {"addr:city": "San Vigilio di Marebbe", "addr:country": "IT", "addr:housenumber": "15", "addr:postcode": "39030", "addr:street": "Al Plan de Sora", "amenity": "charging_station", "brand": "bike-energy", "brand:wikidata": "Q67770877", "capacity": "2", "description": "POINT P2B f\u00fcr 2 E-Bikes. Das passende Ladekabel f\u00fcr Ihr E-Bike kann vor Ort ausgeliehen oder direkt auf www.bike-energy.com bestellt werden.", "name": "bike-energy", "operator": "Rifugio Fodara Vedla"}}, {"type": "node", "id": 6512588020, "lat": 46.6030341, "lon": 12.1421778, "tags": {"access": "yes", "amenity": "charging_station", "authentication:none": "yes", "bicycle": "yes", "brand": "bike-energy", "brand:wikidata": "Q67770877", "capacity": "2", "description": "bike-energy Ladestation POINT P2B \u2013 Anschlu\u00df f\u00fcr 2 E-Bikes. Das passende Ladekabel f\u00fcr Ihr E-Bike k\u00f6nnen Sie ganz einfach vor Ort ausleihen, im lokalen Sportartikelhandel erwerben oder direkt auf www.bike-energy.com bestellen.", "fee": "no", "motorcar": "no", "motorcycle": "no", "name": "bike-energy Ospitale di Verzi Marco", "opening_hours": "24/7", "operator": "bike-energy", "operator:wikidata": "Q67770877", "scooter": "no", "socket:ropd": "2", "truck": "no"}}, {"type": "node", "id": 6647635412, "lat": 46.5328636, "lon": 11.7719686, "tags": {"addr:city": "S\u00eblva - Wolkenstein - Selva di Val Gardena", "addr:postcode": "39048", "addr:street": "Via Plan de Gralba", "amenity": "charging_station", "brand": "Tesla, Inc.", "brand:wikidata": "Q478214", "brand:wikipedia": "en:Tesla, Inc.", "capacity": "3", "name": "Tesla Destination Charger", "operator": "Tesla", "short_name": "Tesla"}}, {"type": "node", "id": 7049325737, "lat": 46.3830369, "lon": 11.6618972, "tags": {"amenity": "charging_station", "description": "at Agritur El Mas carpark"}}, {"type": "node", "id": 7700500560, "lat": 46.5551619, "lon": 11.7556212, "tags": {"amenity": "charging_station", "bicycle": "yes", "capacity": "2"}}, {"type": "node", "id": 7700500561, "lat": 46.5552177, "lon": 11.7556279, "tags": {"amenity": "charging_station", "motorcar": "yes", "operator": "alperia", "socket:chademo": "1", "website": "https://www.valgardena.it/en/addresses/detail/base/poi/selva-val-gardena/charging-station-for-e-cars-cultural-centre-o-v-w/3C5C2DD4E15E37F613DBEB5416AAE1AD/?RequestKey=170927826465e184380865d"}}, {"type": "node", "id": 7703143472, "lat": 46.5588443, "lon": 11.7280489, "tags": {"amenity": "charging_station", "bicycle": "yes"}}, {"type": "node", "id": 7727416385, "lat": 46.5750843, "lon": 11.6713516, "tags": {"amenity": "charging_station", "bicycle": "yes", "capacity": "8"}}, {"type": "node", "id": 7737540065, "lat": 46.5875062, "lon": 11.7581293, "tags": {"amenity": "charging_station", "bicycle": "yes"}}, {"type": "node", "id": 7741505784, "lat": 46.5787865, "lon": 11.6229214, "tags": {"amenity": "charging_station", "capacity": "1"}}, {"type": "node", "id": 7836389495, "lat": 46.5367917, "lon": 12.1360751, "tags": {"access": "yes", "amenity": "charging_station", "brand": "Enel X", "brand:wikidata": "Q5376815", "capacity": "3", "covered": "no", "fee": "yes", "level": "0", "name": "Enel X", "opening_hours": "24/7", "operator": "Enel X", "operator:wikidata": "Q5376815", "ref:EU:EVSE": "IT*ELX*E19XM32T7GB3W000009", "socket:chademo": "1", "socket:chademo:output": "50 kW", "socket:type2_cable": "1", "socket:type2_cable:output": "43 kW", "socket:type2_combo": "1", "socket:type2_combo:output": "50 kW"}}, {"type": "node", "id": 7836389498, "lat": 46.5351386, "lon": 12.1376512, "tags": {"access": "yes", "amenity": "charging_station", "brand": "Enel", "brand:wikidata": "Q651222", "capacity": "4", "covered": "no", "fee": "yes", "name": "Enel", "operator": "Enel", "operator:wikidata": "Q651222"}}, {"type": "node", "id": 7836389502, "lat": 46.5494466, "lon": 11.8731672, "tags": {"access": "yes", "amenity": "charging_station", "capacity": "2", "covered": "no", "fee": "no"}}, {"type": "node", "id": 7836389503, "lat": 46.5386256, "lon": 12.1388453, "tags": {"access": "yes", "amenity": "charging_station", "brand": "Enel X", "brand:wikidata": "Q5376815", "capacity": "4", "covered": "no", "fee": "yes", "name": "Enel X", "operator": "Enel X", "operator:wikidata": "Q5376815", "ref:EU:EVSE": "IT*ELX*E19XP22T5HK4AD00103", "socket:type2": "1", "socket:type2:output": "22 kW", "socket:type3a": "1"}}, {"type": "node", "id": 7875077631, "lat": 46.4863928, "lon": 12.1058602, "tags": {"amenity": "charging_station", "bicycle": "yes"}}, {"type": "node", "id": 8068403493, "lat": 46.6406461, "lon": 11.6842139, "tags": {"access": "yes", "amenity": "charging_station", "authentication:none": "yes", "bicycle": "yes", "capacity": "6", "fee": "no", "motor_vehicle": "no", "opening_hours": "24/7", "socket:schuko": "6", "socket:schuko:voltage": "230"}}, {"type": "node", "id": 8068489878, "lat": 46.6356827, "lon": 11.7657253, "tags": {"amenity": "charging_station", "amperage": "16", "bicycle": "yes", "capacity": "4", "fee": "no", "motorcar": "no", "socket:schuko": "4", "voltage": "230"}}, {"type": "node", "id": 8137508917, "lat": 46.6414507, "lon": 11.7149275, "tags": {"amenity": "charging_station", "amperage": "16", "bicycle": "yes", "covered": "yes", "socket:schuko": "4", "voltage": "230"}}, {"type": "node", "id": 8394450617, "lat": 46.5713389, "lon": 11.6772941, "tags": {"amenity": "charging_station", "capacity": "2"}}, {"type": "node", "id": 8630413694, "lat": 46.3949511, "lon": 12.0067182, "tags": {"access": "customers", "amenity": "charging_station", "operator": "Porsche", "operator:wikidata": "Q40993"}}, {"type": "node", "id": 8661802400, "lat": 46.5563262, "lon": 11.7581082, "tags": {"access": "customers", "amenity": "charging_station", "brand": "Tesla", "capacity": "2", "fee": "free for customers", "operator": "Hotel Granbaita Dolomites"}}, {"type": "node", "id": 9027884567, "lat": 46.4310251, "lon": 11.5443066, "tags": {"amenity": "charging_station", "capacity": "2", "name": "Plangenbrugg"}}, {"type": "node", "id": 9027884568, "lat": 46.407377, "lon": 11.5910557, "tags": {"access": "yes", "amenity": "charging_station", "capacity": "2", "operator": "Alperia", "operator:wikidata": "Q25387077"}}, {"type": "node", "id": 9366983850, "lat": 46.5701099, "lon": 11.933463, "tags": {"access": "yes", "amenity": "charging_station", "capacity": "2", "fee": "yes", "operator": "Neogy"}}, {"type": "node", "id": 9562468843, "lat": 46.4814217, "lon": 11.78788, "tags": {"amenity": "charging_station"}}, {"type": "node", "id": 9812805866, "lat": 46.6334964, "lon": 11.7956887, "tags": {"amenity": "charging_station", "bicycle": "yes", "motor_vehicle": "no", "operator": "e-bike Villn\u00f6ss", "socket:schuko": "3"}}, {"type": "node", "id": 9820428269, "lat": 46.366778, "lon": 11.650391, "tags": {"amenity": "charging_station", "bicycle": "yes", "network": "DINAclub", "operator": "Repower", "operator:wikidata": "Q674712", "operator:wikipedia": "it:Repower", "website": "https://www.repower.com/it/dina/"}}, {"type": "node", "id": 9931272533, "lat": 46.3750632, "lon": 12.1264273, "tags": {"amenity": "charging_station"}}, {"type": "node", "id": 9933306166, "lat": 46.4074817, "lon": 11.5910924, "tags": {"access": "yes", "amenity": "charging_station", "bicycle": "yes", "motor_vehicle": "no"}}, {"type": "node", "id": 9967382108, "lat": 46.3697118, "lon": 11.6520338, "tags": {"amenity": "charging_station", "bicycle": "yes", "description": "Komoot App f\u00fcr e-bike Ladestation in Italien https://www.komoot.com/collection/1840155", "network": "DINAclub", "operator": "Repower", "operator:wikidata": "Q674712", "website": "https://www.repower.com/it/dina/"}}, {"type": "node", "id": 9970795603, "lat": 46.4874443, "lon": 12.0342534, "tags": {"amenity": "charging_station", "bicycle": "yes", "name": "DINAclub - Stazione di Ricarica e-Bike", "network": "DINAclub", "operator": "Repower", "operator:wikidata": "Q674712", "website": "https://www.repower.com/it/dina/"}}, {"type": "node", "id": 9970795907, "lat": 46.4287486, "lon": 11.9600238, "tags": {"amenity": "charging_station", "bicycle": "yes", "name": "DINAclub - Stazione di Ricarica e-Bike", "network": "DINAclub", "operator": "Repower", "operator:wikidata": "Q674712", "operator:wikipedia": "it:Repower", "website": "https://www.repower.com/it/dina/"}}, {"type": "node", "id": 9970917393, "lat": 46.4665396, "lon": 11.9701922, "tags": {"amenity": "charging_station", "bicycle": "yes", "network": "DINAclub", "operator": "Repower", "operator:wikidata": "Q674712", "operator:wikipedia": "it:Repower", "website": "https://www.komoot.com/de-de/collection/1840155/-tutti-i-punti-dinaclub"}}, {"type": "node", "id": 10101109212, "lat": 46.3861692, "lon": 12.1741852, "tags": {"amenity": "charging_station", "bicycle": "designated"}}, {"type": "node", "id": 10101166817, "lat": 46.6120895, "lon": 12.0143517, "tags": {"amenity": "charging_station", "bicycle": "designated"}}, {"type": "node", "id": 10106185878, "lat": 46.5680491, "lon": 11.5604435, "tags": {"amenity": "charging_station", "bicycle": "yes", "capacity": "12", "fee": "yes", "motor_vehicle": "no", "operator": "ecospazio.it"}}, {"type": "node", "id": 10599296849, "lat": 46.3562203, "lon": 11.8668422, "tags": {"access": "yes", "amenity": "charging_station", "bicycle": "yes", "network": "DINAclub", "operator": "Repower", "operator:wikidata": "Q674712", "operator:wikipedia": "it:Repower", "website": "https://www.repower.com/it/dina/"}}, {"type": "node", "id": 10599334753, "lat": 46.4351098, "lon": 12.0980387, "tags": {"access": "yes", "amenity": "charging_station", "bicycle": "yes", "name": "DINAclub - Stazione di Ricarica e-Bike", "network": "DINAclub", "operator": "Repower", "operator:wikidata": "Q674712", "website": "https://www.repower.com/it/dina/"}}, {"type": "node", "id": 10600966783, "lat": 46.4933029, "lon": 11.9218198, "tags": {"access": "yes", "amenity": "charging_station", "bicycle": "yes", "network": "DINAclub", "operator": "Repower", "operator:wikidata": "Q674712", "voltage": "230", "website": "https://www.repower.com/it/dina/"}}, {"type": "node", "id": 10601012624, "lat": 46.2980608, "lon": 12.013091, "tags": {"access": "yes", "amenity": "charging_station", "bicycle": "yes", "name": "DINAclub - Stazione di Ricarica e-Bike", "network": "DINAclub", "operator": "Repower", "operator:wikidata": "Q674712", "website": "https://www.repower.com/it/dina/"}}, {"type": "node", "id": 10601015085, "lat": 46.4375927, "lon": 12.0710894, "tags": {"access": "yes", "amenity": "charging_station", "bicycle": "yes", "network": "DINAclub", "operator": "Repower", "operator:wikidata": "Q674712", "voltage": "230", "website": "https://www.repower.com/it/dina/"}}, {"type": "node", "id": 10601026059, "lat": 46.298312, "lon": 12.0127101, "tags": {"access": "yes", "amenity": "charging_station", "bicycle": "yes", "name": "DINAclub - Stazione di Ricarica e-Bike", "network": "DINAclub", "operator": "Repower", "operator:wikidata": "Q674712", "website": "https://www.repower.com/it/dina/"}}, {"type": "node", "id": 10601032044, "lat": 46.4384899, "lon": 11.9847774, "tags": {"access": "yes", "amenity": "charging_station", "bicycle": "yes", "network": "DINAclub", "operator": "Repower", "operator:wikidata": "Q674712", "operator:wikipedia": "it:Repower", "website": "https://www.repower.com/it/dina/"}}, {"type": "node", "id": 10816619099, "lat": 46.3113168, "lon": 11.6075033, "tags": {"access": "yes", "amenity": "charging_station", "capacity": "2"}}, {"type": "node", "id": 10845638667, "lat": 46.5402549, "lon": 12.1363205, "tags": {"access": "permissive", "amenity": "charging_station", "brand": "Bikef - E-bike charging station", "capacity": "4", "description": "Stazione di ricarica per E-Bike Bikef. Disponibile a ricaricare tutte le ebike sul mercato, attraverso il cavo universale fornito.", "operator": "Bikef"}}, {"type": "node", "id": 10845639562, "lat": 46.541131, "lon": 12.0984334, "tags": {"access": "permissive", "amenity": "charging_station", "brand": "Bikef - E-bike charging station", "capacity": "2", "description": "Stazione di ricarica per E-Bike Bikef.\nDisponibile a ricaricare tutte le ebike sul mercato, attraverso il cavo universale fornito.", "operator": "Bikef - Enjoy your Energy"}}, {"type": "node", "id": 10845643904, "lat": 46.4995646, "lon": 12.0407661, "tags": {"access": "permissive", "amenity": "charging_station", "brand": "Bikef - E-bike charging station", "capacity": "4", "description": "Stazione di ricarica per E-Bike Bikef. Disponibile a ricaricare tutte le ebike sul mercato, attraverso il cavo universale fornito. Presa sotto il tetto.", "location": "roof", "operator": "Bikef - Enjoy your energy"}}, {"type": "node", "id": 10845674199, "lat": 46.5247879, "lon": 12.1133675, "tags": {"access": "permissive", "amenity": "charging_station", "brand": "Bikef - E-bike charging station", "capacity": "4", "description": "Stazione di ricarica e-bike, che permette di ricaricare tutte le ebike sul mercato attraverso il cavo universale bikef, fornito dal proprietario", "operator": "Bikef - Enjoy your Energy"}}, {"type": "node", "id": 10845674474, "lat": 46.5172943, "lon": 12.1142117, "tags": {"access": "permissive", "amenity": "charging_station", "brand": "Bikef -E-bike charging station", "capacity": "4", "description": "Stazione di ricarica per E-Bike Bikef.\nDisponibile a ricaricare tutte le ebike sul mercato, attraverso il cavo universale fornito.", "operator": "Bikef - Enjoy your Energy"}}, {"type": "node", "id": 10877139323, "lat": 46.2617102, "lon": 11.803497, "tags": {"amenity": "charging_station"}}, {"type": "node", "id": 11054780985, "lat": 46.3735161, "lon": 11.6574649, "tags": {"amenity": "charging_station"}}, {"type": "node", "id": 11063771806, "lat": 46.5742888, "lon": 11.6467518, "tags": {"amenity": "charging_station"}}, {"type": "node", "id": 11067163351, "lat": 46.5037193, "lon": 11.7518209, "tags": {"amenity": "charging_station", "bicycle": "designated", "bicycle_parking": "saddle_holder", "brand": "Bosch", "motor_vehicle": "no", "socket:bosch_5pin": "yes", "socket:schuko": "yes"}}, {"type": "node", "id": 11067171659, "lat": 46.5086013, "lon": 11.7574939, "tags": {"amenity": "charging_station", "bicycle": "designated", "brand": "Bosch", "motor_vehicle": "no", "socket:bosch_5pin": "yes"}}, {"type": "node", "id": 11067171781, "lat": 46.501496, "lon": 11.7500375, "tags": {"amenity": "charging_station", "bicycle": "designated", "bicycle_parking": "saddle_holder", "capacity": "4", "motor_vehicle": "no", "socket:schuko": "yes"}}, {"type": "node", "id": 11099807775, "lat": 46.5410324, "lon": 12.1348891, "tags": {"access": "yes", "amenity": "charging_station", "brand": "Enel X", "brand:wikidata": "Q5376815", "capacity": "2", "fee": "yes", "name": "Enel X", "operator": "Enel X", "operator:wikidata": "Q5376815", "ref:EU:EVSE": "IT*ELX*E21XM32T7KK3AR00059", "socket:chademo": "1", "socket:chademo:output": "50 kW", "socket:type2": "1", "socket:type2:output": "43 kW", "socket:type2_combo": "1", "socket:type2_combo:output": "50 kW"}}, {"type": "node", "id": 11099828119, "lat": 46.5386164, "lon": 12.1388708, "tags": {"access": "yes", "amenity": "charging_station", "brand": "Enel X", "brand:wikidata": "Q5376815", "capacity": "2", "fee": "yes", "name": "Enel X", "operator": "Enel X", "operator:wikidata": "Q5376815", "ref:EU:EVSE": "IT*ELX*E19XP22T3KK4AD00532", "socket:type2": "2", "socket:type2:output": "11 kW"}}, {"type": "node", "id": 11198412246, "lat": 46.5565521, "lon": 11.7260063, "tags": {"amenity": "charging_station", "capacity": "2", "motorcar": "yes"}}, {"type": "node", "id": 11231267556, "lat": 46.6088668, "lon": 11.564661, "tags": {"amenity": "charging_station", "capacity": "2", "motorcar": "yes", "operator": "Neogy", "socket:type2": "2"}}, {"type": "node", "id": 11569339526, "lat": 46.5833889, "lon": 11.9045796, "tags": {"access": "yes", "amenity": "charging_station", "brand": "Enel X", "brand:wikidata": "Q5376815", "name": "Enel X", "operator": "Enel X", "operator:wikidata": "Q5376815"}}, {"type": "node", "id": 11868464533, "lat": 46.4287764, "lon": 12.0520045, "tags": {"amenity": "charging_station", "brand": "e-bike stazione di ricarica"}}, {"type": "node", "id": 11868464534, "lat": 46.4233895, "lon": 12.0459312, "tags": {"amenity": "charging_station", "brand": "e-bike stazione di ricarica"}}, {"type": "node", "id": 11987933079, "lat": 46.6112406, "lon": 12.0072037, "tags": {"amenity": "charging_station", "bicycle": "yes"}}, {"type": "node", "id": 12029546473, "lat": 46.5218829, "lon": 12.1342633, "tags": {"amenity": "charging_station"}}, {"type": "node", "id": 12067012099, "lat": 46.6354582, "lon": 11.7654148, "tags": {"amenity": "charging_station", "capacity": "2", "fee": "yes"}}, {"type": "node", "id": 12072036408, "lat": 46.5404509, "lon": 11.5648942, "tags": {"amenity": "charging_station", "bicycle": "no", "motor_vehicle": "designated"}}, {"type": "node", "id": 12165903658, "lat": 46.6257567, "lon": 12.0987162, "tags": {"access": "customers", "amenity": "charging_station", "bicycle": "yes", "fee": "no", "vehicle": "no"}}, {"type": "node", "id": 12177907000, "lat": 46.545579, "lon": 11.7717626, "tags": {"access": "customers", "amenity": "charging_station", "bicycle": "no", "capacity": "2", "motorcar": "yes", "note": "2x Small Tesla Charger with Cable", "opening_hours": "24/7", "operator": "Tesla, Inc."}}]}