{"version": 0.6, "generator": "Overpass API 0.7.62.1 084b4234", "osm3s": {"timestamp_osm_base": "2024-11-06T19:39:26Z", "copyright": "The data included in this document is from www.openstreetmap.org. The data is made available under ODbL."}, "elements": [{"type": "node", "id": 9678463823, "lat": 42.5876703, "lon": 11.5209553, "tags": {"amenity": "charging_station", "brand": "Enel X", "capacity": "2", "name": "Enel X", "operator": "Enel X", "operator:wikidata": "Q5376815", "operator:wikipedia": "en:Enel X"}}, {"type": "node", "id": 11106979930, "lat": 42.6611933, "lon": 11.2717491, "tags": {"access": "yes", "amenity": "charging_station", "bicycle": "yes", "network": "DINAclub", "operator": "Repower", "operator:wikidata": "Q674712", "operator:wikipedia": "it:Repower", "website": "https://www.repower.com/it/dina/"}}, {"type": "node", "id": 11271283636, "lat": 42.6679283, "lon": 11.2583345, "tags": {"access": "customers", "amenity": "charging_station", "amperage": "16", "authentication:none": "yes", "bicycle": "yes", "capacity": "4", "fee": "no", "image": "https://lepiccolemacie.com/wp-content/uploads/2024/07/Dina-repower-062024_4.jpeg", "network": "DINAclub", "operator": "Agriturismo Le Piccole Macie", "operator:wikidata": "Q674712", "voltage": "230", "website": "https://www.repower.com/it/dina/"}}, {"type": "node", "id": 11271300255, "lat": 42.6679147, "lon": 11.2581292, "tags": {"access": "customers", "amenity": "charging_station", "authentication:none": "yes", "description": "Agriturismo Le Piccole Macie", "image": "https://lepiccolemacie.com/wp-content/uploads/2024/07/WhatsApp-Image-2024-07-26-at-18.49.06.jpeg", "motorcar": "yes", "network": "Repower", "operator": "Agriturismo Le Piccole Macie", "website": "https://www.repower.com/it/symbiosis/"}}, {"type": "node", "id": 11514428697, "lat": 42.6657704, "lon": 11.5044817, "tags": {"amenity": "charging_station", "brand": "Enel X", "capacity": "2", "fee": "yes", "motorcar": "yes", "name": "Enel X", "opening_hours": "24/7", "operator": "Enel X", "operator:wikidata": "Q5376815"}}, {"type": "node", "id": 11804948920, "lat": 42.6878185, "lon": 11.332879, "tags": {"amenity": "charging_station", "capacity": "1"}}]}