{"version": 0.6, "generator": "Overpass API 0.7.62.1 084b4234", "osm3s": {"timestamp_osm_base": "2024-11-06T19:41:29Z", "copyright": "The data included in this document is from www.openstreetmap.org. The data is made available under ODbL."}, "elements": [{"type": "node", "id": 2125618082, "lat": 44.1707308, "lon": 8.3421647, "tags": {"access": "yes", "amenity": "charging_station", "bicycle": "yes", "fixme": "verificare la posizione", "network": "DINAclub", "operator": "Repower", "operator:wikidata": "Q674712", "operator:wikipedia": "it:Repower", "website": "https://www.repower.com/it/dina/"}}, {"type": "node", "id": 2341814881, "lat": 43.9738689, "lon": 8.158465, "tags": {"access": "yes", "amenity": "charging_station", "bicycle": "yes", "fixme": "verificare la posizione", "network": "DINAclub", "operator": "Repower", "operator:wikidata": "Q674712", "operator:wikipedia": "it:Repower", "website": "https://www.repower.com/it/dina/"}}, {"type": "node", "id": 5535458249, "lat": 44.2975778, "lon": 8.46293, "tags": {"amenity": "charging_station", "capacity": "2", "description": "Stazione di ricarica per veicoli elettrici", "fee": "yes", "name": "Swarco"}}, {"type": "node", "id": 5535458250, "lat": 44.2975116, "lon": 8.4638205, "tags": {"amenity": "charging_station", "capacity": "2", "description": "Stazione di ricarica per veicoli elettrici", "fee": "yes", "name": "Swarco"}}, {"type": "node", "id": 5740462134, "lat": 44.2662205, "lon": 8.4315052, "tags": {"amenity": "charging_station", "operator": "Duferco", "operator:wikidata": "Q1263955"}}, {"type": "node", "id": 6221330285, "lat": 44.3013777, "lon": 8.4499805, "tags": {"amenity": "charging_station"}}, {"type": "node", "id": 6221391789, "lat": 44.3013647, "lon": 8.4510357, "tags": {"amenity": "charging_station"}}, {"type": "node", "id": 6546786642, "lat": 44.3100588, "lon": 8.4764456, "tags": {"amenity": "charging_station", "capacity": "1", "description": "Stazione di ricarica per veicoli elettrici", "fee": "yes", "operator": "Duferco Energia"}}, {"type": "node", "id": 6642521030, "lat": 44.1316675, "lon": 8.2637782, "tags": {"access": "permit", "amenity": "charging_station", "capacity": "2", "fee": "no"}}, {"type": "node", "id": 6779040268, "lat": 44.2986356, "lon": 8.4513732, "tags": {"amenity": "charging_station", "operator": "Duferco"}}, {"type": "node", "id": 6779084938, "lat": 44.2991731, "lon": 8.4627532, "tags": {"amenity": "charging_station", "capacity": "2", "name": "Stazione di ricarica", "operator": "Duferco"}}, {"type": "node", "id": 6880579688, "lat": 44.3077771, "lon": 8.4769469, "tags": {"amenity": "charging_station"}}, {"type": "node", "id": 7062657664, "lat": 43.9646889, "lon": 8.1369723, "tags": {"amenity": "charging_station", "capacity": "2", "mapillary": "493542815412067", "survey:date": "2019-06-20"}}, {"type": "node", "id": 7078370413, "lat": 44.2402584, "lon": 8.2721304, "tags": {"amenity": "charging_station", "bicycle": "yes", "brand": "Cube;Bosch"}}, {"type": "node", "id": 7540659153, "lat": 44.3120584, "lon": 8.4721555, "tags": {"amenity": "charging_station"}}, {"type": "node", "id": 8296199094, "lat": 43.8925558, "lon": 8.0390963, "tags": {"amenity": "charging_station", "brand": "Tesla Supercharger", "brand:wikidata": "Q17089620", "capacity": "10", "fee": "yes", "name": "Imperia Supercharger", "opening_hours": "24/7", "operator": "Tesla, Inc.", "operator:wikidata": "Q478214", "short_name": "Tesla", "socket:tesla_supercharger": "10", "socket:tesla_supercharger:output": "150 kW", "website": "https://www.tesla.com/findus/location/supercharger/imperiasupercharger"}}, {"type": "node", "id": 8731893092, "lat": 44.3041994, "lon": 8.4714643, "tags": {"amenity": "charging_station", "bicycle": "yes"}}, {"type": "node", "id": 8921996334, "lat": 44.1742373, "lon": 8.2072377, "tags": {"amenity": "charging_station", "bicycle": "yes"}}, {"type": "node", "id": 9139001329, "lat": 44.0310383, "lon": 8.1155433, "tags": {"access": "customers", "amenity": "charging_station", "bicycle": "no", "capacity": "2", "covered": "no", "description": "Only for customers of the La Meridiana. Three Teslachargers. Two for Tesla only, one for all Type 2 cars", "fee": "yes", "motorcar": "yes", "network": "Tesla Destination Charging", "opening_hours": "24/7", "parking:fee": "no", "socket:tesla_supercharger": "2", "socket:type2_cable": "1"}}, {"type": "node", "id": 9933841127, "lat": 43.9591552, "lon": 8.1342332, "tags": {"access": "yes", "amenity": "charging_station", "brand": "Ionity", "brand:wikidata": "Q42717773", "capacity": "6", "fee": "yes", "name": "IONITY Rinovo Nord", "operator": "Ionity", "payment:app": "yes", "payment:contactless": "yes", "socket:type2_combo": "1", "website": "https://ionity.eu/"}}, {"type": "node", "id": 9933841131, "lat": 44.0877246, "lon": 8.2065468, "tags": {"access": "yes", "amenity": "charging_station", "brand": "Ionity", "brand:wikidata": "Q42717773", "capacity": "2", "fee": "yes", "name": "IONITY Ceriale Sud", "operator": "Ionity", "socket:type2_combo": "1", "socket:type2_combo:output": "350 kW", "website": "https://ionity.eu/"}}, {"type": "node", "id": 10030185582, "lat": 44.2876835, "lon": 8.4411416, "tags": {"access": "yes", "amenity": "charging_station", "brand": "Free to X", "fee": "yes", "name": "Free To X", "source": "https://www.facebook.com/FreeToX/", "start_date": "2002-09-16"}}, {"type": "node", "id": 10188842580, "lat": 44.1000134, "lon": 8.2356508, "tags": {"amenity": "charging_station", "capacity": "2", "fee": "yes", "motorcar": "yes", "opening_hours": "24/7"}}, {"type": "node", "id": 10576715034, "lat": 44.0877369, "lon": 8.2064838, "tags": {"access": "yes", "amenity": "charging_station", "brand": "Ionity", "brand:wikidata": "Q42717773", "capacity": "2", "fee": "yes", "name": "IONITY Ceriale Sud", "opening_hours": "24/7", "operator": "Ionity", "socket:type2_combo": "1", "socket:type2_combo:output": "350 kW", "website": "https://ionity.eu/"}}, {"type": "node", "id": 10576715035, "lat": 44.0877492, "lon": 8.206416, "tags": {"access": "yes", "amenity": "charging_station", "brand": "Ionity", "brand:wikidata": "Q42717773", "capacity": "2", "fee": "yes", "name": "IONITY Ceriale Sud", "opening_hours": "24/7", "operator": "Ionity", "socket:type2_combo": "1", "socket:type2_combo:output": "350 kW", "website": "https://ionity.eu/"}}, {"type": "node", "id": 10576715037, "lat": 44.0877574, "lon": 8.2063484, "tags": {"access": "yes", "amenity": "charging_station", "brand": "Ionity", "brand:wikidata": "Q42717773", "capacity": "2", "fee": "yes", "name": "IONITY Ceriale Sud", "opening_hours": "24/7", "operator": "Ionity", "socket:type2_combo": "1", "socket:type2_combo:output": "350 kW", "website": "https://ionity.eu/"}}, {"type": "node", "id": 10657916368, "lat": 44.2653725, "lon": 8.4251511, "tags": {"access": "yes", "addr:city": "Vado Ligure Savona", "addr:housenumber": "114", "addr:postcode": "17047", "addr:street": "Via Piave", "amenity": "charging_station", "brand": "Tesla Supercharger", "brand:wikidata": "Q17089620", "brand:wikipedia": "en:Tesla Supercharger", "capacity": "12", "fee": "yes", "name": "Vado Ligure Supercharger", "opening_hours": "24/7", "operator": "Tesla, Inc.", "operator:wikidata": "Q478214", "socket:tesla_supercharger_ccs": "12", "socket:tesla_supercharger_ccs:output": "250 kW", "website": "https://www.tesla.com/findus/location/supercharger/VadoLigureq222"}}, {"type": "node", "id": 10766674421, "lat": 43.9201358, "lon": 8.097347, "tags": {"amenity": "charging_station", "fee": "yes", "motorcar": "yes", "opening_hours": "24/7"}}, {"type": "node", "id": 10766753233, "lat": 43.9212179, "lon": 8.1010055, "tags": {"amenity": "charging_station", "fee": "yes", "motorcar": "yes", "opening_hours": "24/7"}}, {"type": "node", "id": 10768000717, "lat": 43.951315, "lon": 8.1515073, "tags": {"access": "yes", "amenity": "charging_station", "amperage": "16", "authentication:none": "yes", "bicycle": "yes", "capacity": "2", "colour": "blue", "covered": "no", "fee": "no", "opening_hours": "24/7", "operator": "Comune di Andora", "source": "survey", "voltage": "230", "wikimedia_commons": "File:Stazione di ricarica e-bike,Marina di Andora,Via Aurelia.jpg"}}, {"type": "node", "id": 10768316710, "lat": 44.1344587, "lon": 8.2628226, "tags": {"amenity": "charging_station", "capacity": "2", "fee": "yes", "motorcar": "yes", "opening_hours": "24/7", "operator": "Ewiva"}}, {"type": "node", "id": 10768451066, "lat": 44.2381481, "lon": 8.4388828, "tags": {"amenity": "charging_station", "authentication:none": "yes", "bicycle": "yes", "capacity": "4", "fee": "no", "opening_hours": "24/7", "operator": "Comune di Bergeggi", "voltage": "230"}}, {"type": "node", "id": 10963572814, "lat": 44.2932251, "lon": 8.4136091, "tags": {"access": "yes", "amenity": "charging_station", "capacity": "4"}}, {"type": "node", "id": 10996600758, "lat": 43.9323476, "lon": 8.0980892, "tags": {"amenity": "charging_station", "bicycle": "yes", "network": "DINAclub", "operator": "Repower", "operator:wikidata": "Q674712", "operator:wikipedia": "it:Repower", "website": "https://www.repower.com/it/dina/"}}, {"type": "node", "id": 11049900525, "lat": 43.9234621, "lon": 8.067467}, {"type": "node", "id": 11049900526, "lat": 43.9234741, "lon": 8.0675092}, {"type": "node", "id": 11049900527, "lat": 43.923445, "lon": 8.0674143, "tags": {"authentication:app": "yes", "authentication:membership_card": "yes", "authentication:nfc": "yes", "man_made": "charge_point", "operator": "plenitude + becharge", "socket:type2": "2", "socket:type2:output": "22 kW"}}, {"type": "node", "id": 11049900528, "lat": 43.9234381, "lon": 8.0675343}, {"type": "node", "id": 11049900529, "lat": 43.9234924, "lon": 8.0674188}, {"type": "node", "id": 11049900530, "lat": 43.9234288, "lon": 8.0675038, "tags": {"authentication:app": "yes", "authentication:membership_card": "yes", "authentication:nfc": "yes", "man_made": "charge_point", "operator": "plenitude + becharge", "socket:type2": "2", "socket:type2:output": "22 kW"}}, {"type": "node", "id": 11049900531, "lat": 43.9234164, "lon": 8.0674594}, {"type": "node", "id": 11049900532, "lat": 43.9234597, "lon": 8.0673899}, {"type": "node", "id": 11357838938, "lat": 43.9815815, "lon": 8.1562139, "tags": {"access": "yes", "amenity": "charging_station", "bicycle": "yes", "network": "DINAclub", "operator": "Repower", "operator:wikidata": "Q674712", "operator:wikipedia": "it:Repower", "voltage": "230", "website": "https://www.repower.com/it/dina/"}}, {"type": "node", "id": 11503722026, "lat": 43.8858381, "lon": 8.0283573, "tags": {"access": "yes", "amenity": "charging_station", "brand": "Enel", "brand:wikidata": "Q651222", "capacity": "2", "fee": "yes", "name": "Enel", "operator": "Enel", "operator:wikidata": "Q651222", "socket:type2": "yes", "socket:type2:output": "22 kW"}}, {"type": "node", "id": 11503722027, "lat": 43.892111, "lon": 8.0394479, "tags": {"access": "yes", "addr:city": "Imperia", "addr:street": "Piazza dell'Unit\u00e0 Nazionale", "amenity": "charging_station", "brand": "Enel", "brand:wikidata": "Q651222", "capacity": "4", "fee": "yes", "name": "Enel", "opening_hours": "24/7", "operator": "Enel", "operator:wikidata": "Q651222", "socket:type2": "4", "socket:type2:output": "22 kW"}}, {"type": "node", "id": 11520120932, "lat": 43.8959286, "lon": 8.0388984, "tags": {"access": "yes", "amenity": "charging_station", "brand": "eni", "capacity": "2", "fee": "yes", "operator": "Eni", "operator:wikidata": "Q565594", "socket:chademo": "1", "socket:type2": "1", "socket:type2_combo": "1"}}, {"type": "node", "id": 11528593143, "lat": 43.8983165, "lon": 8.0338633, "tags": {"access": "yes", "amenity": "charging_station", "brand": "ewiva", "capacity": "4", "fee": "yes", "noname": "yes", "operator": "Ewiva", "operator:wikidata": "Q123272416", "socket:type2": "4"}}, {"type": "node", "id": 11821313029, "lat": 43.9822167, "lon": 8.1294215, "tags": {"access": "yes", "amenity": "charging_station", "brand": "Comune di Andora", "fee": "no", "operator": "GaraGeeks", "socket:device:USB-A": "6", "socket:device:qi-wireless": "3", "source": "survey"}}, {"type": "node", "id": 12315070583, "lat": 44.0084364, "lon": 8.173514, "tags": {"amenity": "charging_station", "amperage": "16", "authentication:none": "yes", "bicycle": "yes", "capacity": "4", "covered": "no", "fee": "no", "manufacturer": "Clorofilla Bike Repair & Charge", "opening_hours": "24/7", "operator": "Comune di Alassio", "voltage": "230"}}, {"type": "node", "id": 12318874418, "lat": 44.0004753, "lon": 8.1681386, "tags": {"amenity": "charging_station", "amperage": "16", "authentication:none": "yes", "bicycle": "yes", "capacity": "4", "colour": "green", "fee": "no", "manufacturer": "Clorofilla Bike Repair & Charge", "opening_hours": "24/7", "operator": "Comune di Alassio", "voltage": "230", "wikimedia_commons": "File:Clorofilla,Via Roma ,Alassio.jpg"}}, {"type": "node", "id": 12318989254, "lat": 43.9532241, "lon": 8.1479052, "tags": {"amenity": "charging_station", "capacity": "2", "operator": "Be Charge", "operator:wikidata": "Q113289535"}}, {"type": "way", "id": 1190039093, "nodes": [11049900526, 11049900528, 11049900530, 11049900531, 11049900527, 11049900532, 11049900529, 11049900525, 11049900526], "tags": {"amenity": "charging_station", "capacity:charging": "4"}}]}