{"version": 0.6, "generator": "Overpass API 0.7.62.1 084b4234", "osm3s": {"timestamp_osm_base": "2024-11-06T19:39:26Z", "copyright": "The data included in this document is from www.openstreetmap.org. The data is made available under ODbL."}, "elements": [{"type": "node", "id": 4282268389, "lat": 46.6737553, "lon": 11.1488935, "tags": {"amenity": "charging_station", "capacity": "4", "socket:chademo": "1", "socket:chademo:output": "62 kW", "socket:type2_combo": "3", "socket:type2_combo:output": "50 - 150 kW"}}, {"type": "node", "id": 4347611703, "lat": 46.8978819, "lon": 11.4332671, "tags": {"amenity": "charging_station", "capacity": "2", "operator": "Alperia 22 kW"}}, {"type": "node", "id": 4358923067, "lat": 46.6877315, "lon": 11.4210639, "tags": {"amenity": "charging_station", "capacity": "2", "fee": "no", "mapillary": "1127122977805562", "motorcar": "yes", "operator": "Alperia"}}, {"type": "node", "id": 4408383468, "lat": 46.6562588, "lon": 11.148561, "tags": {"amenity": "charging_station", "capacity": "2", "opening_hours": "24/7", "operator": "Alperia", "operator:wikidata": "Q25387077", "vending_machine": "yes"}}, {"type": "node", "id": 5073169949, "lat": 46.8702175, "lon": 11.027144, "tags": {"amenity": "charging_station", "capacity": "3kW, 11kW, 22kW", "operator": "Tiroler Wasserkraftwerke AG"}}, {"type": "node", "id": 5175943027, "lat": 46.8846085, "lon": 11.0375136, "tags": {"access": "customers", "amenity": "charging_station", "bicycle": "no", "capacity": "2", "description": "M\u00fchle Resort Obergurgl", "motorcar": "yes", "operator": "M\u00fchle Resort", "scooter": "yes", "socket:type2": "2", "socket:type2:output": "22kW+11kW", "truck": "no"}}, {"type": "node", "id": 5198158634, "lat": 46.6557032, "lon": 11.1410176, "tags": {"amenity": "charging_station", "bicycle": "no", "capacity": "2", "cars": "yes", "fee": "yes", "name": "MARLENGO_01 - 4334-0002_18", "opening_hours": "07:00-23:00", "operator": "Alperia", "operator:wikidata": "Q25387077", "operator:wikipedia": "it:Alperia", "scooter": "yes", "socket:chademo": "1", "socket:chademo:output": "50kW", "socket:type2": "1", "socket:type2:output": "43kW", "socket:type2_combo": "1", "socket:type2_combo:output": "50kW", "truck": "no"}}, {"type": "node", "id": 5856986199, "lat": 46.8823637, "lon": 11.3844953, "tags": {"amenity": "charging_station", "authentication:membership_card": "yes", "capacity": "2", "contact:phone": "+39 800 550522", "lastcheck": "2018-08-25", "operator": "alperia", "operator:wikidata": "Q25387077", "operator:wikipedia": "it:Alperia", "socket:chademo": "1", "socket:chademo:output": "50kW", "socket:type2": "1", "socket:type2:output": "43kW", "socket:type2_combo": "1", "socket:type2_combo:output": "50kW"}}, {"type": "node", "id": 6352179645, "lat": 46.9009819, "lon": 11.0514551, "tags": {"access": "customers", "amenity": "charging_station", "bicycle": "no", "brand": "bike-energy", "brand:wikidata": "Q67770877", "capacity": "2", "description": "POINT P2C f\u00fcr 2 E-Car (Typ2)", "description_1": "bike-energy Riml Hochgurgl", "motorcar": "yes", "object:city": "Obergurgl - Hochgurgl", "object:country": "AT", "object:housenumber": "16", "object:postcode": "6456", "object:street": "Hochgurglerstra\u00dfe", "opening_hours": "24/7", "operator": "bike-energy", "operator:wikidata": "Q67770877", "scooter": "yes", "truck": "no"}}, {"type": "node", "id": 6466164958, "lat": 46.6833825, "lon": 11.1213249, "tags": {"access": "yes", "amenity": "charging_station", "authentication:none": "yes", "bicycle": "yes", "capacity": "4", "fee": "no", "motorcar": "no", "motorcycle": "no", "name": "E-Bike Ladestelle", "opening_hours": "24/7", "operator": "Gemeinde Algund", "scooter": "no", "socket:schuko": "2", "truck": "no"}}, {"type": "node", "id": 6472630939, "lat": 46.6548365, "lon": 11.1408653, "tags": {"amenity": "charging_station", "bicycle": "yes"}}, {"type": "node", "id": 6753451603, "lat": 46.8989075, "lon": 11.4292495, "tags": {"access": "yes", "amenity": "charging_station", "capacity": "2", "fee": "yes", "name": "STERZING_02 / VIPITENO_02", "name:de": "STERZING_02", "opening_hours": "24/7", "operator": "Alperia Smart Mobility", "operator:wikidata": "Q25387077", "operator:wikipedia": "it:Alperia", "payment:credit_cards": "yes", "payment:rfid_card": "yes", "payment:smartphone": "yes", "socket:chademo": "1", "socket:chademo:output": "50kW", "socket:type2": "1", "socket:type2:output": "43kW", "socket:type2_combo": "1", "socket:type2_combo:output": "50kW"}}, {"type": "node", "id": 6757114262, "lat": 46.9025195, "lon": 11.4298451, "tags": {"access": "yes", "amenity": "charging_station", "capacity": "2", "fee": "yes", "name": "STERZING_02 - VIPITENO_03", "name:de": "STERZING_03", "name:it": "IPITENO_03", "opening_hours": "24/7", "operator": "Alperia Smart Mobility", "operator:wikidata": "Q25387077", "operator:wikipedia": "it:Alperia", "payment:credit_cards": "yes", "payment:rfid_card": "yes", "payment:smartphone": "yes", "socket:type2": "2", "socket:type2:output": "22kW", "source": "https://www.greenmobility.bz.it/green-mobility/ladesaeulen/"}}, {"type": "node", "id": 6757202476, "lat": 46.6268554, "lon": 10.8980944, "tags": {"access": "yes", "amenity": "charging_station", "capacity": "2", "fee": "yes", "name": "Kastelbell Bahnhof - Stazione di Castelbello", "name:de": "Kastelbell Bahnhof", "name:it": "Stazione di Castelbello", "opening_hours": "24/7", "operator": "Alperia Smart Mobility", "operator:wikidata": "Q25387077", "payment:credit_cards": "yes", "payment:rfid_card": "yes", "payment:smartphone": "yes", "socket:type2": "2", "socket:type2:output": "22kW", "source": "https://www.greenmobility.bz.it/green-mobility/ladesaeulen/"}}, {"type": "node", "id": 6832151463, "lat": 46.6354189, "lon": 10.9393868, "tags": {"amenity": "charging_station", "capacity": "2", "charging_station:output": "45 kW", "motorcar": "yes", "opening_hours": "24/7", "operator": "Alperia", "operator:wikidata": "Q25387077", "socket:type2": "2", "socket:type2:output": "22 kW"}}, {"type": "node", "id": 7112607387, "lat": 46.901166, "lon": 11.0511047, "tags": {"amenity": "charging_station", "operator": "Riml Tesla Destination Charger"}}, {"type": "node", "id": 8638578656, "lat": 46.6887153, "lon": 11.1576528, "tags": {"amenity": "charging_station", "capacity": "2", "fee": "yes", "opening_hours": "24/7", "operator": "Alperia", "socket:type2:output": "22kW"}}, {"type": "node", "id": 9156983079, "lat": 46.7185778, "lon": 11.2509783, "tags": {"amenity": "charging_station", "amperage": "16", "name": "E-Bike Ladestation", "voltage": "230"}}, {"type": "node", "id": 9156999611, "lat": 46.7182349, "lon": 11.2508936, "tags": {"amenity": "charging_station", "amperage": "16", "name": "E-Bike Ladestation", "note": "Stecker Typ L (Italienischer Stecker)", "opening_hours": "Mo-Su 10:00-22:00", "operator": "Haas Hof", "socket:schuko": "3", "voltage": "230"}}, {"type": "node", "id": 9645617733, "lat": 46.6326033, "lon": 11.144889, "tags": {"access": "yes", "amenity": "charging_station", "capacity": "2", "operator": "Alperia Neogy"}}, {"type": "node", "id": 9850333606, "lat": 46.7012849, "lon": 11.1804809, "tags": {"access": "yes", "amenity": "charging_station", "capacity": "2", "operator": "Alperia Smart Mobility Charging Station", "socket:type2": "2", "socket:type2:output": "22 kW"}}, {"type": "node", "id": 9860684883, "lat": 46.8152125, "lon": 11.2420411, "tags": {"access": "yes", "amenity": "charging_station", "capacity": "2", "operator": "Alperia Smart Mobility Charging Station", "socket:type2": "2", "socket:type2:output": "22 kW"}}, {"type": "node", "id": 9863110677, "lat": 46.8929883, "lon": 11.4367374, "tags": {"access": "yes", "amenity": "charging_station", "capacity": "2", "operator": "Alperia Smart Mobility Charging Station", "socket:chademo": "1", "socket:chademo:output": "100 kW", "socket:type2_combo": "2", "socket:type2_combo:output": "100kW"}}, {"type": "node", "id": 9863110678, "lat": 46.8929977, "lon": 11.4366273, "tags": {"access": "yes", "amenity": "charging_station", "capacity": "2", "operator": "Alperia Smart Mobility Charging Station", "socket:type2": "2", "socket:type2:output": "22 kW"}}, {"type": "node", "id": 10097897790, "lat": 46.898199, "lon": 11.051141, "tags": {"amenity": "charging_station", "brand": "vkw vlotte", "brand:website": "https://www.vlotte.at/", "contact:phone": "+43 5574 9000", "description": "Sporthotel Ideal KG", "motorcar": "yes", "opening_hours": "24/7", "operator": "illwerke vkw", "operator:wikidata": "Q97012080", "operator:wikipedia": "de:Illwerke vkw", "unsigned_ref": "E74106359"}}, {"type": "node", "id": 10097899497, "lat": 46.857342, "lon": 10.913161, "tags": {"amenity": "charging_station", "brand": "vkw vlotte", "brand:website": "https://www.vlotte.at/", "capacity": "1", "contact:phone": "+43 5574 9000", "description": "Hotel Macun", "motorcar": "yes", "opening_hours": "24/7", "operator": "illwerke vkw", "operator:wikidata": "Q97012080", "operator:wikipedia": "de:Illwerke vkw", "unsigned_ref": "E113673302"}}, {"type": "node", "id": 10172607052, "lat": 46.6542454, "lon": 11.1470024, "tags": {"amenity": "charging_station", "capacity": "2", "operator": "Alperia", "operator:wikidata": "Q25387077", "socket:chademo": "1", "socket:chademo:output": "50 kW", "socket:type2": "1", "socket:type2:output": "43 kW", "socket:type2_combo": "1", "socket:type2_combo:output": "50 kW"}}, {"type": "node", "id": 10244248254, "lat": 46.6693514, "lon": 11.1625957, "tags": {"access": "customers", "amenity": "charging_station", "capacity": "4", "name": "Alperia ADAC-eCharge", "operator": "Alperia", "operator:wikidata": "Q25387077"}}, {"type": "node", "id": 10602149841, "lat": 46.9096054, "lon": 11.0530333, "tags": {"amenity": "charging_station", "capacity": "2", "motorcar": "yes"}}, {"type": "node", "id": 11037462315, "lat": 46.6480279, "lon": 11.4778744, "tags": {"access": "yes", "amenity": "charging_station", "bicycle": "yes", "capacity": "4", "covered": "no", "fee": "no", "motorcar": "no", "name": "E-Bike - Ladestation", "operator": "Mair in Plun"}}, {"type": "node", "id": 11041783793, "lat": 46.8709566, "lon": 11.1485288, "tags": {"amenity": "charging_station"}}, {"type": "node", "id": 11046277078, "lat": 46.6678633, "lon": 11.1496066, "tags": {"amenity": "charging_station", "name": "Nuova neogy"}}, {"type": "node", "id": 11047816098, "lat": 46.8717778, "lon": 11.4833903, "tags": {"amenity": "charging_station", "capacity": "2", "covered": "no", "fee": "yes", "level": "0"}}, {"type": "node", "id": 11054909638, "lat": 46.8279478, "lon": 11.2005806, "tags": {"amenity": "charging_station"}}, {"type": "node", "id": 11197371165, "lat": 46.6663247, "lon": 11.1581905, "tags": {"amenity": "charging_station", "name": "Becharge Plenitude"}}, {"type": "node", "id": 11197470133, "lat": 46.6768343, "lon": 11.1493127, "tags": {"amenity": "charging_station", "capacity": "2", "fee": "yes", "name": "BeCharge Plenitude", "operator": "Be Charge", "operator:wikidata": "Q113289535", "socket:chademo": "1", "socket:chademo:output": "60 kW", "socket:type2": "1", "socket:type2:output": "22 kW", "socket:type2_combo": "1", "socket:type2_combo:output": "75 kW"}}, {"type": "node", "id": 11998029411, "lat": 46.8311487, "lon": 11.1677899, "tags": {"access": "yes", "amenity": "charging_station", "capacity": "4", "fee": "yes", "operator": "Route220", "socket:chademo": "1", "socket:chademo:output": "62 kW", "socket:type2": "2", "socket:type2:output": "22 kW", "socket:type2_combo": "1", "socket:type2_combo:output": "175 kW"}}, {"type": "node", "id": 11998032728, "lat": 46.7286227, "lon": 11.2002804, "tags": {"amenity": "charging_station", "capacity": "2", "operator": "Alperia", "operator:wikidata": "Q25387077", "socket:chademo": "1", "socket:chademo:output": "50 kW", "socket:type2_combo": "2", "socket:type2_combo:output": "100 kW"}}, {"type": "node", "id": 11998034416, "lat": 46.8127266, "lon": 11.2451975, "tags": {"access": "yes", "amenity": "charging_station", "capacity": "2", "fee": "yes", "operator": "Alperia", "operator:wikidata": "Q25387077", "socket:chademo": "1", "socket:chademo:output": "60 kW", "socket:type2_combo": "2", "socket:type2_combo:output": "100 kW"}}, {"type": "node", "id": 11998779938, "lat": 46.6385743, "lon": 11.1750794, "tags": {"amenity": "charging_station", "capacity": "2", "fee": "yes", "operator": "Alperia", "operator:wikidata": "Q25387077", "socket:chademo": "1", "socket:chademo:output": "50 kW", "socket:type2_combo": "2", "socket:type2_combo:output": "100 kW"}}, {"type": "node", "id": 11999707452, "lat": 46.6697314, "lon": 11.0594219, "tags": {"access": "yes", "amenity": "charging_station", "capacity": "2", "fee": "yes", "operator": "Alperia", "operator:wikidata": "Q25387077", "socket:chademo": "1", "socket:chademo:output": "50 kW", "socket:type2_combo": "2", "socket:type2_combo:output": "100 kW"}}, {"type": "node", "id": 11999742007, "lat": 46.6567463, "lon": 11.0282823, "tags": {"access": "yes", "amenity": "charging_station", "capacity": "2", "name": "Moser Speckworld", "operator": "Alperia", "operator:wikidata": "Q25387077", "socket:chademo": "1", "socket:chademo:output": "50 kW", "socket:type2": "1", "socket:type2:output": "43 kW", "socket:type2_combo": "1", "socket:type2_combo:output": "50 kW"}}, {"type": "node", "id": 11999764495, "lat": 46.627915, "lon": 10.9010857, "tags": {"access": "yes", "amenity": "charging_station", "capacity": "2", "fee": "yes", "operator": "da emobil", "operator:wikidata": "Q114946167", "socket:chademo": "1", "socket:chademo:output": "50 kW", "socket:type2": "1", "socket:type2:output": "22 kW", "socket:type2_combo": "1", "socket:type2_combo:output": "75 kW"}}, {"type": "node", "id": 12101436107, "lat": 46.8120945, "lon": 11.2473691, "tags": {"access": "yes", "amenity": "charging_station", "bicycle": "yes", "fee": "no", "socket:schuko": "4"}}]}