{"version": 0.6, "generator": "Overpass API 0.7.62.1 084b4234", "osm3s": {"timestamp_osm_base": "2024-11-06T19:39:26Z", "copyright": "The data included in this document is from www.openstreetmap.org. The data is made available under ODbL."}, "elements": [{"type": "node", "id": 1523638377, "lat": 45.4930212, "lon": 11.0345616, "tags": {"access": "yes", "amenity": "charging_station", "bicycle": "yes", "fixme": "verificare la posizione", "name": "DINAclub - Stazione di Ricarica e-Bike", "network": "DINAclub", "operator": "Repower", "operator:wikidata": "Q674712", "website": "https://www.repower.com/it/dina/"}}, {"type": "node", "id": 3584497036, "lat": 45.7078399, "lon": 11.4845852, "tags": {"access": "yes", "amenity": "charging_station", "brand": "Enel X", "brand:wikidata": "Q5376815", "capacity": "2", "charging_station:output": "75  kW", "fee": "yes", "name": "Enel X", "opening_hours": "24/7", "operator": "Enel X", "operator:wikidata": "Q5376815", "payment:app": "yes", "socket:chademo": "1", "socket:type2": "1", "socket:type2_combo": "1"}}, {"type": "node", "id": 4984199591, "lat": 45.448996, "lon": 10.998237, "tags": {"access": "yes", "amenity": "charging_station", "capacity": "2", "fee": "no", "name": "San Giorgio", "opening_hours": "24/7", "operator": "Agsm Verona Spa", "operator:wikidata": "Q17620223", "operator:wikipedia": "it:AGSM Verona", "outdoor": "yes", "parking:fee": "no", "socket:type2": "2", "socket:type2:current": "32", "socket:type2:output": "22 kW", "socket:type2:voltage": "400", "website": "https://www.agsm.it"}}, {"type": "node", "id": 5174665211, "lat": 45.5482999, "lon": 11.5494922, "tags": {"amenity": "charging_station", "amperage": "3;22", "authentication:membership_card": "yes", "authentication:nfc": "no", "authentication:none": "no", "authentication:phone_call": "no", "authentication:short_message": "no", "bicycle": "no", "fixme": "position", "motorcar": "yes", "operator": "Lampionet", "scooter": "no", "socket:schuko": "1", "socket:type2": "1", "truck": "no"}}, {"type": "node", "id": 5174670647, "lat": 45.5443283, "lon": 11.5380495, "tags": {"amenity": "charging_station", "amperage": "3;22", "authentication:membership_card": "yes", "authentication:nfc": "no", "authentication:none": "no", "authentication:phone_call": "no", "authentication:short_message": "no", "bicycle": "no", "fixme": "position", "motorcar": "yes", "operator": "Comune di Vicenza", "scooter": "no", "truck": "no"}}, {"type": "node", "id": 5750936124, "lat": 45.5191813, "lon": 11.3304244, "tags": {"amenity": "charging_station"}}, {"type": "node", "id": 5787653020, "lat": 45.3965806, "lon": 11.0174661, "tags": {"amenity": "charging_station", "socket:type2": "2"}}, {"type": "node", "id": 5800791833, "lat": 45.5462629, "lon": 11.5102279, "tags": {"amenity": "charging_station", "fixme": "aggiungere etichette e verificare", "name": "Nevicam Fast Charge"}}, {"type": "node", "id": 5807409487, "lat": 45.7073561, "lon": 11.3711386, "tags": {"access": "yes", "amenity": "charging_station", "capacity": "1", "motorcar": "yes", "operator": "DriWe", "socket:type2": "1"}}, {"type": "node", "id": 5807860821, "lat": 45.7217968, "lon": 11.3324552, "tags": {"amenity": "charging_station", "fixme": "add tags", "socket:type2": "2"}}, {"type": "node", "id": 6278476109, "lat": 45.6015763, "lon": 11.4925636, "tags": {"amenity": "charging_station", "brand": "Enel X", "brand:wikidata": "Q5376815", "capacity": "2", "name": "Enel X", "operator": "Enel X", "operator:wikidata": "Q5376815"}}, {"type": "node", "id": 6345288802, "lat": 45.4009587, "lon": 10.9723193, "tags": {"amenity": "charging_station", "capacity": "3", "description": "LINE L3B f\u00fcr 3 E-Bikes.\nDas passende Ladekabel f\u00fcr Ihr E-Bike kann vor Ort ausgeliehen oder direkt auf www.bike-energy.com bestellt werden.", "name": "bike-energy Ladestation"}}, {"type": "node", "id": 6372263614, "lat": 45.7077789, "lon": 11.4799892, "tags": {"access": "yes", "amenity": "charging_station", "brand": "Enel X", "brand:wikidata": "Q5376815", "capacity": "2", "charging_station:output": "22 kW", "fee": "yes", "name": "Enel X", "operator": "Enel X", "operator:wikidata": "Q5376815", "socket:type2": "2"}}, {"type": "node", "id": 6680523043, "lat": 45.451497, "lon": 10.986821, "tags": {"access": "yes", "amenity": "charging_station", "capacity": "2", "fee": "no", "name": "Ospedale", "opening_hours": "24/7", "operator": "Agsm Verona Spa", "operator:wikidata": "Q17620223", "operator:wikipedia": "it:AGSM Verona", "outdoor": "yes", "parking:fee": "no", "socket:type2": "2", "socket:type2:current": "32", "socket:type2:output": "22 kW", "socket:type2:voltage": "400", "website": "https://www.agsm.it"}}, {"type": "node", "id": 6715053740, "lat": 45.5215952, "lon": 11.4789177, "tags": {"amenity": "charging_station", "socket:type2": "2"}}, {"type": "node", "id": 6715053741, "lat": 45.5216271, "lon": 11.4790224, "tags": {"amenity": "charging_station", "socket:type2": "2"}}, {"type": "node", "id": 6727860906, "lat": 45.5437335, "lon": 11.5694619, "tags": {"amenity": "charging_station", "authentication:none": "yes", "fee": "no", "operator": "Lidl", "socket:type2": "2"}}, {"type": "node", "id": 6727860907, "lat": 45.5437409, "lon": 11.5695345, "tags": {"amenity": "charging_station", "authentication:none": "yes", "fee": "no", "operator": "Lidl", "socket:type2": "2"}}, {"type": "node", "id": 7124048171, "lat": 45.4358827, "lon": 10.9966556, "tags": {"access": "yes", "amenity": "charging_station", "capacity": "2", "fee": "no", "name": "Via Pallone", "opening_hours": "24/7", "operator": "Agsm Verona Spa", "operator:wikidata": "Q17620223", "operator:wikipedia": "it:AGSM Verona", "outdoor": "yes", "parking:fee": "no", "socket:type2": "2", "socket:type2:current": "32", "socket:type2:output": "22 kW", "socket:type2:voltage": "400", "website": "https://www.agsm.it"}}, {"type": "node", "id": 7578010623, "lat": 45.4591103, "lon": 11.0646365, "tags": {"access": "yes", "amenity": "charging_station", "capacity": "2", "fee": "no", "name": "Oliv\u00e8", "opening_hours": "24/7", "operator": "Agsm Verona Spa", "operator:wikidata": "Q17620223", "operator:wikipedia": "it:AGSM Verona", "outdoor": "yes", "parking:fee": "no", "socket:type2": "2", "socket:type2:current": "32", "socket:type2:output": "22 kW", "socket:type2:voltage": "400", "website": "https://www.agsm.it"}}, {"type": "node", "id": 7630180427, "lat": 45.6838633, "lon": 11.3096789, "tags": {"access": "customers", "amenity": "charging_station", "authentication:none": "yes", "bicycle": "yes", "fee": "no", "motorcar": "no", "motorcycle": "no", "operator": "Bar Trattoria allo Zovo", "scooter": "no", "socket:schuko": "3", "truck": "no"}}, {"type": "node", "id": 7707492172, "lat": 45.5482888, "lon": 11.0031063, "tags": {"access": "yes", "amenity": "charging_station", "name": "Migross", "opening_hours": "24/7", "outdoor": "yes"}}, {"type": "node", "id": 7867839099, "lat": 45.5993863, "lon": 11.495575, "tags": {"amenity": "charging_station", "brand": "Enel X", "brand:wikidata": "Q5376815", "name": "Enel X", "operator": "Enel X", "operator:wikidata": "Q5376815"}}, {"type": "node", "id": 7904349291, "lat": 45.4421964, "lon": 10.9765324, "tags": {"access": "yes", "amenity": "charging_station", "capacity": "2", "fee": "no", "name": "San Zeno", "opening_hours": "24/7", "operator": "Agsm Verona Spa", "operator:wikidata": "Q17620223", "operator:wikipedia": "it:AGSM Verona", "outdoor": "yes", "parking:fee": "no", "socket:type2": "2", "socket:type2:current": "32", "socket:type2:output": "22 kW", "socket:type2:voltage": "400", "website": "https://www.agsm.it"}}, {"type": "node", "id": 7912690648, "lat": 45.436321, "lon": 10.993199, "tags": {"access": "yes", "amenity": "charging_station", "capacity": "2", "fee": "no", "name": "Cittadella", "opening_hours": "24/7", "operator": "Agsm Verona Spa", "operator:wikidata": "Q17620223", "operator:wikipedia": "it:AGSM Verona", "outdoor": "yes", "parking:fee": "no", "socket:type2": "2", "socket:type2:current": "32", "socket:type2:output": "22 kW", "socket:type2:voltage": "400", "website": "https://www.agsm.it"}}, {"type": "node", "id": 7912690649, "lat": 45.4422875, "lon": 11.0023265, "tags": {"access": "yes", "amenity": "charging_station", "capacity": "2", "fee": "no", "name": "San Tomaso", "opening_hours": "24/7", "operator": "Agsm Verona Spa", "operator:wikidata": "Q17620223", "operator:wikipedia": "it:AGSM Verona", "outdoor": "yes", "parking:fee": "no", "socket:type2": "2", "socket:type2:current": "32", "socket:type2:output": "22 kW", "socket:type2:voltage": "400", "website": "https://www.agsm.it"}}, {"type": "node", "id": 7912690650, "lat": 45.434055, "lon": 11.003106, "tags": {"access": "yes", "amenity": "charging_station", "capacity": "2", "fee": "no", "name": "Cimitero", "opening_hours": "24/7", "operator": "Agsm Verona Spa", "operator:wikidata": "Q17620223", "operator:wikipedia": "it:AGSM Verona", "outdoor": "yes", "parking:fee": "no", "socket:type2": "2", "socket:type2:current": "32", "socket:type2:output": "22 kW", "socket:type2:voltage": "400", "website": "https://www.agsm.it"}}, {"type": "node", "id": 7912690651, "lat": 45.446513, "lon": 11.028317, "tags": {"access": "yes", "amenity": "charging_station", "capacity": "1", "fee": "no", "name": "Montorio", "opening_hours": "24/7", "operator": "Agsm Verona Spa", "operator:wikidata": "Q17620223", "operator:wikipedia": "it:AGSM Verona", "outdoor": "yes", "parking:fee": "no", "socket:type2": "1", "socket:type2:current": "32", "socket:type2:output": "22 kW", "socket:type2:voltage": "400", "website": "https://www.agsm.it"}}, {"type": "node", "id": 7913305464, "lat": 45.433422, "lon": 10.975937, "tags": {"access": "yes", "amenity": "charging_station", "capacity": "2", "fee": "no", "name": "Via Albere", "opening_hours": "24/7", "operator": "Agsm Verona Spa", "operator:wikidata": "Q17620223", "operator:wikipedia": "it:AGSM Verona", "outdoor": "yes", "parking:fee": "no", "socket:type2": "2", "socket:type2:current": "32", "socket:type2:output": "22 kW", "socket:type2:voltage": "400", "website": "https://www.agsm.it"}}, {"type": "node", "id": 7913305465, "lat": 45.4346071, "lon": 10.9710254, "tags": {"access": "yes", "amenity": "charging_station", "capacity": "2", "fee": "no", "name": "Olimpia", "opening_hours": "24/7", "operator": "Agsm Verona Spa", "operator:wikidata": "Q17620223", "operator:wikipedia": "it:AGSM Verona", "outdoor": "yes", "parking:fee": "no", "socket:type2": "2", "socket:type2:current": "32", "socket:type2:output": "22 kW", "socket:type2:voltage": "400", "website": "https://www.agsm.it"}}, {"type": "node", "id": 7913374402, "lat": 45.407587, "lon": 10.975687, "tags": {"access": "yes", "amenity": "charging_station", "capacity": "1", "fee": "no", "name": "Righi", "opening_hours": "24/7", "operator": "Agsm Verona Spa", "operator:wikidata": "Q17620223", "operator:wikipedia": "it:AGSM Verona", "outdoor": "yes", "parking:fee": "no", "socket:type2": "1", "socket:type2:current": "32", "socket:type2:output": "22 kW", "socket:type2:voltage": "400", "website": "https://www.agsm.it"}}, {"type": "node", "id": 7913374403, "lat": 45.415538, "lon": 10.983854, "tags": {"access": "yes", "amenity": "charging_station", "capacity": "2", "fee": "no", "name": "Ongaro", "opening_hours": "24/7", "operator": "Agsm Verona Spa", "operator:wikidata": "Q17620223", "operator:wikipedia": "it:AGSM Verona", "outdoor": "yes", "parking:fee": "no", "socket:type2": "2", "socket:type2:current": "32", "socket:type2:output": "22 kW", "socket:type2:voltage": "400", "website": "https://www.agsm.it"}}, {"type": "node", "id": 7913374404, "lat": 45.419017, "lon": 10.981675, "tags": {"access": "yes", "amenity": "charging_station", "capacity": "2", "fee": "no", "name": "Fiera", "opening_hours": "24/7", "operator": "Agsm Verona Spa", "operator:wikidata": "Q17620223", "operator:wikipedia": "it:AGSM Verona", "outdoor": "yes", "parking:fee": "no", "socket:type2": "2", "socket:type2:current": "32", "socket:type2:output": "22 kW", "socket:type2:voltage": "400", "website": "https://www.agsm.it"}}, {"type": "node", "id": 8142317222, "lat": 45.6015661, "lon": 11.492502, "tags": {"amenity": "charging_station", "capacity": "2", "name": "Enel X"}}, {"type": "node", "id": 8235936694, "lat": 45.6817156, "lon": 11.3779089, "tags": {"amenity": "charging_station", "amperage": "64", "capacity": "2", "name": "Enel X", "voltage": "400"}}, {"type": "node", "id": 8240961887, "lat": 45.50178, "lon": 11.014506, "tags": {"access": "yes", "amenity": "charging_station", "capacity": "2", "fee": "no", "name": "Marzana", "opening_hours": "24/7", "operator": "Agsm Verona Spa", "operator:wikidata": "Q17620223", "operator:wikipedia": "it:AGSM Verona", "outdoor": "yes", "parking:fee": "no", "socket:type2": "2", "socket:type2:current": "32", "socket:type2:output": "22 kW", "socket:type2:voltage": "400", "website": "https://www.agsm.it"}}, {"type": "node", "id": 8405655270, "lat": 45.397857, "lon": 10.975612, "tags": {"access": "yes", "addr:city": "Verona", "addr:postcode": "37135", "addr:street": "Via dell'Esperanto", "amenity": "charging_station", "capacity": "2", "charge": "0.6\u20ac/kWh", "fee": "yes", "opening_hours": "24/7", "operator": "Be Charge", "operator:wikidata": "Q113289535", "outdoor": "yes", "parking:fee": "no", "socket:type2": "2", "socket:type2:output": "22 kW"}}, {"type": "node", "id": 8405655271, "lat": 45.397945, "lon": 10.978556, "tags": {"access": "yes", "addr:city": "Verona", "addr:postcode": "37135", "addr:street": "Via dell'Esperanto", "amenity": "charging_station", "capacity": "2", "charge": "0.6\u20ac/kWh", "fee": "yes", "opening_hours": "24/7", "operator": "Be Charge", "operator:wikidata": "Q113289535", "outdoor": "yes", "parking:fee": "no", "socket:type2": "2", "socket:type2:output": "22kW"}}, {"type": "node", "id": 8662541442, "lat": 45.6222291, "lon": 11.0293273, "tags": {"amenity": "charging_station", "bicycle": "yes", "fee": "yes", "opening_hours": "24/7", "operator": "Neogy"}}, {"type": "node", "id": 8694067752, "lat": 45.708333, "lon": 11.5259825, "tags": {"access": "yes", "amenity": "charging_station", "brand": "Enel X", "brand:wikidata": "Q5376815", "capacity": "2", "name": "Enel X", "operator": "Enel X", "operator:wikidata": "Q5376815"}}, {"type": "node", "id": 8712181764, "lat": 45.7142103, "lon": 11.3767069, "tags": {"access": "yes", "amenity": "charging_station", "brand": "Enel X", "brand:wikidata": "Q5376815", "capacity": "2", "fee": "yes", "name": "Ricarica BEV Enel X", "operator": "Enel X", "operator:wikidata": "Q5376815", "payment:app": "yes"}}, {"type": "node", "id": 8715006343, "lat": 45.7570574, "lon": 11.4394096, "tags": {"access": "yes", "amenity": "charging_station", "authentication:none": "yes", "capacity": "2", "fee": "no", "maxstay": "30 minutes", "operator": "Lidl", "operator:wikidata": "Q151954", "socket:type2": "2"}}, {"type": "node", "id": 8727215347, "lat": 45.4133908, "lon": 10.9801512, "tags": {"amenity": "charging_station", "capacity": "2", "charge": "0.6\u20ac/kWh", "fee": "yes", "operator": "Be Charge", "operator:wikidata": "Q113289535", "socket:type2": "2", "socket:type2:output": "22kW"}}, {"type": "node", "id": 8731639110, "lat": 45.5878315, "lon": 11.4878321, "tags": {"amenity": "charging_station", "capacity": "2", "fixme": "Comntrollare la posizione"}}, {"type": "node", "id": 8739534538, "lat": 45.4350743, "lon": 11.0578489, "tags": {"amenity": "charging_station", "capacity": "2"}}, {"type": "node", "id": 8831990002, "lat": 45.6425701, "lon": 10.9989744, "tags": {"amenity": "charging_station", "motorcar": "yes", "name": "Erbezzo", "opening_hours": "24/7", "operator": "Be Charge"}}, {"type": "node", "id": 8895145246, "lat": 45.574776, "lon": 11.0374725, "tags": {"amenity": "charging_station", "motorcar": "yes", "opening_hours": "24/7"}}, {"type": "node", "id": 9053733441, "lat": 45.5935389, "lon": 11.0657953, "tags": {"amenity": "charging_station", "bicycle": "yes", "fee": "yes", "opening_hours": "24/7", "operator": "Neogy"}}, {"type": "node", "id": 9465425777, "lat": 45.6493931, "lon": 11.3068536, "tags": {"access": "yes", "amenity": "charging_station", "operator": "Lampionet"}}, {"type": "node", "id": 9606290848, "lat": 45.7016827, "lon": 11.4751753, "tags": {"amenity": "charging_station", "amperage": "16", "capacity": "4", "level": "0", "motorcar": "yes", "operator": "ALDI", "operator:wikidata": "Q125054", "operator:wikipedia": "en:Aldi", "voltage": "400"}}, {"type": "node", "id": 9691347331, "lat": 45.5433858, "lon": 11.5301284, "tags": {"amenity": "charging_station", "authentication:none": "yes", "fee": "no", "operator": "Lidl", "operator:wikidata": "Q151954", "operator:wikipedia": "en:Lidl"}}, {"type": "node", "id": 9772822457, "lat": 45.424182, "lon": 11.1113046, "tags": {"amenity": "charging_station", "bicycle": "yes"}}, {"type": "node", "id": 9772822480, "lat": 45.4217947, "lon": 11.1123576, "tags": {"amenity": "charging_station", "authentication:none": "yes", "fee": "no", "motorcar": "yes", "operator": "Lidl", "operator:wikidata": "Q151954", "operator:wikipedia": "en:Lidl", "socket:type2": "2"}}, {"type": "node", "id": 9820118199, "lat": 45.6208166, "lon": 11.3332917, "tags": {"amenity": "charging_station", "bicycle": "yes", "network": "DINAclub", "operator": "Repower", "operator:wikidata": "Q674712", "operator:wikipedia": "it:Repower", "website": "https://www.repower.com/it/dina/"}}, {"type": "node", "id": 9948720233, "lat": 45.6986172, "lon": 11.5329743, "tags": {"access": "yes", "amenity": "charging_station", "brand": "Enel X", "brand:wikidata": "Q5376815", "capacity": "2", "name": "Enel X", "operator": "Enel X", "operator:wikidata": "Q5376815"}}, {"type": "node", "id": 9948720234, "lat": 45.6953557, "lon": 11.5318544, "tags": {"access": "yes", "amenity": "charging_station", "capacity": "2", "operator": "Be Charge", "operator:wikidata": "Q113289535"}}, {"type": "node", "id": 9948720235, "lat": 45.7019172, "lon": 11.5317753, "tags": {"amenity": "charging_station", "capacity": "2", "operator": "Be Charge", "operator:wikidata": "Q113289535"}}, {"type": "node", "id": 9948720236, "lat": 45.7111933, "lon": 11.4992291, "tags": {"amenity": "charging_station", "capacity": "2", "operator": "Be Charge", "operator:wikidata": "Q113289535"}}, {"type": "node", "id": 9948720237, "lat": 45.7286182, "lon": 11.4802125, "tags": {"amenity": "charging_station", "capacity": "2", "operator": "Be Charge", "operator:wikidata": "Q113289535"}}, {"type": "node", "id": 9948720238, "lat": 45.7331317, "lon": 11.5230469, "tags": {"amenity": "charging_station", "capacity": "2", "operator": "Be Charge", "operator:wikidata": "Q113289535"}}, {"type": "node", "id": 9963992887, "lat": 45.3648999, "lon": 11.4279485, "tags": {"amenity": "charging_station", "bicycle": "yes", "network": "DINAclub", "operator": "Repower", "operator:wikidata": "Q674712", "operator:wikipedia": "it:Repower", "website": "https://www.repower.com/it/dina/"}}, {"type": "node", "id": 9963992888, "lat": 45.4705192, "lon": 11.5392935, "tags": {"amenity": "charging_station", "bicycle": "yes", "name": "DINAclub - Stazione di Ricarica e-Bike", "network": "DINAclub", "operator": "Repower", "operator:wikidata": "Q674712", "operator:wikipedia": "it:Repower", "website": "https://www.repower.com/it/dina/"}}, {"type": "node", "id": 9963992889, "lat": 45.3488544, "lon": 11.4639636, "tags": {"amenity": "charging_station", "bicycle": "yes", "name": "DINAclub - Stazione di Ricarica e-Bike", "network": "DINAclub", "operator": "Repower", "operator:wikidata": "Q674712", "website": "https://www.repower.com/it/dina/"}}, {"type": "node", "id": 9967381533, "lat": 45.4124776, "lon": 11.5062929, "tags": {"amenity": "charging_station", "bicycle": "yes", "network": "DINAclub", "operator": "Repower", "operator:wikidata": "Q674712", "operator:wikipedia": "it:Repower", "website": "https://www.repower.com/it/dina/"}}, {"type": "node", "id": 9967402864, "lat": 45.4464805, "lon": 11.4794667, "tags": {"amenity": "charging_station", "bicycle": "yes", "network": "DINAclub", "operator": "Repower", "operator:wikidata": "Q674712", "operator:wikipedia": "it:Repower", "website": "https://www.repower.com/it/dina/"}}, {"type": "node", "id": 9967524822, "lat": 45.448289, "lon": 11.4866201, "tags": {"amenity": "charging_station", "bicycle": "yes", "network": "DINAclub", "operator": "Repower", "operator:wikidata": "Q674712", "operator:wikipedia": "it:Repower", "website": "https://www.komoot.com/collection/1840155"}}, {"type": "node", "id": 9967542680, "lat": 45.4095629, "lon": 11.5395061, "tags": {"amenity": "charging_station", "bicycle": "yes", "network": "DINAclub", "operator": "Repower", "operator:wikidata": "Q674712", "operator:wikipedia": "it:Repower", "website": "https://www.dinaclub.cloud"}}, {"type": "node", "id": 9967555695, "lat": 45.3568241, "lon": 11.5067053, "tags": {"amenity": "charging_station", "bicycle": "yes", "network": "DINAclub", "operator": "Repower", "operator:wikidata": "Q674712", "operator:wikipedia": "it:Repower", "website": "https://www.repower.com/it/dina/"}}, {"type": "node", "id": 9967577407, "lat": 45.4674276, "lon": 11.4895131, "tags": {"amenity": "charging_station", "bicycle": "yes", "name": "DINAclub - Stazione di Ricarica e-Bike", "network": "DINAclub", "operator": "Repower", "operator:wikidata": "Q674712", "website": "https://www.repower.com/it/dina/"}}, {"type": "node", "id": 9967724201, "lat": 45.4170454, "lon": 11.5530388, "tags": {"amenity": "charging_station", "bicycle": "yes", "name": "DINAclub - Stazione di Ricarica e-Bike", "network": "DINAclub", "operator": "Repower", "operator:wikidata": "Q674712", "operator:wikipedia": "it:Repower", "website": "https://www.repower.com/it/dina/"}}, {"type": "node", "id": 9967738838, "lat": 45.6222891, "lon": 11.3335976, "tags": {"amenity": "charging_station", "bicycle": "yes", "name": "DINAclub - Stazione di Ricarica e-Bike", "network": "DINAclub", "operator": "Repower", "operator:wikidata": "Q674712", "website": "https://www.repower.com/it/dina/"}}, {"type": "node", "id": 9992056935, "lat": 45.3577313, "lon": 11.5084502, "tags": {"amenity": "charging_station", "capacity": "2"}}, {"type": "node", "id": 10126832277, "lat": 45.58986, "lon": 11.5227281, "tags": {"amenity": "charging_station"}}, {"type": "node", "id": 10574337425, "lat": 45.7572294, "lon": 11.5658086}, {"type": "node", "id": 10574337426, "lat": 45.7571904, "lon": 11.5657505}, {"type": "node", "id": 10574337427, "lat": 45.7571489, "lon": 11.5657726}, {"type": "node", "id": 10574337428, "lat": 45.7571838, "lon": 11.5658292}, {"type": "node", "id": 10576899903, "lat": 45.5013557, "lon": 11.4358479, "tags": {"access": "yes", "amenity": "charging_station", "brand": "Ionity", "brand:wikidata": "Q42717773", "capacity": "4", "covered": "no", "fee": "yes", "name": "IONITY Montecchio Maggiore", "opening_hours": "24/7", "operator": "Ionity", "payment:app": "yes", "payment:contactless": "yes", "socket:type2_combo": "1", "socket:type2_combo:output": "350 kW"}}, {"type": "node", "id": 10576899904, "lat": 45.5013697, "lon": 11.4358519, "tags": {"access": "yes", "amenity": "charging_station", "brand": "Ionity", "brand:wikidata": "Q42717773", "capacity": "4", "covered": "no", "fee": "yes", "name": "IONITY Montecchio Maggiore", "opening_hours": "24/7", "operator": "Ionity", "payment:app": "yes", "payment:contactless": "yes", "socket:type2_combo": "1", "socket:type2_combo:output": "350 kW"}}, {"type": "node", "id": 10576899905, "lat": 45.501383, "lon": 11.4358783, "tags": {"access": "yes", "amenity": "charging_station", "brand": "Ionity", "brand:wikidata": "Q42717773", "capacity": "4", "covered": "no", "fee": "yes", "name": "IONITY Montecchio Maggiore", "opening_hours": "24/7", "operator": "Ionity", "payment:app": "yes", "payment:contactless": "yes", "socket:type2_combo": "1", "socket:type2_combo:output": "350 kW"}}, {"type": "node", "id": 10576899906, "lat": 45.5013966, "lon": 11.4358798, "tags": {"access": "yes", "amenity": "charging_station", "brand": "Ionity", "brand:wikidata": "Q42717773", "capacity": "4", "covered": "no", "fee": "yes", "name": "IONITY Montecchio Maggiore", "opening_hours": "24/7", "operator": "Ionity", "payment:app": "yes", "payment:contactless": "yes", "socket:type2_combo": "1", "socket:type2_combo:output": "350 kW"}}, {"type": "node", "id": 10593679098, "lat": 45.626994, "lon": 11.5713382}, {"type": "node", "id": 10593679099, "lat": 45.6269745, "lon": 11.5714364}, {"type": "node", "id": 10593679100, "lat": 45.62693, "lon": 11.5714192}, {"type": "node", "id": 10593679101, "lat": 45.6269498, "lon": 11.5713205}, {"type": "node", "id": 10595719689, "lat": 45.6293816, "lon": 11.5705217}, {"type": "node", "id": 10595719690, "lat": 45.6293817, "lon": 11.5706525}, {"type": "node", "id": 10595719691, "lat": 45.6293174, "lon": 11.5706526}, {"type": "node", "id": 10595719692, "lat": 45.6293173, "lon": 11.5705219}, {"type": "node", "id": 10595719703, "lat": 45.6293777, "lon": 11.5706525}, {"type": "node", "id": 10595727206, "lat": 45.6293553, "lon": 11.5706526}, {"type": "node", "id": 10595727218, "lat": 45.6293817, "lon": 11.5705643, "tags": {"direction": "180", "highway": "street_lamp", "lamp_mount": "bent_mast", "lamp_type": "electric", "support": "pole"}}, {"type": "node", "id": 10600626195, "lat": 45.4206376, "lon": 11.4636694, "tags": {"access": "yes", "amenity": "charging_station", "bicycle": "yes", "name": "DINAclub - Stazione di Ricarica e-Bike", "network": "DINAclub", "operator": "Repower", "operator:wikidata": "Q674712", "website": "https://www.repower.com/it/dina/"}}, {"type": "node", "id": 10600794097, "lat": 45.4397845, "lon": 11.5796887, "tags": {"access": "yes", "amenity": "charging_station", "bicycle": "yes", "network": "DINAclub", "operator": "Repower", "operator:wikidata": "Q674712", "operator:wikipedia": "it:Repower", "website": "https://www.repower.com/it/dina/"}}, {"type": "node", "id": 10698169780, "lat": 45.3925966, "lon": 11.0198809, "tags": {"access": "yes", "amenity": "charging_station", "brand": "Enel X", "brand:wikidata": "Q5376815", "charging_station:output": "50 kW", "frequency": "50", "name": "Enel X", "operator": "Enel X", "operator:wikidata": "Q5376815", "socket:chademo": "1", "socket:chademo:output": "50kW", "socket:type2": "1", "socket:type2:output": "36kW", "socket:type2_combo": "1", "socket:type2_combo:output": "50kW", "voltage": "500"}}, {"type": "node", "id": 10704571367, "lat": 45.5303194, "lon": 11.5079931, "tags": {"amenity": "charging_station", "operator": "Powy", "socket:chademo": "1", "socket:type2": "2", "socket:type2_combo": "1"}}, {"type": "node", "id": 10764445423, "lat": 45.6337568, "lon": 11.4825063, "tags": {"access": "private", "amenity": "charging_station", "capacity": "1", "fee": "yes"}}, {"type": "node", "id": 10777641320, "lat": 45.699354, "lon": 11.4797698, "tags": {"amenity": "charging_station", "authentication:none": "yes", "capacity": "2", "operator": "Lidl"}}, {"type": "node", "id": 10839468482, "lat": 45.7029394, "lon": 11.4818328, "tags": {"access": "yes", "amenity": "charging_station", "brand": "Enel X", "brand:wikidata": "Q5376815", "capacity": "2", "charging_station:output": "22 kW", "fee": "yes", "name": "Enel X", "operator": "Enel X", "operator:wikidata": "Q5376815", "socket:type2": "2"}}, {"type": "node", "id": 10839468483, "lat": 45.6777244, "lon": 11.5022532, "tags": {"access": "yes", "amenity": "charging_station", "brand": "Enel X", "brand:wikidata": "Q5376815", "capacity": "2", "charging_station:output": "22 kW", "fee": "yes", "name": "Enel X", "operator": "Enel X", "operator:wikidata": "Q5376815", "socket:type2": "2"}}, {"type": "node", "id": 10839468484, "lat": 45.6746621, "lon": 11.4871666, "tags": {"access": "yes", "amenity": "charging_station", "brand": "Enel X", "brand:wikidata": "Q5376815", "capacity": "2", "charging_station:output": "22 kW", "fee": "yes", "name": "Enel X", "operator": "Enel X", "operator:wikidata": "Q5376815", "socket:type2": "2"}}, {"type": "node", "id": 10839468485, "lat": 45.7044986, "lon": 11.4630625, "tags": {"access": "yes", "amenity": "charging_station", "brand": "Enel X", "brand:wikidata": "Q5376815", "capacity": "2", "charging_station:output": "22 kW", "fee": "yes", "name": "Enel X", "operator": "Enel X", "operator:wikidata": "Q5376815", "payment:app": "yes", "socket:type2": "2"}}, {"type": "node", "id": 10891580267, "lat": 45.6105801, "lon": 11.5445757}, {"type": "node", "id": 10891580268, "lat": 45.610575, "lon": 11.5446396}, {"type": "node", "id": 10891580269, "lat": 45.6105297, "lon": 11.5446299}, {"type": "node", "id": 10891580270, "lat": 45.6105363, "lon": 11.5445636}, {"type": "node", "id": 10891608863, "lat": 45.6343149, "lon": 11.553169}, {"type": "node", "id": 10891608864, "lat": 45.634265, "lon": 11.5531684}, {"type": "node", "id": 10891608865, "lat": 45.6342636, "lon": 11.5532392}, {"type": "node", "id": 10891608866, "lat": 45.6343138, "lon": 11.5532423}, {"type": "node", "id": 10891614239, "lat": 45.6426031, "lon": 11.5739085}, {"type": "node", "id": 10891614240, "lat": 45.6425932, "lon": 11.5739741}, {"type": "node", "id": 10891614241, "lat": 45.6425657, "lon": 11.5739653}, {"type": "node", "id": 10891614242, "lat": 45.6425764, "lon": 11.5739009}, {"type": "node", "id": 11002988276, "lat": 45.4674913, "lon": 11.2638308, "tags": {"access": "yes", "amenity": "charging_station", "bicycle": "yes", "network": "DINAclub", "operator": "Repower", "operator:wikidata": "Q674712", "operator:wikipedia": "it:Repower", "website": "https://www.repower.com/it/dina/"}}, {"type": "node", "id": 11013729751, "lat": 45.4047072, "lon": 11.2610677, "tags": {"amenity": "charging_station", "authentication:none": "yes", "fee": "no", "socket:type2": "4"}}, {"type": "node", "id": 11013887712, "lat": 45.4133741, "lon": 10.9802117, "tags": {"amenity": "charging_station", "capacity": "2", "charge": "0.85\u20ac/kWh", "fee": "yes", "operator": "Be Charge", "operator:wikidata": "Q113289535", "socket:type2_combo": "2", "socket:type2_combo:output": "60kW"}}, {"type": "node", "id": 11070871769, "lat": 45.7184573, "lon": 11.3681024, "tags": {"access": "yes", "amenity": "charging_station", "brand": "Enel", "brand:wikidata": "Q651222", "capacity": "2", "fee": "yes", "name": "Ricarica BEV Enel X", "operator": "Enel", "operator:wikidata": "Q651222", "payment:app": "yes"}}, {"type": "node", "id": 11070883098, "lat": 45.7260926, "lon": 11.3881447, "tags": {"access": "yes", "amenity": "charging_station", "brand": "Be Charge", "capacity": "2", "fee": "yes", "not:operator:wikidata": "Q113289535", "operator": "Eni Plenitude", "payment:app": "yes"}}, {"type": "node", "id": 11070926445, "lat": 45.7364713, "lon": 11.3907335, "tags": {"access": "yes", "amenity": "charging_station", "brand": "Be Charge", "capacity": "2", "fee": "yes", "name": "Ricarica BEV BeCharge", "operator": "Be Charge", "operator:wikidata": "Q113289535", "payment:app": "yes"}}, {"type": "node", "id": 11070954721, "lat": 45.7476283, "lon": 11.4276053, "tags": {"access": "yes", "amenity": "charging_station", "brand": "Enel", "brand:wikidata": "Q651222", "capacity": "2", "fee": "yes", "operator:wikidata": "Q651222", "payment:app": "yes"}}, {"type": "node", "id": 11100083811, "lat": 45.3170781, "lon": 11.2675462, "tags": {"amenity": "charging_station"}}, {"type": "node", "id": 11102311963, "lat": 45.7286554, "lon": 11.1733669, "tags": {"access": "yes", "amenity": "charging_station", "bicycle": "designated", "capacity": "4", "covered": "no", "fee": "no", "socket:schuko": "4"}}, {"type": "node", "id": 11158577622, "lat": 45.3628932, "lon": 11.4274393, "tags": {"amenity": "charging_station", "capacity": "2", "opening_hours": "24/7"}}, {"type": "node", "id": 11158577623, "lat": 45.3629377, "lon": 11.4274514, "tags": {"amenity": "charging_station", "capacity": "2", "opening_hours": "24/7"}}, {"type": "node", "id": 11300987009, "lat": 45.7541704, "lon": 11.4585314, "tags": {"access": "yes", "amenity": "charging_station", "brand": "BeCharge", "capacity": "4", "fee": "yes", "operator": "Be Charge", "operator:wikidata": "Q113289535", "payment:app": "yes"}}, {"type": "node", "id": 11301089652, "lat": 45.7495212, "lon": 11.4600269, "tags": {"access": "yes", "amenity": "charging_station", "brand": "Be Charge", "capacity": "2", "fee": "yes", "operator": "Be Charge", "operator:wikidata": "Q113289535", "payment:app": "yes"}}, {"type": "node", "id": 11364998241, "lat": 45.5719371, "lon": 11.5479232, "tags": {"amenity": "charging_station", "capacity": "2", "operator": "Be Charge"}}, {"type": "node", "id": 11390110220, "lat": 45.4118043, "lon": 11.2323823, "tags": {"access": "yes", "amenity": "charging_station", "brand": "Be Charge", "capacity": "2", "fee": "yes", "operator": "Be Charge", "operator:wikidata": "Q113289535"}}, {"type": "node", "id": 11407783650, "lat": 45.5307229, "lon": 11.5175845, "tags": {"access": "yes", "amenity": "charging_station", "brand": "Be Charge", "not:operator:wikidata": "Q113289535"}}, {"type": "node", "id": 11417162009, "lat": 45.396736, "lon": 10.992681, "tags": {"amenity": "charging_station", "capacity": "2", "socket:chademo": "2", "socket:type2_combo": "2"}}, {"type": "node", "id": 11417162010, "lat": 45.4216676, "lon": 10.9772735, "tags": {"amenity": "charging_station", "capacity": "4", "operator": "Atlante"}}, {"type": "node", "id": 11417162011, "lat": 45.4302056, "lon": 10.9868006, "tags": {"amenity": "charging_station", "capacity": "2"}}, {"type": "node", "id": 11417162013, "lat": 45.401116, "lon": 10.97904, "tags": {"amenity": "charging_station", "operator": "Be Charge", "operator:wikidata": "Q113289535"}}, {"type": "node", "id": 11417162014, "lat": 45.438162, "lon": 11.024247, "tags": {"amenity": "charging_station", "capacity": "2", "operator": "Lidl", "operator:wikidata": "Q151954"}}, {"type": "node", "id": 11486445931, "lat": 45.7077479, "lon": 11.4799947}, {"type": "node", "id": 11486445932, "lat": 45.7077587, "lon": 11.4799316}, {"type": "node", "id": 11486445933, "lat": 45.7077976, "lon": 11.4799842}, {"type": "node", "id": 11486445934, "lat": 45.7077881, "lon": 11.4800569}, {"type": "node", "id": 11544247685, "lat": 45.645249, "lon": 11.576752, "tags": {"amenity": "charging_station"}}, {"type": "node", "id": 11663471628, "lat": 45.32052, "lon": 11.2634917, "tags": {"amenity": "charging_station"}}, {"type": "node", "id": 11717331407, "lat": 45.6406419, "lon": 11.5461968, "tags": {"access": "private", "amenity": "charging_station", "brand": "Silla", "capacity": "1", "covered": "no", "fee": "yes", "level": "0", "manufacturer": "Silla", "payment:paypal": "yes", "payment:satispay": "yes", "start_date": "2024-01-25"}}, {"type": "node", "id": 11850302241, "lat": 45.4463394, "lon": 11.0000613, "tags": {"amenity": "charging_station", "capacity": "2", "operator": "agsm aim"}}, {"type": "node", "id": 12103245182, "lat": 45.4087432, "lon": 11.5874681}, {"type": "node", "id": 12103245183, "lat": 45.4087277, "lon": 11.5875559}, {"type": "node", "id": 12103245184, "lat": 45.4087672, "lon": 11.5875701}, {"type": "node", "id": 12103245185, "lat": 45.4087827, "lon": 11.5874823}, {"type": "node", "id": 12105237793, "lat": 45.4194257, "lon": 11.5546821, "tags": {"access": "yes", "amenity": "charging_station", "bicycle": "yes", "brand": "Repower", "capacity": "220V", "fee": "no", "network": "DINAclub", "operator": "Repower", "operator:wikidata": "Q674712", "website": "https://www.repower.com/it/dina/"}}, {"type": "node", "id": 12139831744, "lat": 45.3343568, "lon": 11.5632141, "tags": {"amenity": "charging_station", "capacity": "2", "operator": "Atlante"}}, {"type": "node", "id": 12147681167, "lat": 45.4195431, "lon": 11.2476767, "tags": {"access": "yes", "amenity": "charging_station", "capacity": "2", "fee": "yes"}}, {"type": "node", "id": 12147691642, "lat": 45.4241744, "lon": 11.2487281, "tags": {"access": "yes", "amenity": "charging_station", "capacity": "2", "fee": "yes", "operator": "Alperia"}}, {"type": "node", "id": 12147691643, "lat": 45.4206546, "lon": 11.250388, "tags": {"access": "yes", "amenity": "charging_station", "capacity": "2", "fee": "yes"}}, {"type": "node", "id": 12147720214, "lat": 45.4213315, "lon": 11.2459139, "tags": {"access": "yes", "amenity": "charging_station", "capacity": "2", "fee": "yes"}}, {"type": "node", "id": 12167569413, "lat": 45.3269111, "lon": 11.0851664, "tags": {"amenity": "charging_station"}}, {"type": "node", "id": 12167569414, "lat": 45.3268987, "lon": 11.0851923, "tags": {"amenity": "charging_station"}}, {"type": "way", "id": 1134237649, "nodes": [10574337425, 10574337426, 10574337427, 10574337428, 10574337425], "tags": {"access": "yes", "amenity": "charging_station", "area": "yes", "capacity": "2", "charge": "0.60 \u20ac/kWh", "covered": "no", "fee": "yes", "level": "0", "name": "Be Charge Salcedo", "operator": "Be Charge", "operator:wikidata": "Q113289535", "payment:app": "yes", "website": "https://www.bec.energy/rete-di-ricarica/", "wikimedia_commons": "File:Stazione_di_ricarica_a_Salcedo.jpg"}}, {"type": "way", "id": 1136403053, "nodes": [10593679098, 10593679099, 10593679100, 10593679101, 10593679098], "tags": {"access": "no", "amenity": "charging_station", "brand": "Wroom", "capacity": "2", "covered": "no", "fee": "yes", "name": "Wroom Dueville San Giovanni", "opening_hours": "24/7", "operator": "Ressolar", "parking:fee": "no", "payment:app": "yes", "ref": "01306", "socket:type2": "1", "socket:type2:current": "32", "socket:type2:output": "22 kW", "socket:type2:voltage": "400", "socket:type2_combo": "1", "socket:type2_combo:current": "125", "socket:type2_combo:output": "50 kW", "socket:type2_combo:voltage": "500", "website": "https://www.wroom.org/", "wikimedia_commons": "File:Stazione di ricarica per veicoli elettrici Wroom a Povolaro.jpg"}}, {"type": "way", "id": 1136642662, "nodes": [10595719689, 10595727218, 10595719690, 10595719703, 10595727206, 10595719691, 10595719692, 10595719689], "tags": {"access": "yes", "amenity": "charging_station", "authentication:app": "yes", "authentication:membership_card": "yes", "bicycle": "no", "capacity": "4", "charge": "0.60 EUR/kWh", "check_date": "2023-08-22", "covered": "no", "fee": "yes", "level": "0", "manufacturer": "Scame", "motorcar": "yes", "name": "Be Charge La Decima", "opening_hours": "24/7", "operator": "Be Charge", "operator:wikidata": "Q113289535", "parking:fee": "no", "payment:app": "yes", "socket:type2": "4", "socket:type2:output": "22 kW", "start_date": "2020-09-01", "website": "https://www.bec.energy/rete-di-ricarica/", "wikimedia_commons": "File:Stazione di ricarica Be Charge La Decima.jpg"}}, {"type": "way", "id": 1172214302, "nodes": [10891580267, 10891580268, 10891580269, 10891580270, 10891580267], "tags": {"amenity": "charging_station", "brand": "Wroom", "capacity": "2", "name": "Wroom Dueville S. Pio X", "operator": "Ressolar", "ref": "01308"}}, {"type": "way", "id": 1172216684, "nodes": [10891614239, 10891614240, 10891614241, 10891614242, 10891614239], "tags": {"amenity": "charging_station", "capacity": "2", "nome": "Wroom Dueville De Gasperi", "operator": "Ressolar", "ref": "01307"}}, {"type": "way", "id": 1172216795, "nodes": [10891608863, 10891608864, 10891608865, 10891608866, 10891608863], "tags": {"amenity": "charging_station", "brand": "Wroom", "capacity": "2", "name": "Wroom Dueville Piscine", "operator": "Ressolar", "ref": "01305"}}, {"type": "way", "id": 1236882916, "nodes": [11486445932, 11486445933, 11486445934, 11486445931, 11486445932], "tags": {"access": "yes", "amenity": "charging_station", "brand": "Enel X", "brand:wikidata": "Q5376815", "capacity": "2", "fee": "no", "maxstay": "2 hours", "name": "Enel X", "operator": "Enel X", "operator:wikidata": "Q5376815", "parking_space": "charging"}}, {"type": "way", "id": 1306922784, "nodes": [12103245182, 12103245183, 12103245184, 12103245185, 12103245182], "tags": {"access": "yes", "amenity": "charging_station", "capacity": "2", "check_date": "2024-10-04", "fee": "yes", "operator": "Be Charge", "operator:wikidata": "Q113289535", "parking:fee": "no"}}]}