{"version": 0.6, "generator": "Overpass API 0.7.62.1 084b4234", "osm3s": {"timestamp_osm_base": "2024-11-06T19:40:27Z", "copyright": "The data included in this document is from www.openstreetmap.org. The data is made available under ODbL."}, "elements": [{"type": "node", "id": 1392675826, "lat": 46.6282955, "lon": 10.4462775}, {"type": "node", "id": 1392675828, "lat": 46.6283578, "lon": 10.4461301}, {"type": "node", "id": 1392675850, "lat": 46.6284483, "lon": 10.4462112}, {"type": "node", "id": 1392683401, "lat": 46.628386, "lon": 10.4463586}, {"type": "node", "id": 4233900091, "lat": 46.6288965, "lon": 10.7729278, "tags": {"amenity": "charging_station", "authentication:nfc": "yes", "authentication:phone_call:number": "+390471098799", "capacity": "2", "fee": "yes", "motorcar": "yes", "opening_hours": "24/7", "operator": "Alperia AG", "parking:fee": "no", "socket:type2": "1;1", "socket:type2:output": "11kW;22kW", "website": "https://www.alperia.eu/"}}, {"type": "node", "id": 4363588390, "lat": 46.6899785, "lon": 10.5429279, "tags": {"amenity": "charging_station", "amperage": "32", "capacity": "1", "operator": "Alperia", "operator:wikidata": "Q25387077", "socket:chademo": "1", "socket:type2_combo": "1", "voltage": "400"}}, {"type": "node", "id": 5756788361, "lat": 46.6265108, "lon": 10.7705739, "tags": {"access": "yes", "amenity": "charging_station", "capacity": "2", "fee": "yes", "motorcar": "yes", "name": "Schlanders", "name:de": "Schlanders", "name:it": "Silandro", "opening_hours": "24/7", "operator": "Alperia", "operator:wikidata": "Q25387077", "payment:credit_cards": "yes", "payment:rfid_card": "yes", "payment:smartphone": "yes", "socket:chademo": "1", "socket:chademo:output": "50kW", "socket:type2": "1", "socket:type2:output": "43kW", "socket:type2_combo": "1", "socket:type2_combo:output": "50kW", "source": "survey"}}, {"type": "node", "id": 6317620612, "lat": 46.7007434, "lon": 10.5065946, "tags": {"access": "private", "amenity": "charging_station", "capacity": "1", "description": "bike-energy Ladestation", "level": "-1", "socket:type2": "1"}}, {"type": "node", "id": 6328505930, "lat": 46.7968544, "lon": 10.3024836, "tags": {"access": "yes", "amenity": "charging_station", "capacity": "2", "covered": "no", "fee": "yes", "motorcar": "yes", "name": "Parkplatz Schulhaus, Scuol", "network": "MOVE", "opening_hours": "24/7", "operator": "ee-en.ch", "ref:EU:EVSE": "CH*CCI*E21243;CH*CCI*E21244", "socket:type2": "2", "socket:type2:current": "16", "socket:type2:output": "11 kW", "socket:type2:voltage": "400"}}, {"type": "node", "id": 6704010615, "lat": 46.7643222, "lon": 10.532719, "tags": {"amenity": "charging_station", "bicycle": "yes", "operator": "Energie Genossenschaft Oberland"}}, {"type": "node", "id": 6932105160, "lat": 46.6269781, "lon": 10.3362241, "tags": {"access": "yes", "addr:city": "Tschierv", "addr:country": "CH", "addr:postcode": "7532", "amenity": "charging_station", "authentication:app": "yes", "authentication:none": "yes", "bicycle": "no", "capacity": "2", "covered": "no", "description": "Plug'n Roll Ladestation", "fee": "yes", "fuel:electricity": "yes", "hgv": "no", "image": "https://goo.gl/maps/xXea6kQhSjQfCHQr8", "motorcar": "yes", "motorcycle": "yes", "name": "Biosfera Val M\u00fcstair", "network": "Plug'n Roll", "opening_hours": "24/7", "operator": "Plug'n Roll", "operator:wikidata": "Q115241443", "operator:wikipedia": "de:Repower AG", "parking:fee": "no", "payment:coins": "no", "payment:credit_cards": "yes", "payment:twint": "yes", "socket:type2": "2", "socket:type2:output": "22 kW", "voltage": "400", "website": "https://plugnroll.com"}}, {"type": "node", "id": 7695277746, "lat": 46.7155807, "lon": 10.3339085, "tags": {"amenity": "charging_station"}}, {"type": "node", "id": 7781783104, "lat": 46.7943539, "lon": 10.2882019, "tags": {"access": "yes", "amenity": "charging_station", "authentication:nfc": "yes", "brand": "Move", "capacity": "2", "covered": "no", "fee": "yes", "motorcar": "yes", "opening_hours": "24/7", "operator": "MOVE", "operator:wikidata": "Q110278557", "parking:fee": "yes", "ref:EU:EVSE": "CH*CCI*E21241;CH*CCI*E21242", "socket:type2": "2", "socket:type2:current": "32", "socket:type2:output": "22", "socket:type2:voltage": "400"}}, {"type": "node", "id": 7872241479, "lat": 46.8084865, "lon": 10.5402443, "tags": {"access": "yes", "amenity": "charging_station", "capacity": "2", "covered": "no", "fee": "yes", "manufacturer": "Alpitronic", "operator": "vion"}}, {"type": "node", "id": 8622988783, "lat": 46.6172586, "lon": 10.5891832, "tags": {"amenity": "charging_station", "name": "Schnellladestation"}}, {"type": "node", "id": 8868134326, "lat": 46.8267125, "lon": 10.51973, "tags": {"amenity": "charging_station", "bicycle": "yes"}}, {"type": "node", "id": 9095212059, "lat": 46.6206874, "lon": 10.810505, "tags": {"access": "private", "amenity": "charging_station", "level": "-1", "operator": "Vinschger Hof"}}, {"type": "node", "id": 9105530819, "lat": 46.6089929, "lon": 10.3718291, "tags": {"access": "yes", "amenity": "charging_station", "authentication:app": "yes", "authentication:contactless": "yes", "authentication:none": "yes", "bicycle": "no", "brand": "Zaptec", "capacity": "1", "covered": "no", "fee": "yes", "hgv": "no", "motorcar": "yes", "motorcycle": "no", "name": "Hotel Landgasthof Staila", "network": "eCarUp", "opening_hours": "24/7", "parking:fee": "no", "payment:bills": "no", "payment:coins": "no", "payment:credit_cards": "yes", "socket:type2": "1", "socket:type2:output": "22 kW"}}, {"type": "node", "id": 9131954022, "lat": 46.786879, "lon": 10.2390977, "tags": {"access": "customers", "amenity": "charging_station", "bicycle": "no", "capacity": "2", "covered": "yes", "description:de": "Tesla Destination Charger 1x Tesla, 1x Allgemein", "fee": "yes", "motorcar": "yes", "network": "Tesla Destination Charging", "opening_hours": "24/7", "parking:fee": "no", "socket:tesla_supercharger": "1", "socket:tesla_supercharger:output": "22 kW", "socket:type2": "1", "socket:type2:output": "22 kW"}}, {"type": "node", "id": 9142485250, "lat": 46.700763, "lon": 10.5065503, "tags": {"access": "customers", "amenity": "charging_station", "authentication:app": "no", "authentication:contactless": "yes", "authentication:none": "no", "bicycle": "no", "brand": "Mennekes", "capacity": "1", "covered": "yes", "description": "RFID token can be obtained at the hotel reception", "fee": "yes", "hgv": "no", "level": "-1", "motorcar": "yes", "motorcycle": "yes", "name": "Hotel Watles", "opening_hours": "24/7", "parking:fee": "no", "payment:bills": "no", "payment:coins": "no", "payment:credit_cards": "no", "payment:sms": "no", "socket:type2_cable": "1"}}, {"type": "node", "id": 9142485251, "lat": 46.7008359, "lon": 10.5065748, "tags": {"access": "customers", "amenity": "charging_station", "authentication:app": "no", "authentication:contactless": "yes", "authentication:none": "no", "bicycle": "no", "brand": "Mennekes", "capacity": "1", "covered": "yes", "description": "RFID token can be obtained at the hotel reception", "fee": "yes", "hgv": "no", "level": "-1", "motorcar": "yes", "motorcycle": "yes", "name": "Hotel Watles", "opening_hours": "24/7", "parking:fee": "no", "payment:bills": "no", "payment:coins": "no", "payment:credit_cards": "no", "payment:sms": "no", "socket:type2_cable": "1"}}, {"type": "node", "id": 9142485252, "lat": 46.700726, "lon": 10.5065101, "tags": {"access": "customers", "amenity": "charging_station", "authentication:app": "no", "authentication:contactless": "yes", "authentication:none": "no", "bicycle": "no", "brand": "Mennekes", "capacity": "1", "covered": "yes", "description": "RFID token can be obtained at the hotel reception", "fee": "yes", "hgv": "no", "level": "-1", "motorcar": "yes", "motorcycle": "yes", "name": "Hotel Watles", "opening_hours": "24/7", "parking:fee": "no", "payment:bills": "no", "payment:coins": "no", "payment:credit_cards": "no", "payment:sms": "no", "socket:type2_cable": "1"}}, {"type": "node", "id": 9409489492, "lat": 46.6283118, "lon": 10.7769375, "tags": {"access": "yes", "amenity": "charging_station", "capacity": "2", "fixme": "details neccessary (socket types, socket capacity...)", "operator": "VION", "socket:chademo": "1", "socket:type2_combo": "1"}}, {"type": "node", "id": 9505014183, "lat": 46.7963139, "lon": 10.254897, "tags": {"access": "customers", "amenity": "charging_station", "bicycle": "no", "capacity": "1", "covered": "no", "description:de": "Nur auf Anruf verf\u00fcgbar 079 725 12 46", "fee": "yes", "motorcar": "yes", "name": "Ferienwohnung Chasa Kindschi", "socket:type2": "1", "socket:type2:output": "22 kW"}}, {"type": "node", "id": 9505014184, "lat": 46.793346, "lon": 10.2859991, "tags": {"access": "yes", "amenity": "charging_station", "authentication:app": "yes", "bicycle": "no", "capacity": "2", "covered": "no", "description": "Plug'n Roll Ladestation", "fee": "yes", "motorcar": "yes", "name": "Plug'n Roll  Ladestation", "network": "Plug'n Roll", "opening_hours": "24/7", "operator": "Plug'n Roll", "operator:wikidata": "Q115241443", "parking:fee": "yes", "ref:EU:EVSE": "CH*REPE09*7*01", "socket:type2": "2", "socket:type2:output": "22 kW", "voltage": "400", "website": "https://plugnroll.com", "wikipedia": "de:Repower AG"}}, {"type": "node", "id": 9505014186, "lat": 46.7913402, "lon": 10.2865316, "tags": {"access": "yes", "amenity": "charging_station", "authentication:app": "yes", "authentication:contactless": "yes", "bicycle": "no", "capacity": "2", "covered": "no", "fee": "yes", "motorcar": "yes", "network": "Swisscharge", "opening_hours": "24/7", "parking:fee": "no", "ref:EU:EVSE": "CH*SWI*E7713;CH*SWI*E7714", "socket:type2": "2", "socket:type2:current": "16", "socket:type2:output": "11 kW", "socket:type2:voltage": "400"}}, {"type": "node", "id": 9505014187, "lat": 46.7869048, "lon": 10.2879929, "tags": {"access": "yes", "amenity": "charging_station", "authentication:app": "yes", "authentication:contactless": "yes", "bicycle": "no", "capacity": "1", "covered": "no", "description:de": "Hotel Villa Post", "fee": "yes", "motorcar": "yes", "name": "Hotel Villa Post", "network": "eCarUp", "opening_hours": "24/7", "parking:fee": "no", "ref:EU:EVSE": "CH*ECUEMG7QSQS8CX5AZEDBDAQWXNDZES", "socket:type2": "1", "socket:type2:current": "32", "socket:type2:output": "22 kW", "socket:type2:voltage": "400"}}, {"type": "node", "id": 9505014193, "lat": 46.7973437, "lon": 10.2985285, "tags": {"access": "customers", "amenity": "charging_station", "authentication:contactless": "yes", "bicycle": "no", "capacity": "3", "covered": "yes", "fee": "unknown", "motorcar": "yes", "name": "Hotel Belvedere", "network": "Tesla Destination Charging", "opening_hours": "24/7", "parking:fee": "unknown", "socket:type2": "3", "socket:type2:output": "22 kW"}}, {"type": "node", "id": 9505014196, "lat": 46.7971348, "lon": 10.300312, "tags": {"access": "yes", "amenity": "charging_station", "authentication:contactless": "yes", "bicycle": "no", "capacity": "4", "covered": "yes", "fee": "yes", "motorcar": "yes", "name": "Einstellhalle Bogn Engiadina", "network": "Swisscharge", "opening_hours": "24/7", "parking:fee": "yes", "ref:EU:EVSE": "CH*SWI*E93679;CH*SWI*E93683;CH*SWI*E128333;CH*SWI*E128334", "socket:type2": "4", "socket:type2:current": "32", "socket:type2:output": "22 kW", "socket:type2:voltage": "400"}}, {"type": "node", "id": 9505014200, "lat": 46.7999467, "lon": 10.2993895, "tags": {"access": "private", "amenity": "charging_station", "bicycle": "no", "capacity": "1", "covered": "no", "description:de": "Strompreis CHF 0.11 / kWh +41797299233", "fee": "yes", "motorcar": "yes", "name": "Privat Wagner", "opening_hours": "24/7", "parking:fee": "no", "socket:cee_blue": "1", "socket:cee_blue:output": "3.7 kW", "socket:cee_red": "1", "socket:cee_red:output": "11 kW", "socket:type1": "1", "socket:type1:output": "3.7 kW", "socket:type2_cable": "1", "socket:type2_cable:output": "22 kW"}}, {"type": "node", "id": 9505014201, "lat": 46.8160726, "lon": 10.3316338, "tags": {"access": "yes", "amenity": "charging_station", "authentication:app": "yes", "authentication:contactless": "yes", "bicycle": "no", "capacity": "2", "covered": "yes", "fee": "yes", "motorcar": "yes", "network": "Move", "opening_hours": "24/7", "parking:fee": "yes", "socket:type2": "2", "socket:type2:output": "22 kW"}}, {"type": "node", "id": 9505050107, "lat": 46.6032707, "lon": 10.4266555, "tags": {"access": "customers", "amenity": "charging_station", "authentication:app": "yes", "authentication:contactless": "yes", "bicycle": "no", "capacity": "2", "covered": "no", "description:de": "1x Alle, 1x Tesla only", "fee": "unknown", "motorcar": "yes", "name": "Hotel Schweizerhof", "network": "Tesla Destination Charging", "opening_hours": "24/7", "parking:fee": "no", "socket:type2_cable": "2", "socket:type2_cable:output": "22 kW"}}, {"type": "node", "id": 9505051954, "lat": 46.6264525, "lon": 10.4463013, "tags": {"access": "customers", "amenity": "charging_station", "authentication:app": "yes", "authentication:contactless": "yes", "bicycle": "no", "capacity": "2", "covered": "yes", "description:de": "1x Alle, 1x Tesla only", "fee": "unknown", "motorcar": "yes", "name": "Hotel Helvetia", "network": "Tesla Destination Charging", "opening_hours": "24/7", "parking:fee": "no", "socket:type2_cable": "2", "socket:type2_cable:output": "22 kW"}}, {"type": "node", "id": 9631483941, "lat": 46.8108397, "lon": 10.5379306, "tags": {"access": "yes", "amenity": "charging_station", "authentication:none": "yes", "bicycle": "yes", "capacity": "6", "fee": "no", "motorcar": "no", "motorcycle": "no", "name": "E-Rad-Ladestelle", "name:de": "E-Rad-Ladestelle", "name:fr": "Borne de recharge pour v\u00e9los \u00e9lectriques", "opening_hours": "24/7", "scooter": "no", "socket:schuko": "6", "truck": "no"}}, {"type": "node", "id": 9931219895, "lat": 46.6287834, "lon": 10.7750971, "tags": {"access": "yes", "amenity": "charging_station", "authentication:none": "yes", "bicycle": "yes", "brand": "bike-energy", "brand:wikidata": "Q67770877", "capacity": "4", "check_date": "2022-03-10", "description": "bike-energy Ladestation POINT P4B \u2013 Anschlu\u00df f\u00fcr 4 E-Bikes. Das passende Ladekabel f\u00fcr Ihr E-Bike k\u00f6nnen Sie ganz einfach vor Ort ausleihen, im lokalen Sportartikelhandel erwerben oder direkt auf www.bike-energy.com bestellen.", "fee": "no", "motorcar": "no", "motorcycle": "no", "name": "E-Bike-Ladestation Schlanders Dorfplatz", "opening_hours": "24/7", "operator": "Gemeinde Schlanders", "operator:wikidata": "Q67770877", "scooter": "no", "truck": "no", "unsigned_ref": "4559"}}, {"type": "node", "id": 9931219896, "lat": 46.6284891, "lon": 10.7767955, "tags": {"access": "yes", "amenity": "charging_station", "authentication:none": "yes", "bicycle": "yes", "brand": "bike-energy", "brand:wikidata": "Q67770877", "capacity": "4", "check_date": "2022-03-10", "description": "bike-energy Ladestation POINT P4B \u2013 Anschlu\u00df f\u00fcr 4 E-Bikes. Das passende Ladekabel f\u00fcr Ihr E-Bike k\u00f6nnen Sie ganz einfach vor Ort ausleihen, im lokalen Sportartikelhandel erwerben oder direkt auf www.bike-energy.com bestellen.", "fee": "no", "motorcar": "no", "motorcycle": "no", "name": "E-Bike-Ladestation Schlanders Damml", "opening_hours": "24/7", "operator": "Gemeinde Schlanders", "operator:wikidata": "Q67770877", "scooter": "no", "truck": "no", "unsigned_ref": "4562"}}, {"type": "node", "id": 9931219897, "lat": 46.6267486, "lon": 10.7725452, "tags": {"access": "yes", "amenity": "charging_station", "authentication:none": "yes", "bicycle": "yes", "brand": "bike-energy", "brand:wikidata": "Q67770877", "capacity": "4", "check_date": "2020-06-30", "description": "bike-energy Ladestation POINT P4B \u2013 Anschlu\u00df f\u00fcr 4 E-Bikes. Das passende Ladekabel f\u00fcr Ihr E-Bike k\u00f6nnen Sie ganz einfach vor Ort ausleihen, im lokalen Sportartikelhandel erwerben oder direkt auf www.bike-energy.com bestellen.", "fee": "no", "motorcar": "no", "motorcycle": "no", "name": "E-Bike-Ladestation Schlanders Kulturhaus", "opening_hours": "24/7", "operator": "Gemeinde Schlanders", "operator:wikidata": "Q67770877", "scooter": "no", "truck": "no", "unsigned_ref": "1884"}}, {"type": "node", "id": 10606235079, "lat": 46.7951742, "lon": 10.2462533, "tags": {"access": "yes", "amenity": "charging_station", "authentication:nfc": "yes", "brand": "Move", "capacity": "2", "fee": "yes", "motorcar": "yes", "operator": "MOVE", "operator:wikidata": "Q110278557", "parking:fee": "yes", "ref:EU:EVSE": "CH*CCI*E21255;CH*CCI*E21256", "socket:type2": "2", "socket:type2:current": "32", "socket:type2:output": "22 kW", "socket:type2:voltage": "400"}}, {"type": "node", "id": 10621224610, "lat": 46.8059125, "lon": 10.2510817, "tags": {"amenity": "charging_station", "bicycle": "yes", "fee": "no", "socket:sev1011_t13": "4"}}, {"type": "node", "id": 11118897542, "lat": 46.7884465, "lon": 10.2696319, "tags": {"access": "yes", "amenity": "charging_station", "capacity": "2", "fee": "yes", "operator": "MOVE", "operator:wikidata": "Q110278557", "ref:EU:EVSE": "CH*CCC*E50337;CH*CCC*E50338", "socket:chademo": "1", "socket:chademo:current": "200", "socket:chademo:output": "100 kW", "socket:chademo:voltage": "500", "socket:type2_combo": "1", "socket:type2_combo:current": "500", "socket:type2_combo:output": "150 kW", "socket:type2_combo:voltage": "1000"}}, {"type": "node", "id": 11118903482, "lat": 46.7913686, "lon": 10.2983541, "tags": {"access": "yes", "amenity": "charging_station", "capacity": "1", "fee": "yes", "name": "TCS Camping Scuol", "operator": "Swisscharge", "operator:wikidata": "Q113162249", "ref:EU:EVSE": "CH*SWI*E122309", "socket:type2:current": "16", "socket:type2:output": "11 kW", "socket:type2:voltage": "400"}}, {"type": "node", "id": 11118938829, "lat": 46.7971276, "lon": 10.298948, "tags": {"access": "customers", "amenity": "charging_station", "operator": "Hotel Belv\u00e9d\u00e8re"}}, {"type": "node", "id": 11118939900, "lat": 46.7972625, "lon": 10.297499, "tags": {"access": "customers", "amenity": "charging_station", "capacity": "2", "operator": "Hotel GuardaVal", "ref:EU:EVSE": "CH*CCI*E21349;CH*CCI*E21350", "socket:type2": "2", "socket:type2:output": "11 kW"}}, {"type": "node", "id": 11700565962, "lat": 46.6837573, "lon": 10.5475076, "tags": {"access": "yes", "amenity": "charging_station", "capacity": "2", "fee": "yes", "operator": "Vion"}}, {"type": "node", "id": 11775636669, "lat": 46.6213185, "lon": 10.8670175, "tags": {"amenity": "charging_station"}}, {"type": "node", "id": 11999795869, "lat": 46.6188469, "lon": 10.8217029, "tags": {"access": "yes", "amenity": "charging_station", "capacity": "2", "fee": "yes", "fixme": "exact position", "operator": "be.energised", "socket:chademo": "1", "socket:chademo:output": "50 kW", "socket:type2": "1", "socket:type2:output": "22 kW", "socket:type2_combo": "1", "socket:type2_combo:output": "75 kW"}}, {"type": "node", "id": 11999814969, "lat": 46.6179005, "lon": 10.6978337, "tags": {"access": "yes", "amenity": "charging_station", "capacity": "2", "fee": "yes", "fixme": "exact position", "operator": "be.energised", "socket:chademo": "1", "socket:chademo:output": "50 kW", "socket:type2": "1", "socket:type2:output": "22 kW", "socket:type2_combo": "1", "socket:type2_combo:output": "75 kW"}}, {"type": "way", "id": 125363724, "nodes": [1392675850, 1392683401, 1392675826, 1392675828, 1392675850], "tags": {"addr:city": "M\u00fcstair", "addr:country": "CH", "addr:housenumber": "40", "addr:postcode": "7537", "addr:street": "Via Maistra", "amenity": "charging_station", "building": "yes", "operator": "M\u00fcnsterhof AG"}}]}