{"version": 0.6, "generator": "Overpass API 0.7.62.1 084b4234", "osm3s": {"timestamp_osm_base": "2024-11-06T19:41:29Z", "copyright": "The data included in this document is from www.openstreetmap.org. The data is made available under ODbL."}, "elements": [{"type": "node", "id": 5837974262, "lat": 45.1735239, "lon": 6.6531601, "tags": {"amenity": "charging_station", "bicycle": "yes"}}, {"type": "node", "id": 6616184589, "lat": 45.2187424, "lon": 7.1899249, "tags": {"amenity": "charging_station", "amperage": "64", "brand": "Enel X", "brand:wikidata": "Q5376815", "brand:wikipedia": "en:Enel X", "capacity": "2", "motorcar": "yes", "opening_hours": "24/7", "operator": "enel x", "operator:wikidata": "Q5376815", "operator:wikipedia": "en:Enel X", "ref": "19XP22T3KK4AD00431", "socket:type2": "2", "voltage": "230"}}, {"type": "node", "id": 6644689241, "lat": 45.2328037, "lon": 7.2215911, "tags": {"amenity": "charging_station", "brand": "Enel X", "brand:wikidata": "Q5376815", "brand:wikipedia": "en:Enel X", "capacity": "2", "fee": "yes", "motorcar": "yes", "name": "Enel X", "opening_hours": "24/7", "operator": "enel x", "operator:wikidata": "Q5376815", "operator:wikipedia": "en:Enel X", "socket:type2": "2", "voltage": "400"}}, {"type": "node", "id": 7069562931, "lat": 45.4492418, "lon": 6.9801622, "tags": {"amenity": "charging_station", "bicycle": "yes", "fee": "no", "motorcar": "no", "name": "Bosch eBike Power Station", "operator": "Office TourismeVal d'Is\u00e8re"}}, {"type": "node", "id": 7069573939, "lat": 45.2850914, "lon": 6.8780469, "tags": {"amenity": "charging_station", "bicycle": "yes", "fee": "no", "motorcar": "no", "name": "Bosch eBike Power Station", "operator": "Le relais des 2 cols"}}, {"type": "node", "id": 7121594507, "lat": 45.1938352, "lon": 6.6597702, "tags": {"amenity": "charging_station", "bicycle": "yes", "fee": "no", "motorcar": "no", "name": "Bosch eBike Power Station", "operator": "Maison Cantonale-Office Tourisme"}}, {"type": "node", "id": 7392540138, "lat": 45.2027475, "lon": 6.6708712, "tags": {"access": "yes", "amenity": "charging_station", "authentication:none": "yes", "capacity": "2", "charging_station:output": "22 kW", "fee": "no", "manufacturer": "Atomelec", "operator": "Maurienne", "socket:type2:output": "22 kW", "survey:date": "2022-08-19"}}, {"type": "node", "id": 7686769170, "lat": 45.1346973, "lon": 7.044139, "tags": {"amenity": "charging_station", "brand": "Enel", "brand:wikidata": "Q651222", "brand:wikipedia": "en:Enel", "capacity": "2", "charging_station:output": "44 kW", "fee": "yes", "name": "Enel"}}, {"type": "node", "id": 7781419873, "lat": 45.2858969, "lon": 6.8829052, "tags": {"amenity": "charging_station", "authentication:none": "yes", "capacity": "2", "covered": "no", "fee": "no", "operator": "Maurienne", "socket:schuko": "2", "socket:type2": "2"}}, {"type": "node", "id": 7818385290, "lat": 45.4685923, "lon": 6.9056648, "tags": {"amenity": "charging_station", "bicycle": "yes", "capacity": "4", "name": "eBike", "operator": "Spar"}}, {"type": "node", "id": 8941050073, "lat": 45.2223948, "lon": 7.2272792, "tags": {"amenity": "charging_station", "brand": "Enel X", "brand:wikidata": "Q5376815", "brand:wikipedia": "en:Enel X", "capacity": "2", "name": "Enel X", "network": "Enel X", "opening_hours": "24/7", "operator": "Enel X", "operator:wikidata": "Q5376815", "operator:wikipedia": "en:Enel X", "socket:type2": "2", "socket:type2:output": "20400"}}, {"type": "node", "id": 9393154883, "lat": 45.2849486, "lon": 6.8856395, "tags": {"access": "customers", "addr:city": "Lanslebourg", "addr:postcode": "73480", "addr:street": "Chemin des Crueux", "amenity": "charging_station", "brand": "Tesla, Inc.", "brand:wikidata": "Q478214", "capacity": "3", "name": "H\u00f4tel Saint Charles Val Cenis Destination Charger", "operator": "H\u00f4tel Saint Charles Val Cenis", "short_name": "Tesla", "socket:type2": "2", "website": "https://www.tesla.com/fr_FR/findus/location/charger/dc22219"}}, {"type": "node", "id": 9724530340, "lat": 45.1383322, "lon": 7.0156792, "tags": {"amenity": "charging_station", "bicycle": "yes"}}, {"type": "node", "id": 9947269966, "lat": 45.2015571, "lon": 6.7027738, "tags": {"amenity": "charging_station", "fee": "no"}}, {"type": "node", "id": 9947269967, "lat": 45.2015416, "lon": 6.702777, "tags": {"amenity": "charging_station", "fee": "no"}}, {"type": "node", "id": 9947270764, "lat": 45.2024623, "lon": 6.6987132, "tags": {"amenity": "charging_station", "capacity": "2", "fee": "no", "operator": "ChargePoint"}}, {"type": "node", "id": 9947270765, "lat": 45.2024434, "lon": 6.69874, "tags": {"amenity": "charging_station", "capacity": "2", "fee": "no", "operator": "ChargePoint"}}, {"type": "node", "id": 9959411689, "lat": 45.3224942, "lon": 6.9988732, "tags": {"amenity": "charging_station", "bicycle": "designated", "brand": "Bosch Car Service", "capacity": "2", "fee": "no", "name": "e-bike", "operator": "Sherpa", "source": "https://www.haute-maurienne-vanoise.com/ete/offres/borne-de-recharge-vae-bessans-fr-ete-3551840/"}}, {"type": "node", "id": 10136155564, "lat": 45.4593529, "lon": 6.9663062, "tags": {"access": "customers", "amenity": "charging_station"}}, {"type": "node", "id": 10572802227, "lat": 45.0822597, "lon": 6.7111874, "tags": {"access": "customers", "addr:city": "Bardonecchia Torino", "addr:country": "IT", "addr:postcode": "10052", "addr:street": "KM 73 Autostrada A32 Torino-Bardonecchia", "amenity": "charging_station", "brand": "Tesla Supercharger", "brand:wikidata": "Q17089620", "capacity": "8", "fee": "yes", "motorcar": "yes", "name": "Bardonecchia Supercharger", "opening_hours": "24/7", "operator": "Tesla, Inc.", "operator:wikidata": "Q478214", "short_name": "Tesla", "socket:tesla_supercharger": "8", "socket:tesla_supercharger:output": "250 kW", "socket:tesla_supercharger_ccs": "8", "socket:tesla_supercharger_ccs:output": "250 kW", "website": "https://www.tesla.com/findus/location/supercharger/bardonecchiasupercharger"}}, {"type": "node", "id": 11013739232, "lat": 45.1939075, "lon": 6.6597704, "tags": {"amenity": "charging_station", "authentication:none": "yes", "fee": "no", "operator": "Maurienne", "socket:schuko": "2", "socket:type2": "2", "socket:type3c": "1"}}, {"type": "node", "id": 11148296605, "lat": 45.138764, "lon": 7.0526014, "tags": {"amenity": "charging_station", "capacity": "4", "motorcar": "yes", "operator": "Ewiva", "operator:wikidata": "Q123272416"}}, {"type": "node", "id": 11193407446, "lat": 45.4490444, "lon": 6.9772203, "tags": {"access": "yes", "addr:city": "Val-d'Is\u00e8re", "addr:postcode": "73150", "addr:street": "Rue Noel Machet", "amenity": "charging_station", "authentication:membership_app": "no", "authentication:membership_card": "yes", "capacity": "8", "covered": "yes", "fee": "yes", "level": "-1", "motorcar": "yes", "motorcycle": "yes", "network": "newmotion", "opening_hours": "24/7", "operator": "SAGS Parkings", "parking:fee": "yes", "socket:type2": "8", "socket:type2:output": "11 kW"}}, {"type": "node", "id": 11253494706, "lat": 45.1389242, "lon": 7.0537215, "tags": {"amenity": "charging_station", "bicycle": "yes", "brand": "Enel", "brand:wikidata": "Q651222", "capacity": "2", "motorcar": "yes", "name": "Enel", "operator": "Enel", "operator:wikidata": "Q651222"}}, {"type": "node", "id": 11739459581, "lat": 45.2765286, "lon": 6.81714, "tags": {"access": "yes", "amenity": "charging_station", "brand": "eborn", "capacity": "2", "charge": "0.494 EUR/kWh", "email": "contact@reseau-eborn.fr", "fee": "yes", "motorcar": "yes", "network": "eborn", "opening_hours": "24/7", "operator": "SPBR1", "operator:email": "contact@reseau-eborn.fr", "operator:phone": "+33423100350", "owner": "SPBR1", "payment:account_cards": "yes", "payment:app": "yes", "payment:contactless": "yes", "payment:credit_cards": "yes", "ref:EU:EVSE": "FR*EBN*PLLSN02KU99RGJG", "socket:type2": "1", "socket:type2:output": "22 kW", "socket:type2_combo": "1", "socket:type2_combo:output": "24 kW", "source": "data.gouv.fr:Etalab - 05/2022", "start_date": "2024-02-15", "website": "https://moncompte.reseau-eborn.fr/location/LLSN02KU99RGJG"}}, {"type": "node", "id": 12118158048, "lat": 45.2904647, "lon": 6.9156307, "tags": {"amenity": "charging_station"}}, {"type": "node", "id": 12152760860, "lat": 45.4571586, "lon": 6.9007842, "tags": {"access": "customers", "amenity": "charging_station", "bicycle": "designated", "brand": "e-bike", "capacity": "4", "fee": "yes", "seasonal": "summer"}}]}