{"version": 0.6, "generator": "Overpass API 0.7.62.1 084b4234", "osm3s": {"timestamp_osm_base": "2024-11-06T19:39:26Z", "copyright": "The data included in this document is from www.openstreetmap.org. The data is made available under ODbL."}, "elements": [{"type": "node", "id": 5635738208, "lat": 43.3150217, "lon": 11.325995, "tags": {"access": "yes", "amenity": "charging_station", "capacity": "4", "fee": "yes"}}, {"type": "node", "id": 6761834423, "lat": 43.439956, "lon": 11.6607223, "tags": {"access": "yes", "amenity": "charging_station", "bicycle": "yes", "fixme": "verificare la posizione", "network": "DINAclub", "operator": "Repower", "operator:wikidata": "Q674712", "operator:wikipedia": "it:Repower", "website": "https://www.repower.com/it/dina/"}}, {"type": "node", "id": 6831696785, "lat": 43.532814, "lon": 11.462519, "tags": {"amenity": "charging_station", "operator": "Stazione di ricarica per auto elettriche"}}, {"type": "node", "id": 6831713787, "lat": 43.5240971, "lon": 11.4890304, "tags": {"amenity": "charging_station", "operator": "Stazione di ricarica per auto elettriche"}}, {"type": "node", "id": 6831714285, "lat": 43.5417774, "lon": 11.4527401, "tags": {"amenity": "charging_station", "operator": "Stazione di ricarica per auto elettriche"}}, {"type": "node", "id": 8829341735, "lat": 43.3212849, "lon": 11.3290367, "tags": {"access": "yes", "addr:city": "Siena", "addr:country": "IT", "addr:street": "Piazza Giacomo Matteotti", "amenity": "charging_station", "brand": "Enel", "brand:wikidata": "Q651222", "capacity": "4", "fee": "yes", "name": "Enel X Way", "operator": "Enel", "operator:wikidata": "Q651222"}}, {"type": "node", "id": 9038533330, "lat": 43.300973, "lon": 11.4236779, "tags": {"amenity": "charging_station", "fee": "no", "opening_hours": "24/7", "operator": "Montaperti Hotel Restaurant", "parking:fee": "no", "socket:cee_blue": "6", "socket:cee_blue:current": "16", "socket:cee_blue:output": "3.5 kW", "socket:cee_blue:voltage": "220"}}, {"type": "node", "id": 9083844853, "lat": 43.3128554, "lon": 11.3393229, "tags": {"amenity": "charging_station", "capacity": "1", "motorcar": "yes"}}, {"type": "node", "id": 9083844854, "lat": 43.3129739, "lon": 11.3393303, "tags": {"amenity": "charging_station", "capacity": "2", "motorcar": "yes"}}, {"type": "node", "id": 9083844855, "lat": 43.3130393, "lon": 11.3393316, "tags": {"amenity": "charging_station", "capacity": "1", "motorcar": "yes"}}, {"type": "node", "id": 9532046381, "lat": 43.4160603, "lon": 11.4585087, "tags": {"amenity": "charging_station", "bicycle": "yes", "description": "Agribar Brolio", "image": "https://maps.app.goo.gl/2TysRhrykzkHD8LNA", "network": "DINAclub", "operator": "Repower", "operator:wikidata": "Q674712", "operator:wikipedia": "it:Repower", "video": "https://www.youtube.com/watch?v=An6LacK0mxI", "website": "https://www.repower.com/it/dina/"}}, {"type": "node", "id": 9669717885, "lat": 43.5434868, "lon": 11.3151939, "tags": {"amenity": "charging_station", "brand": "Enel X", "brand:wikidata": "Q5376815", "brand:wikipedia": "en:Enel X", "name": "Enel X", "operator": "Enel X", "operator:wikidata": "Q5376815", "operator:wikipedia": "en:Enel X"}}, {"type": "node", "id": 9669717897, "lat": 43.4642139, "lon": 11.2888402, "tags": {"amenity": "charging_station", "brand": "Enel X", "brand:wikidata": "Q5376815", "brand:wikipedia": "en:Enel X", "name": "Enel X", "operator": "Enel X", "operator:wikidata": "Q5376815", "operator:wikipedia": "en:Enel X"}}, {"type": "node", "id": 9669723796, "lat": 43.4730533, "lon": 11.288319, "tags": {"access": "yes", "amenity": "charging_station", "brand": "Enel X", "brand:wikidata": "Q5376815", "brand:wikipedia": "en:Enel X", "fee": "yes", "name": "Enel X", "operator": "Enel X", "operator:wikidata": "Q5376815", "operator:wikipedia": "en:Enel X"}}, {"type": "node", "id": 9669723797, "lat": 43.4674593, "lon": 11.1550886, "tags": {"access": "yes", "amenity": "charging_station", "brand": "Enel X", "brand:wikidata": "Q5376815", "brand:wikipedia": "en:Enel X", "fee": "yes", "name": "Enel X", "operator": "Enel X", "operator:wikidata": "Q5376815", "operator:wikipedia": "en:Enel X"}}, {"type": "node", "id": 9739932618, "lat": 43.3120561, "lon": 11.3246936, "tags": {"access": "yes", "amenity": "charging_station", "capacity": "4", "fee": "yes"}}, {"type": "node", "id": 9947474251, "lat": 43.3206936, "lon": 11.3231693, "tags": {"access": "yes", "amenity": "charging_station", "fee": "yes", "motorcar": "yes", "opening_hours": "24/7", "operator": "Comune di Siena", "socket:type2": "1"}}, {"type": "node", "id": 9947474252, "lat": 43.3206749, "lon": 11.3232254, "tags": {"access": "yes", "amenity": "charging_station", "fee": "yes", "motorcar": "yes", "opening_hours": "24/7", "operator": "Comune di Siena", "socket:type2": "1"}}, {"type": "node", "id": 9947474253, "lat": 43.3206537, "lon": 11.3232931, "tags": {"access": "yes", "amenity": "charging_station", "fee": "yes", "motorcar": "yes", "opening_hours": "24/7", "operator": "Comune di Siena", "socket:type2": "1"}}, {"type": "node", "id": 9970902561, "lat": 43.3377602, "lon": 11.3722421, "tags": {"amenity": "charging_station", "bicycle": "yes", "description": "San Giorgio a Lapi", "name": "DINAclub - Stazione di Ricarica e-Bike", "network": "DINAclub", "operator": "Repower", "operator:wikidata": "Q674712", "website": "https://www.repower.com/it/dina/", "website:en": "https://www.komoot.com/highlight/5121357"}}, {"type": "node", "id": 10600658492, "lat": 43.3101173, "lon": 11.1304033, "tags": {"access": "yes", "amenity": "charging_station", "bicycle": "yes", "network": "DINAclub", "operator": "Repower", "operator:wikidata": "Q674712", "operator:wikipedia": "it:Repower", "website": "https://www.repower.com/it/dina/"}}, {"type": "node", "id": 10601014034, "lat": 43.2158822, "lon": 11.2660885, "tags": {"access": "yes", "amenity": "charging_station", "bicycle": "yes", "name": "DINAclub - Stazione di Ricarica e-Bike", "network": "DINAclub", "operator": "Repower", "operator:wikidata": "Q674712", "website": "https://www.repower.com/it/dina/"}}, {"type": "node", "id": 10834094721, "lat": 43.2588107, "lon": 11.3788187, "tags": {"access": "yes", "amenity": "charging_station", "brand": "Enel", "brand:wikidata": "Q651222", "name": "Enel", "operator": "Enel", "operator:wikidata": "Q651222"}}, {"type": "node", "id": 11228600410, "lat": 43.4763925, "lon": 11.1362821, "tags": {"amenity": "charging_station", "brand": "Scame"}}, {"type": "node", "id": 11422986714, "lat": 43.3480082, "lon": 11.3258912, "tags": {"access": "yes", "amenity": "charging_station", "capacity": "2", "fee": "yes"}}, {"type": "node", "id": 11540581856, "lat": 43.4773224, "lon": 11.1336516, "tags": {"amenity": "charging_station", "capacity": "2", "operator": "Lidl", "operator:wikidata": "Q151954"}}, {"type": "node", "id": 11983549271, "lat": 43.3026043, "lon": 11.3753906, "tags": {"access": "yes", "amenity": "charging_station", "capacity": "2", "fee": "yes", "motorcar": "yes", "motorcycle": "yes"}}, {"type": "node", "id": 11983549272, "lat": 43.3025787, "lon": 11.3753278, "tags": {"access": "yes", "amenity": "charging_station", "capacity": "2", "fee": "yes", "motorcar": "yes", "motorcycle": "yes"}}, {"type": "node", "id": 12017344246, "lat": 43.1601834, "lon": 11.3880184, "tags": {"amenity": "charging_station"}}, {"type": "node", "id": 12017344247, "lat": 43.1601295, "lon": 11.3879827, "tags": {"amenity": "charging_station"}}, {"type": "node", "id": 12035722195, "lat": 43.2287067, "lon": 11.4160148, "tags": {"amenity": "charging_station", "fee": "yes"}}, {"type": "node", "id": 12035722196, "lat": 43.2287285, "lon": 11.4160053, "tags": {"amenity": "charging_station", "fee": "yes", "motorcar": "yes", "motorcycle": "yes"}}, {"type": "node", "id": 12154262738, "lat": 43.4225683, "lon": 11.3904606, "tags": {"amenity": "charging_station", "capacity": "2", "description": "Hypercharger", "fee": "yes", "motorcar": "yes", "motorcycle": "no", "network": "Plemtitude", "opening_hours": "24/7", "operator": "becharge"}}, {"type": "node", "id": 12165740834, "lat": 43.4865501, "lon": 11.3754813, "tags": {"amenity": "charging_station", "capacity": "2", "fee": "yes", "motorcar": "yes", "motorcycle": "yes", "operator": "enel x"}}, {"type": "node", "id": 12186294812, "lat": 43.4674762, "lon": 11.1550263, "tags": {"access": "yes", "amenity": "charging_station", "brand": "Enel X", "brand:wikidata": "Q5376815", "brand:wikipedia": "en:Enel X", "fee": "yes", "name": "Enel X", "operator": "Enel X", "operator:wikidata": "Q5376815", "operator:wikipedia": "en:Enel X"}}, {"type": "node", "id": 12186294813, "lat": 43.467516, "lon": 11.1549329, "tags": {"access": "yes", "amenity": "charging_station", "brand": "Enel X", "brand:wikidata": "Q5376815", "brand:wikipedia": "en:Enel X", "fee": "yes", "name": "Enel X", "operator": "Enel X", "operator:wikidata": "Q5376815", "operator:wikipedia": "en:Enel X"}}]}