{"version": 0.6, "generator": "Overpass API 0.7.62.1 084b4234", "osm3s": {"timestamp_osm_base": "2024-11-06T19:38:22Z", "copyright": "The data included in this document is from www.openstreetmap.org. The data is made available under ODbL."}, "elements": [{"type": "node", "id": 4439577828, "lat": 45.7851503, "lon": 14.2229607, "tags": {"amenity": "charging_station", "authentication:membership_card": "yes", "authentication:nfc": "yes", "authentication:none": "no", "capacity": "2", "fee": "yes", "name": "Ravbarkomanda - zahod", "opening_hours": "24/7", "operator": "SODO", "socket:chademo": "1", "socket:type2": "1", "socket:type2_combo": "1"}}, {"type": "node", "id": 4439579876, "lat": 45.783179, "lon": 14.22275, "tags": {"amenity": "charging_station", "authentication:membership_card": "yes", "authentication:nfc": "yes", "authentication:none": "no", "capacity": "2", "fee": "yes", "name": "Ravbarkomanda - vzhod", "opening_hours": "24/7", "operator": "SODO", "socket:chademo": "1", "socket:type2": "1", "socket:type2_combo": "1"}}, {"type": "node", "id": 5133710950, "lat": 45.7748647, "lon": 14.2135614, "tags": {"access": "yes", "amenity": "charging_station", "authentication:none": "yes", "bicycle": "yes", "capacity": "2", "fee": "no", "motorcar": "yes", "motorcycle": "yes", "opening_hours": "24/7", "operator": "Postojna", "scooter": "yes", "socket:schuko": "1", "socket:type2": "1", "socket:type2:output": "22 kW", "truck": "no"}}, {"type": "node", "id": 5133710951, "lat": 45.7748312, "lon": 14.2136143, "tags": {"access": "yes", "amenity": "charging_station", "authentication:none": "yes", "bicycle": "yes", "capacity": "2", "fee": "no", "motorcar": "yes", "motorcycle": "yes", "opening_hours": "24/7", "operator": "Postojna", "scooter": "yes", "socket:schuko": "1", "socket:type2": "1", "socket:type2:output": "22 kW", "truck": "no"}}, {"type": "node", "id": 5149671799, "lat": 45.7722483, "lon": 14.2002501, "tags": {"access": "yes", "amenity": "charging_station", "authentication:none": "yes", "bicycle": "yes", "capacity": "2", "fee": "no", "motorcar": "yes", "motorcycle": "yes", "opening_hours": "24/7", "scooter": "yes", "socket:schuko": "1", "socket:type2": "1", "socket:type2:output": "22 kW", "truck": "no"}}, {"type": "node", "id": 6046028748, "lat": 45.3804069, "lon": 14.3854142, "tags": {"amenity": "charging_station", "authentication:nfc": "yes", "fee": "no", "opening_hours": "24/7", "operator": "ELEN", "socket:type2": "2", "socket:type2:output": "22kW"}}, {"type": "node", "id": 6672479508, "lat": 45.5591696, "lon": 14.2443664, "tags": {"access": "public", "amenity": "charging_station", "brand": "Ionity", "capacity": "4", "network": "Ionity", "operator": "Ionity", "socket:type2_combo": "4", "socket:type2_combo:output": "350 kW", "source": "survey"}}, {"type": "node", "id": 9142739245, "lat": 45.7888033, "lon": 14.2976997, "tags": {"amenity": "charging_station", "capacity": "2", "fee": "yes", "name": "Hotel Rakov \u0160kocjan", "operator": "Elevat", "payment:credit_cards": "yes", "payment:paypal": "yes"}}, {"type": "node", "id": 9213702042, "lat": 45.7669426, "lon": 14.196862, "tags": {"amenity": "charging_station", "brand": "Tesla Supercharger", "brand:wikidata": "Q17089620", "brand:wikipedia": "en:Tesla Supercharger", "name": "Tesla Supercharger", "operator": "Tesla, Inc.", "operator:wikidata": "Q478214", "operator:wikipedia": "en:Tesla, Inc.", "short_name": "Tesla"}}, {"type": "node", "id": 9623257640, "lat": 45.7933578, "lon": 14.3614459, "tags": {"amenity": "charging_station", "name": "Gremo na elektriko"}}, {"type": "node", "id": 9623257641, "lat": 45.7961191, "lon": 14.3555739, "tags": {"access": "yes", "amenity": "charging_station", "capacity": "2", "name": "Gremo na elektriko", "operator": "Elektro Ljubljana"}}, {"type": "node", "id": 9623257642, "lat": 45.7958741, "lon": 14.3623143, "tags": {"amenity": "charging_station", "name": "Elevat"}}, {"type": "node", "id": 10969743453, "lat": 45.7706486, "lon": 14.1982913}, {"type": "node", "id": 10969743454, "lat": 45.7706304, "lon": 14.1982298}, {"type": "node", "id": 10969743455, "lat": 45.7706082, "lon": 14.1983159}, {"type": "node", "id": 10969743456, "lat": 45.77059, "lon": 14.1982545}, {"type": "node", "id": 11632165900, "lat": 45.6682416, "lon": 14.1890341, "tags": {"amenity": "charging_station"}}, {"type": "way", "id": 1181201586, "nodes": [10969743456, 10969743455, 10969743453, 10969743454, 10969743456], "tags": {"access": "yes", "amenity": "charging_station", "capacity": "2", "fee": "yes", "motorcar": "yes", "operator": "Lidl"}}]}