{"version": 0.6, "generator": "Overpass API 0.7.62.1 084b4234", "osm3s": {"timestamp_osm_base": "2024-11-06T19:38:22Z", "copyright": "The data included in this document is from www.openstreetmap.org. The data is made available under ODbL."}, "elements": [{"type": "node", "id": 3473064844, "lat": 45.07316, "lon": 13.6395399, "tags": {"amenity": "charging_station", "capacity": "2", "note": "4kW", "operator": "LONE", "socket:schuko": "1", "socket:type2": "1"}}, {"type": "node", "id": 6781502317, "lat": 45.1753045, "lon": 13.6025769}, {"type": "node", "id": 6792790786, "lat": 45.0811402, "lon": 13.6411823, "tags": {"amenity": "charging_station"}}, {"type": "node", "id": 8984954756, "lat": 45.2406114, "lon": 13.9367257, "tags": {"access": "yes", "amenity": "charging_station", "authentication:app": "yes", "authentication:membership_card": "yes", "bicycle": "no", "capacity": "3", "contact:email": "elen@hep.hr", "contact:phone": "+385 1 6288680", "contact:website": "elen.hep.hr", "motorcar": "yes", "opening_hours": "24/7", "operator": "ELEN", "ref": "HRHEP-52005-01"}}, {"type": "node", "id": 9074472863, "lat": 45.0153662, "lon": 13.7142941, "tags": {"access": "customers", "amenity": "charging_station", "name": "Tesla", "source": "survey 09.2021 and dgu.hr 2019-2020"}}, {"type": "node", "id": 9110939777, "lat": 45.040143, "lon": 13.7853861, "tags": {"amenity": "charging_station", "capacity": "2"}}, {"type": "node", "id": 9149273190, "lat": 45.2198702, "lon": 14.0093413, "tags": {"access": "yes", "amenity": "charging_station", "authentication:app": "no", "authentication:debit_card": "no", "authentication:membership_card": "no", "authentication:money_card": "no", "authentication:nfc": "no", "authentication:none": "yes", "authentication:phone_call": "no", "authentication:short_message": "no", "bicycle": "yes", "bus": "no", "capacity": "4", "fee": "no", "hgv": "no", "image": "https://i.imgur.com/vjt576j.jpg", "maxstay": "unlimited", "motorcar": "no", "network": "Istria e-mobility", "opening_hours": "24/7", "parking:fee": "no", "scooter": "no", "socket:bosch_3pin": "1"}}, {"type": "node", "id": 9447199761, "lat": 45.3194156, "lon": 13.5703755, "tags": {"access": "yes", "amenity": "charging_station", "brand": "Ducati Energia", "capacity": "2", "fee": "yes", "network": "My Teison App", "operator": "Neapolis", "payment:app": "yes", "payment:credit_cards": "yes"}}, {"type": "node", "id": 9569604034, "lat": 45.2172711, "lon": 13.8372189, "tags": {"access": "yes", "amenity": "charging_station", "capacity": "2", "description": "AC charger 22kW Type2", "name": "Tinjan Parking"}}, {"type": "node", "id": 9998025035, "lat": 45.0893189, "lon": 13.6560247, "tags": {"amenity": "charging_station", "name": "Kaufland", "source": "survey 08.2022 and DGU.hr Imagery"}}, {"type": "node", "id": 10000323382, "lat": 45.0064379, "lon": 13.7216146, "tags": {"amenity": "charging_station", "capacity": "1", "source": "survey 09.2022 and DGU.hr Imagery"}}, {"type": "node", "id": 10008657802, "lat": 45.0023726, "lon": 13.7263029, "tags": {"amenity": "charging_station", "capacity": "2", "source": "survey 09.2022 and DGU.hr Imagery"}}, {"type": "node", "id": 10060579664, "lat": 45.1120427, "lon": 13.8025939, "tags": {"amenity": "charging_station", "capacity": "4", "fee": "yes", "name": "IONITY Kanfanar", "opening_hours": "24/7", "operator": "IONITY", "socket:type2_combo": "4", "voltage": "400"}}, {"type": "node", "id": 10101077280, "lat": 45.0796742, "lon": 13.6618641, "tags": {"amenity": "charging_station", "capacity": "2", "covered": "no", "fee": "yes", "motorcar": "yes", "operator": "Petrol", "socket:chademo": "1", "socket:type2": "1", "socket:type2_combo": "1"}}, {"type": "node", "id": 10652698226, "lat": 45.274767, "lon": 14.0114856, "tags": {"amenity": "charging_station", "capacity": "2"}}, {"type": "node", "id": 10883795781, "lat": 45.316486, "lon": 13.5726142, "tags": {"access": "customers", "amenity": "charging_station", "operator": "Aminess", "survey:date": "2023-11-15"}}, {"type": "node", "id": 10972076077, "lat": 45.1752838, "lon": 13.6025602}, {"type": "node", "id": 10972076078, "lat": 45.1752885, "lon": 13.6025695}, {"type": "node", "id": 10972076079, "lat": 45.1752836, "lon": 13.6025295}, {"type": "node", "id": 10972076080, "lat": 45.1753095, "lon": 13.6025409}, {"type": "node", "id": 11155682701, "lat": 45.2334946, "lon": 13.9218371, "tags": {"access": "yes", "amenity": "charging_station", "brand": "Qelo", "capacity": "4", "charge": "from 0.33 EUR/kWh", "fee": "yes", "name": "Qelo Charging Station Stop Shop Pazin", "operator": "Qelo"}}, {"type": "node", "id": 11373310738, "lat": 45.3191762, "lon": 13.5702434, "tags": {"access": "yes", "amenity": "charging_station", "brand": "Ducati Energia", "capacity": "3", "fee": "yes", "network": "My Teison App", "operator": "Neapolis d.o.o.", "payment:app": "yes", "payment:credit_cards": "yes"}}, {"type": "node", "id": 11468911775, "lat": 45.0856526, "lon": 13.6389717, "tags": {"access": "yes", "amenity": "charging_station", "capacity": "2", "socket:chademo": "1", "socket:chademo:output": "50 kW", "socket:type2": "1", "socket:type2:output": "43 kW", "socket:type2_combo": "1", "socket:type2_combo:output": "50 kW"}}, {"type": "node", "id": 11476522969, "lat": 45.2276213, "lon": 13.59936, "tags": {"amenity": "charging_station", "bicycle": "no", "motorcar": "yes", "motorcycle": "yes", "socket:type2": "2"}}, {"type": "node", "id": 11477060037, "lat": 45.2246444, "lon": 13.5982316, "tags": {"amenity": "charging_station", "bicycle": "no", "fee": "yes", "motorcar": "yes", "motorcycle": "yes", "socket:chademo": "1", "socket:chademo:output": "50 kW", "socket:type2": "1", "socket:type2:output": "43 kW", "socket:type2_combo": "1", "socket:type2_combo:output": "50 kW"}}, {"type": "node", "id": 11479009107, "lat": 45.3300445, "lon": 13.7567976, "tags": {"access": "yes", "amenity": "charging_station", "capacity": "2", "fee": "yes", "motorcar": "yes", "motorcycle": "yes", "opening_hours": "24/7", "socket:chademo": "1", "socket:chademo:output": "50 kW", "socket:type2": "1", "socket:type2:output": "43 kW", "socket:type2_combo": "1", "socket:type2_combo:output": "50 kW"}}, {"type": "node", "id": 11485668780, "lat": 45.2400322, "lon": 13.6243653, "tags": {"access": "yes", "amenity": "charging_station", "bicycle": "no", "capacity": "2", "fee": "yes", "motorcar": "yes", "motorcycle": "yes", "socket:chademo": "1", "socket:chademo:output": "50 kW", "socket:type2": "1", "socket:type2:output": "43 kW", "socket:type2_combo": "1", "socket:type2_combo:output": "50 kW"}}, {"type": "node", "id": 12093772301, "lat": 45.0646614, "lon": 14.0164047, "tags": {"amenity": "charging_station", "name": "E-Bike charging station Istria e-mobility", "name:en": "E-Bike charging station Istria e-mobility"}}, {"type": "node", "id": 12098918514, "lat": 45.2018428, "lon": 13.5952035, "tags": {"amenity": "charging_station", "capacity": "2", "fee": "yes", "motorcar": "yes", "motorcycle": "yes", "socket:type2_cable:output": "50 kW", "socket:type2_combo:output": "50 kW"}}, {"type": "way", "id": 1181482431, "nodes": [6781502317, 10972076078, 10972076077, 10972076079, 10972076080, 6781502317], "tags": {"access": "yes", "amenity": "charging_station", "capacity": "2", "motorcar": "yes"}}]}