{"version": 0.6, "generator": "Overpass API 0.7.62.1 084b4234", "osm3s": {"timestamp_osm_base": "2024-11-06T19:40:27Z", "copyright": "The data included in this document is from www.openstreetmap.org. The data is made available under ODbL."}, "elements": [{"type": "node", "id": 4073757193, "lat": 43.4037062, "lon": 10.8609517, "tags": {"addr:city": "Volterra", "addr:country": "IT", "addr:postcode": "56048", "addr:street": "Piazza Caduti nei Lager Nazisti", "amenity": "charging_station", "description": "Punto di Ricarica: AEEG 242 - Enel Distribuzione Serial number: 14EP22T5BA1F000006 Tipi di prese: Type 2 (22kW), Type 3a", "name": "Pole Station EnelDrive", "operator": "Enel Distribuzione", "website": "https://www.eneldrive.it/"}}, {"type": "node", "id": 4236958722, "lat": 43.2379754, "lon": 10.8860563, "tags": {"amenity": "charging_station", "name": "Pole Station EnelDrive", "operator": "Enel Distribuzione", "website": "https://www.eneldrive.it/"}}, {"type": "node", "id": 8840216492, "lat": 43.1488135, "lon": 10.8547617, "tags": {"amenity": "charging_station", "bike": "no", "brand": "Enel X", "brand:wikidata": "Q5376815", "brand:wikipedia": "en:Enel", "capacity": "2", "motorcar": "yes", "name": "Enel X", "operator": "Enel X", "operator:wikidata": "Q5376815"}}, {"type": "node", "id": 8954379226, "lat": 43.3091214, "lon": 10.5356206, "tags": {"addr:street": "Via Sandro Pertini", "amenity": "charging_station", "brand": "Enel X", "brand:wikidata": "Q5376815", "capacity": "2", "name": "Enel X", "opening_hours": "24/7", "operator": "Enel X", "operator:wikidata": "Q5376815"}}, {"type": "node", "id": 9035738931, "lat": 43.1788955, "lon": 10.538962, "tags": {"amenity": "charging_station", "capacity": "2", "name": "Enel X", "operator": "Enel X"}}, {"type": "node", "id": 9374085227, "lat": 43.4954381, "lon": 11.0080298, "tags": {"access": "yes", "amenity": "charging_station", "bicycle": "yes", "fixme": "verificare la posizione", "network": "DINAclub", "operator": "Repower", "operator:wikidata": "Q674712", "website": "https://www.repower.com/it/dina/"}}, {"type": "node", "id": 9581014210, "lat": 43.3029297, "lon": 10.5255934, "tags": {"amenity": "charging_station", "brand": "Enel X", "capacity": "2", "motorcar": "yes", "name": "Enel X", "operator": "Enel X", "operator:wikidata": "Q5376815", "operator:wikipedia": "en:Enel X"}}, {"type": "node", "id": 9722095243, "lat": 43.1693834, "lon": 10.5647216, "tags": {"amenity": "charging_station", "brand": "Enel X", "capacity": "2", "name": "Enel X", "network": "charge.brussels", "network:wikidata": "Q109923471", "operator": "Enel X", "operator:wikidata": "Q5376815", "operator:wikipedia": "en:Enel X"}}, {"type": "node", "id": 9722400514, "lat": 43.2980603, "lon": 10.5240757, "tags": {"amenity": "charging_station", "brand": "Enel X", "brand:wikidata": "Q5376815", "capacity": "2", "name": "Enel X", "operator": "Enel X", "operator:wikidata": "Q5376815", "operator:wikipedia": "en:Enel X"}}, {"type": "node", "id": 9722468527, "lat": 43.3083286, "lon": 10.5283573, "tags": {"amenity": "charging_station", "brand": "Enel X", "name": "Enel X", "operator": "Enel X", "operator:wikidata": "Q5376815", "operator:wikipedia": "en:Enel X"}}, {"type": "node", "id": 9836347446, "lat": 43.1487498, "lon": 10.854779, "tags": {"access": "yes", "amenity": "charging_station", "amperage": "16", "authentication:none": "yes", "capacity": "2", "charge": "2 EUR/hour", "fee": "yes", "opening_hours": "24/7", "operator": "e-Station", "payment:app": "no", "payment:coins": "yes", "payment:credit_cards": "no", "payment:debit_cards": "no", "payment:notes": "no", "socket:type2": "2", "voltage": "400", "website": "https://www.e-station.it"}}, {"type": "node", "id": 9925412165, "lat": 43.1111061, "lon": 10.5409308, "tags": {"amenity": "charging_station", "operator": "Enel X Way", "operator:wikidata": "Q116116836"}}, {"type": "node", "id": 10058174560, "lat": 43.3469335, "lon": 10.5743209, "tags": {"amenity": "charging_station", "bicycle": "yes", "name": "DINAclub - Stazione di Ricarica e-Bike", "network": "DINAclub", "operator": "Repower", "operator:wikidata": "Q674712", "website": "https://www.repower.com/it/dina/"}}, {"type": "node", "id": 10570626962, "lat": 43.340412, "lon": 11.0454909, "tags": {"amenity": "charging_station", "capacity": "2", "name": "Stazione di ricarica", "operator": "Plenitude Be charge"}}, {"type": "node", "id": 10570626963, "lat": 43.3403895, "lon": 11.0454333, "tags": {"amenity": "charging_station", "capacity": "2", "name": "Stazione di ricarica", "operator": "Plenitude Be charge"}}, {"type": "node", "id": 10827323693, "lat": 43.5277856, "lon": 10.6149956, "tags": {"amenity": "charging_station"}}, {"type": "node", "id": 10876541596, "lat": 43.4024913, "lon": 10.8757629, "tags": {"access": "yes", "amenity": "charging_station", "brand": "Enel X", "capacity": "2", "operator": "Enel"}}, {"type": "node", "id": 10977451833, "lat": 43.1457215, "lon": 10.9745423, "tags": {"amenity": "charging_station"}}, {"type": "node", "id": 11003030403, "lat": 43.2986454, "lon": 10.8728693, "tags": {"access": "yes", "amenity": "charging_station", "bicycle": "yes", "name": "DINAclub - Stazione di Ricarica e-Bike", "network": "DINAclub", "operator": "Repower", "operator:wikidata": "Q674712", "website": "https://www.repower.com/it/dina/"}}, {"type": "node", "id": 11307972464, "lat": 43.5571371, "lon": 11.0319437, "tags": {"amenity": "charging_station"}}, {"type": "node", "id": 11307972465, "lat": 43.5570959, "lon": 11.0319685, "tags": {"amenity": "charging_station"}}, {"type": "node", "id": 11807443310, "lat": 43.1096331, "lon": 10.5420421, "tags": {"amenity": "charging_station", "capacity": "2", "operator": "Enel X Way"}}, {"type": "node", "id": 11809331836, "lat": 43.3296026, "lon": 10.5235178, "tags": {"amenity": "charging_station", "capacity": "2"}}, {"type": "node", "id": 11911892820, "lat": 43.4625593, "lon": 11.0416782, "tags": {"access": "yes", "amenity": "charging_station", "capacity": "1x 100kW"}}, {"type": "node", "id": 11911892821, "lat": 43.4625437, "lon": 11.04165, "tags": {"amenity": "charging_station", "capacity": "2x 15kW"}}, {"type": "node", "id": 11911898364, "lat": 43.5542848, "lon": 10.9114764, "tags": {"amenity": "charging_station", "capacity": "2x 100kW"}}, {"type": "node", "id": 11911905070, "lat": 43.4032753, "lon": 10.8605977, "tags": {"access": "yes", "amenity": "charging_station", "capacity": "2x 11kW", "fee": "no"}}, {"type": "node", "id": 11911912381, "lat": 43.5502178, "lon": 11.0465746, "tags": {"access": "yes", "amenity": "charging_station", "capacity": "2x 11kW"}}, {"type": "node", "id": 12007783284, "lat": 43.3003017, "lon": 10.6561582, "tags": {"access": "yes", "amenity": "charging_station", "bicycle": "yes", "fixme": "verificare la posizione", "motorcar": "no", "motorcycle": "no", "name": "DINAclub - Stazione di Ricarica e-Bike", "network": "DINAclub", "operator": "Repower", "operator:wikidata": "Q674712", "website": "https://www.repower.com/it/dina/"}}, {"type": "node", "id": 12105803575, "lat": 43.3675202, "lon": 11.055387, "tags": {"amenity": "charging_station", "fee": "no", "motorcar": "yes", "motorcycle": "no", "network": "Ng Energy", "parking:fee": "yes", "socket:type2:output": "iec 62196-2 (tipo 2)"}}, {"type": "node", "id": 12138520720, "lat": 43.5414255, "lon": 10.956094, "tags": {"amenity": "charging_station", "capacity": "2", "fee": "yes", "motorcar": "yes", "motorcycle": "yes"}}, {"type": "node", "id": 12138520721, "lat": 43.5414031, "lon": 10.9559712, "tags": {"amenity": "charging_station", "capacity": "2", "fee": "yes", "motorcar": "yes", "motorcycle": "yes"}}, {"type": "node", "id": 12138520722, "lat": 43.5413433, "lon": 10.9560476, "tags": {"amenity": "charging_station", "capacity": "2", "fee": "yes", "motorcar": "yes", "motorcycle": "yes"}}, {"type": "node", "id": 12138520723, "lat": 43.5413209, "lon": 10.9559249, "tags": {"amenity": "charging_station", "capacity": "2", "fee": "yes", "motorcar": "yes", "motorcycle": "yes"}}]}