{"version": 0.6, "generator": "Overpass API 0.7.62.1 084b4234", "osm3s": {"timestamp_osm_base": "2024-11-06T19:39:26Z", "copyright": "The data included in this document is from www.openstreetmap.org. The data is made available under ODbL."}, "elements": [{"type": "node", "id": 8754054567, "lat": 44.8914798, "lon": 11.1116455, "tags": {"access": "yes", "amenity": "charging_station", "amperage": "16", "authentication:none": "yes", "bicycle": "yes", "capacity": "3", "covered": "yes", "fee": "no", "motorcar": "no", "opening_hours": "24/7", "socket:schuko": "6", "voltage": "230"}}, {"type": "node", "id": 9142208252, "lat": 44.9188515, "lon": 11.5940751, "tags": {"amenity": "charging_station", "brand": "Tesla Supercharger", "brand:wikidata": "Q17089620", "capacity": "8", "fee": "yes", "name": "Occhiobello Supercharger", "opening_hours": "24/7", "operator": "Tesla, Inc.", "socket:tesla_supercharger": "8", "socket:tesla_supercharger:output": "150 kW", "website": "https://www.tesla.com/findus/location/supercharger/occhiobellosupercharger"}}, {"type": "node", "id": 9775099019, "lat": 45.0477497, "lon": 11.1293457, "tags": {"amenity": "charging_station", "capacity": "2", "fee": "yes", "motorcar": "yes", "name": "Be Charge", "opening_hours": "24/7", "operator": "Be Charge", "operator:wikidata": "Q113289535"}}, {"type": "node", "id": 9775146613, "lat": 44.9986673, "lon": 11.1137429, "tags": {"amenity": "charging_station", "capacity": "2", "fee": "yes", "motorcar": "yes", "name": "Be Charge", "opening_hours": "24/7", "operator": "Be Charge", "operator:wikidata": "Q113289535"}}, {"type": "node", "id": 9781267254, "lat": 45.1453917, "lon": 11.0277126, "tags": {"amenity": "charging_station", "motorcar": "yes"}}, {"type": "node", "id": 9781595417, "lat": 45.1788769, "lon": 11.1697571, "tags": {"amenity": "charging_station", "brand": "ChargePoint", "capacity": "2", "fee": "yes", "motorcar": "yes", "name": "Be Charge", "opening_hours": "24/7", "operator": "Be Charge", "operator:wikidata": "Q5176149", "operator:wikipedia": "en:ChargePoint"}}, {"type": "node", "id": 9781595418, "lat": 45.1788636, "lon": 11.1697097, "tags": {"amenity": "charging_station", "capacity": "2", "fee": "yes", "motorcar": "yes", "name": "Be Charge", "opening_hours": "24/7", "operator": "Be Charge"}}, {"type": "node", "id": 10883595266, "lat": 45.1743831, "lon": 11.1959415, "tags": {"amenity": "charging_station"}}, {"type": "node", "id": 10904702370, "lat": 45.1624069, "lon": 11.1823805, "tags": {"amenity": "charging_station"}}, {"type": "node", "id": 10916690803, "lat": 45.0669714, "lon": 11.1414358, "tags": {"access": "customers", "amenity": "charging_station", "bicycle": "yes", "capacity": "10", "image": "https://i.imgur.com/rH5YehZ.jpg", "motorcar": "no", "socket:typee": "10"}}, {"type": "node", "id": 10919486557, "lat": 45.0578096, "lon": 11.1284823, "tags": {"access": "yes", "amenity": "charging_station", "authentication:none": "yes", "bicycle": "yes", "bus": "no", "capacity": "2", "fee": "no", "hgv": "no", "image": "https://i.imgur.com/Mm3hRpz.jpg", "motorcar": "no", "opening_hours": "24/7", "scooter": "no", "socket:typee": "1", "socket:typee:voltage": "230 V"}}, {"type": "node", "id": 11140711890, "lat": 45.0066759, "lon": 11.2995834, "tags": {"amenity": "charging_station", "survey:date": "2023-08-24"}}, {"type": "node", "id": 11141562698, "lat": 45.1594756, "lon": 11.3550391, "tags": {"access": "yes", "amenity": "charging_station", "brand": "enel", "capacity": "1"}}, {"type": "node", "id": 11155693827, "lat": 45.1871663, "lon": 11.2694697, "tags": {"amenity": "charging_station", "brand": "Enel X", "brand:wikidata": "Q5376815", "name": "Enel X", "operator": "Enel X", "operator:wikidata": "Q5376815"}}, {"type": "node", "id": 11155693828, "lat": 45.1871516, "lon": 11.2694772, "tags": {"amenity": "charging_station", "brand": "Enel X", "brand:wikidata": "Q5376815", "name": "Enel X", "operator": "Enel X", "operator:wikidata": "Q5376815"}}, {"type": "node", "id": 11814093178, "lat": 44.8859535, "lon": 11.419115, "tags": {"amenity": "charging_station", "capacity": "2"}}, {"type": "node", "id": 11814393654, "lat": 44.8859968, "lon": 11.4191579, "tags": {"amenity": "charging_station", "capacity": "2"}}, {"type": "node", "id": 11845277974, "lat": 45.0699827, "lon": 11.0210351, "tags": {"amenity": "charging_station", "capacity": "1", "fee": "yes", "motorcar": "yes", "opening_hours": "24/7"}}, {"type": "node", "id": 11878308724, "lat": 44.9049364, "lon": 11.6054096, "tags": {"amenity": "charging_station", "capacity": "2", "motorcar": "yes", "operator": "Lidl", "operator:wikidata": "Q151954"}}, {"type": "node", "id": 11878818606, "lat": 44.8914795, "lon": 11.1116759, "tags": {"access": "yes", "amenity": "charging_station", "amperage": "16", "authentication:none": "yes", "bicycle": "yes", "capacity": "3", "covered": "yes", "fee": "no", "motorcar": "no", "opening_hours": "24/7", "socket:schuko": "6", "voltage": "230"}}, {"type": "node", "id": 11878822779, "lat": 44.8914289, "lon": 11.1117108, "tags": {"access": "yes", "amenity": "charging_station", "amperage": "16", "authentication:none": "yes", "bicycle": "yes", "capacity": "1", "covered": "yes", "fee": "no", "motorcar": "no", "opening_hours": "24/7", "socket:schuko": "6", "voltage": "230"}}, {"type": "node", "id": 11878822882, "lat": 44.8914293, "lon": 11.1116449, "tags": {"access": "yes", "amenity": "charging_station", "amperage": "16", "authentication:none": "yes", "bicycle": "yes", "capacity": "1", "covered": "yes", "fee": "no", "motorcar": "no", "opening_hours": "24/7", "socket:schuko": "6", "voltage": "230"}}, {"type": "node", "id": 11878822923, "lat": 44.8914794, "lon": 11.1117146, "tags": {"access": "yes", "amenity": "charging_station", "amperage": "16", "authentication:none": "yes", "bicycle": "yes", "capacity": "1", "covered": "yes", "fee": "no", "motorcar": "no", "opening_hours": "24/7", "socket:schuko": "6", "voltage": "230"}}, {"type": "node", "id": 11878822942, "lat": 44.8914294, "lon": 11.1116775, "tags": {"access": "yes", "amenity": "charging_station", "amperage": "16", "authentication:none": "yes", "bicycle": "yes", "capacity": "1", "covered": "yes", "fee": "no", "motorcar": "no", "opening_hours": "24/7", "socket:schuko": "6", "voltage": "230"}}, {"type": "node", "id": 11879177605, "lat": 44.8939281, "lon": 11.0612937, "tags": {"amenity": "charging_station", "operator": "ALDI", "operator:wikidata": "Q125054"}}, {"type": "node", "id": 11879213200, "lat": 44.8939815, "lon": 11.063426, "tags": {"amenity": "charging_station"}}, {"type": "node", "id": 11879232801, "lat": 44.8938539, "lon": 11.0612321, "tags": {"amenity": "charging_station", "operator": "ALDI", "operator:wikidata": "Q125054"}}, {"type": "node", "id": 11879234433, "lat": 44.8939747, "lon": 11.0631004, "tags": {"amenity": "charging_station"}}, {"type": "node", "id": 11879244187, "lat": 44.8940496, "lon": 11.0633244, "tags": {"amenity": "charging_station"}}, {"type": "node", "id": 11879251787, "lat": 44.893941, "lon": 11.0633126, "tags": {"amenity": "charging_station"}}, {"type": "node", "id": 11879257072, "lat": 44.8937888, "lon": 11.0611866, "tags": {"amenity": "charging_station", "operator": "ALDI", "operator:wikidata": "Q125054"}}, {"type": "node", "id": 11879264079, "lat": 44.8939479, "lon": 11.0632039, "tags": {"amenity": "charging_station"}}, {"type": "node", "id": 11919363578, "lat": 44.8858806, "lon": 11.4040083, "tags": {"amenity": "charging_station", "capacity": "2", "operator": "Enel X Way"}}, {"type": "node", "id": 11925617533, "lat": 45.0696822, "lon": 11.0146429, "tags": {"amenity": "charging_station", "capacity": "2", "fee": "yes", "motorcar": "yes", "opening_hours": "24/7", "operator": "Poste Italiane"}}, {"type": "node", "id": 11931267280, "lat": 45.2311644, "lon": 11.4631811, "tags": {"amenity": "charging_station", "capacity": "2"}}, {"type": "node", "id": 12174454577, "lat": 45.3024106, "lon": 11.5603368, "tags": {"amenity": "charging_station", "capacity": "4", "operator": "Privato"}}]}