{"version": 0.6, "generator": "Overpass API 0.7.62.1 084b4234", "osm3s": {"timestamp_osm_base": "2024-11-13T09:49:30Z", "copyright": "The data included in this document is from www.openstreetmap.org. The data is made available under ODbL."}, "elements": [{"type": "node", "id": 494836203, "lat": 43.0936473, "lon": 11.7805857, "tags": {"addr:city": "Montepulciano", "addr:postcode": "53045", "amenity": "restaurant", "ele": "600.22", "name": "Cantine del Redi"}}, {"type": "node", "id": 4827607526, "lat": 43.0947616, "lon": 11.7829201, "tags": {"addr:city": "Montepulciano", "addr:housenumber": "2", "addr:postcode": "53045", "addr:street": "Vicolo San Cristofano", "amenity": "restaurant", "cuisine": "mediterranean;italian;local", "email": "posta@ristorantedegliarchi.it", "name": "Ristorante Degli Archi", "operator": "Elda & Pier", "phone": "+393889308947", "website": "http://www.ristorantedegliarchi.it"}}, {"type": "node", "id": 5564253308, "lat": 43.0931417, "lon": 11.7807849, "tags": {"addr:city": "Montepulciano", "addr:country": "IT", "addr:housenumber": "7", "addr:postcode": "53045", "addr:street": "Via Ricci", "amenity": "restaurant", "cuisine": "italian", "name": "Osteria del Borgo", "outdoor_seating": "yes", "phone": "+39 0578 716799", "website": "https://www.osteriadelborgo.it/"}}, {"type": "node", "id": 5566992327, "lat": 43.0922486, "lon": 11.7818263, "tags": {"addr:city": "Montepulciano", "addr:country": "IT", "addr:housenumber": "30", "addr:postcode": "53045", "addr:street": "Via dell'Opio nel Corso", "amenity": "restaurant", "name": "Ristorante Trattoria di Cagnano", "website": "https://www.trattoriadicagnano.it/"}}, {"type": "node", "id": 5702934721, "lat": 43.0949555, "lon": 11.7826271, "tags": {"addr:city": "Montepulciano", "addr:housenumber": "6", "addr:postcode": "53045", "addr:street": "Via delle Erbe", "amenity": "restaurant", "cuisine": "italian", "email": "info@leloggedelvignola.com", "internet_access": "wlan", "name": "Le Logge del Vignola", "operator": "Massimo Stella", "phone": "+39 0578 717290", "website": "https://www.leloggedelvignola.com/en"}}, {"type": "node", "id": 6742982616, "lat": 43.0943871, "lon": 11.7810947, "tags": {"addr:city": "Montepulciano", "addr:postcode": "53045", "amenity": "restaurant", "cuisine": "italian", "name": "Elucevan Le Stelie"}}, {"type": "node", "id": 7422338968, "lat": 43.0948137, "lon": 11.7823985, "tags": {"addr:city": "Montepulciano", "addr:postcode": "53045", "amenity": "restaurant", "name": "Cafeteria bruschetteria vinneria"}}, {"type": "node", "id": 7942192581, "lat": 43.0949913, "lon": 11.7832614, "tags": {"addr:city": "Montepulciano", "addr:housenumber": "10", "addr:postcode": "53045", "addr:street": "Borgo Buio", "amenity": "restaurant", "cuisine": "italian", "name": "Pane vino & zucchero", "phone": "+39 0578 757922"}}, {"type": "node", "id": 7945568812, "lat": 43.0919071, "lon": 11.7814508, "tags": {"addr:city": "Montepulciano", "addr:housenumber": "11", "addr:postcode": "53045", "addr:street": "Via del Teatro", "amenity": "restaurant", "cuisine": "pizza", "name": "Pizzeria Lieviti"}}, {"type": "node", "id": 8579782217, "lat": 43.0934478, "lon": 11.7820689, "tags": {"addr:city": "Montepulciano", "addr:postcode": "53045", "amenity": "restaurant", "name": "Pentolaccia"}}, {"type": "node", "id": 11304348899, "lat": 43.0921014, "lon": 11.7818472, "tags": {"addr:city": "Montepulciano", "addr:housenumber": "34", "addr:postcode": "53045", "addr:street": "Via dell'Opio nel corso", "amenity": "restaurant", "cuisine": "italian", "diet:vegetarian": "yes", "name": "Rosso Rubino Trattoria", "phone": "+390578716373"}}]}