{"version": 0.6, "generator": "Overpass API 0.7.62.1 084b4234", "osm3s": {"timestamp_osm_base": "2024-11-06T19:37:16Z", "copyright": "The data included in this document is from www.openstreetmap.org. The data is made available under ODbL."}, "elements": [{"type": "node", "id": 2401540658, "lat": 45.43536, "lon": 12.30536, "tags": {"addr:country": "IT", "amenity": "charging_station", "brand": "Enel", "brand:wikidata": "Q651222", "name": "Enel - stazione di ricarica", "operator": "Enel", "operator:wikidata": "Q651222", "ref:enel:code": "ENEL_00000350", "ref:enel:serial_number": "N.11EP21T2301C000023"}}, {"type": "node", "id": 2401540659, "lat": 45.43903, "lon": 12.31248, "tags": {"addr:country": "IT", "amenity": "charging_station", "brand": "Enel", "brand:wikidata": "Q651222", "name": "Enel - stazione di ricarica", "operator": "Enel", "operator:wikidata": "Q651222", "ref:enel:code": "ENEL_00000351", "ref:enel:serial_number": "N.11EP21T2301C000026"}}, {"type": "node", "id": 2401540886, "lat": 45.50773, "lon": 12.22772, "tags": {"addr:country": "IT", "amenity": "charging_station", "brand": "Enel", "brand:wikidata": "Q651222", "brand:wikipedia": "en:Enel", "name": "Enel - stazione di ricarica", "operator": "Enel", "operator:wikidata": "Q651222", "operator:wikipedia": "en:Enel", "ref:enel:code": "ENEL_00000395", "ref:enel:serial_number": "N.11EP21T2302E000240"}}, {"type": "node", "id": 2471474999, "lat": 45.6522053, "lon": 12.7978032, "tags": {"amenity": "charging_station", "amperage": "16", "authentication:none": "yes", "bicycle": "yes", "capacity": "2", "network": "DINAclub", "opening_hours": "24/7", "operator": "Repower", "operator:wikidata": "Q674712", "operator:wikipedia": "it:Repower", "voltage": "230", "website": "https://www.repower.com/it/dina/"}}, {"type": "node", "id": 3706956985, "lat": 45.6641828, "lon": 12.2459968, "tags": {"amenity": "charging_station", "name": "Colonnina ricarica auto elettriche"}}, {"type": "node", "id": 5022140820, "lat": 45.4542568, "lon": 12.4816416, "tags": {"amenity": "charging_station", "brand": "Duferco", "capacity": "2", "fee": "yes", "motorcar": "yes", "operator": "Duferco", "operator:wikidata": "Q1263955"}}, {"type": "node", "id": 5089685217, "lat": 45.5722879, "lon": 12.8136601, "tags": {"access": "private", "amenity": "charging_station", "capacity": "2", "operator": "Pra delle Torri"}}, {"type": "node", "id": 5126734141, "lat": 45.4797483, "lon": 12.2700348, "tags": {"amenity": "charging_station", "authentication:none": "yes", "covered": "yes", "fee": "no", "level": "-1", "motorcar": "yes", "opening_hours": "24/7", "parking:fee": "no", "socket:cee_blue": "1", "socket:cee_red_16a": "1"}}, {"type": "node", "id": 6596337836, "lat": 45.5433979, "lon": 12.6502503, "tags": {"access": "customers", "amenity": "charging_station", "operator": "Ristorante da Guido", "socket:type2": "yes", "voltage": "up to 22kW"}}, {"type": "node", "id": 6598463433, "lat": 45.5245079, "lon": 12.7055655, "tags": {"access": "customers", "amenity": "charging_station", "contact:phone": "+39 0421 961233", "operator": "Hotel Bellevue", "socket:type2": "yes", "voltage": "up to 22kW", "website": "https://www.hbjesolo.it"}}, {"type": "node", "id": 6598473887, "lat": 45.5123318, "lon": 12.6682667, "tags": {"access": "customers", "amenity": "charging_station", "contact:phone": "+39 0421 380851", "operator": "Park Hotel Brasilia", "socket:type2": "yes", "voltage": "up to 22kW", "website": "https://www.parkhotelbrasilia.com/"}}, {"type": "node", "id": 6598507499, "lat": 45.5116018, "lon": 12.6641404, "tags": {"access": "customers", "amenity": "charging_station", "contact:phone": "+39 0421 1831900", "name": "Falkensteiner Hotel & Spa Jesolo", "socket:type2": "yes", "voltage": "up to 22kW", "website": "https://www.falkensteiner.com/en/hotel/jesolo"}}, {"type": "node", "id": 6598613579, "lat": 45.4841385, "lon": 12.5877819, "tags": {"access": "customers", "amenity": "charging_station", "capacity": "2", "contact:phone": "+39 0421 971826", "socket:type2": "yes", "voltage": "up to 22kW", "website": "https://www.jesolointernational.it/"}}, {"type": "node", "id": 6598640737, "lat": 45.4929565, "lon": 12.6120465, "tags": {"access": "customers", "amenity": "charging_station", "contact:phone": "+39 0421 972110", "operator": "Hotel Le Soleil", "socket:type2": "yes", "voltage": "up to 22kW", "website": "https://www.hotellesoleil.it/"}}, {"type": "node", "id": 6598653504, "lat": 45.466992, "lon": 12.530073, "tags": {"access": "customers", "amenity": "charging_station", "contact:phone": "+39 041 2575111", "name": "Camping Union Lido Vacanze", "socket:type2": "yes", "voltage": "up to 22kW", "website": "https://www.unionlido.com/"}}, {"type": "node", "id": 6598666043, "lat": 45.4561857, "lon": 12.4952037, "tags": {"access": "customers", "amenity": "charging_station", "capacity": "2", "contact:phone": "+39 041 966030", "name": "Camping Enzo Stella Maris", "socket:type2": "yes", "voltage": "up to 22kW", "website": "https://www.enzostellamaris.com/"}}, {"type": "node", "id": 6598686482, "lat": 45.4373021, "lon": 12.4394104, "tags": {"access": "customers", "amenity": "charging_station", "contact:phone": "+39 041 5302511", "name": "Camping Village Marina di Venezia", "socket:type2": "yes", "voltage": "up to 22kW", "website": "https://www.marinadivenezia.it/"}}, {"type": "node", "id": 6646193884, "lat": 45.5239819, "lon": 12.7035143, "tags": {"access": "customers", "amenity": "charging_station", "contact:phone": "+39 0421 961018", "socket:type2": "2", "voltage": "22kW", "website": "https://www.hotelgallia.com"}}, {"type": "node", "id": 6646206078, "lat": 45.5253069, "lon": 12.7093148, "tags": {"access": "customers", "amenity": "charging_station", "contact:phone": "+39 0421 961175", "operator": "Hotel Mediterraneo", "socket:type2": "2", "voltage": "22kW", "website": "https://www.mediterraneojesolo.com"}}, {"type": "node", "id": 6646235160, "lat": 45.5177908, "lon": 12.6838933, "tags": {"access": "customers", "amenity": "charging_station", "capacity": "1", "contact:phone": "+39 0421 961045", "socket:type2": "2", "voltage": "22kW", "website": "https://www.hotelmariver.it"}}, {"type": "node", "id": 6646279725, "lat": 45.5165702, "lon": 12.6806317, "tags": {"access": "customers", "amenity": "charging_station", "contact:phone": "+39 0421 961767", "fee": "yes", "operator": "Hotel Croce di Malta", "socket:industrial": "1", "socket:type2": "2", "voltage": "22kW", "website": "https://www..crocedimalta.info"}}, {"type": "node", "id": 6646292312, "lat": 45.514605, "lon": 12.6751862, "tags": {"access": "customers", "amenity": "charging_station", "contact:phone": "+39 0421 960100", "operator": "Hotel Termini", "socket:schuko": "1", "socket:type1": "1", "socket:type2": "2", "socket:type3a": "1", "voltage": "22kW", "website": "https://www.hoteltermini.it"}}, {"type": "node", "id": 6646326941, "lat": 45.5046501, "lon": 12.6444965, "tags": {"access": "customers", "amenity": "charging_station", "contact:phone": "+39 0421 381273", "operator": "Hotel Atlantico", "socket:type2": "1", "voltage": "7kW", "website": "https://hotel-atlantico.it"}}, {"type": "node", "id": 6646349642, "lat": 45.4864355, "lon": 12.5957499, "tags": {"access": "customers", "amenity": "charging_station", "capacity": "2", "contact:phone": "+39 0421 371235", "name": "Hotel Stockholm", "socket:schuko": "1", "socket:type2": "1", "socket:type3a": "1", "voltage": "22kW", "website": "https://www.hotelstockholm.it"}}, {"type": "node", "id": 6646353533, "lat": 45.4957053, "lon": 12.6179054, "tags": {"access": "customers", "amenity": "charging_station", "capacity": "1", "contact:phone": "+39 0421 370934", "operator": "Hotel Excelsior", "socket:type2": "1", "voltage": "7kW", "website": "https://www.excelsior-jesolo.it"}}, {"type": "node", "id": 6646392493, "lat": 45.4803159, "lon": 12.5802353, "tags": {"access": "customers", "amenity": "charging_station", "contact:phone": "+39 041 968066", "name": "Residence Le Dune", "socket:type2": "1", "socket:type3a": "1", "voltage": "22kW", "website": "https://www.villaalmare.com/"}}, {"type": "node", "id": 6646435799, "lat": 45.5458045, "lon": 12.7628148, "tags": {"access": "customers", "amenity": "charging_station", "contact:phone": "+39 0421 66063", "name": "Park Hotel Pineta & Dependace Suite", "socket:type2": "1", "voltage": "7kW", "website": "https://www.parkhotelpineta.com"}}, {"type": "node", "id": 6793471195, "lat": 45.6660695, "lon": 12.2416286, "tags": {"amenity": "charging_station", "capacity": "2"}}, {"type": "node", "id": 6832401821, "lat": 45.7684479, "lon": 12.8349539, "tags": {"access": "yes", "amenity": "charging_station", "bicycle": "yes", "capacity": "1", "charge": "5 EUR first hour, 3 EUR above hours", "covered": "no", "fee": "yes", "motorcar": "yes", "name": "3Bar'S", "scooter": "yes", "socket:schuko": "1", "socket:type2": "1", "socket:type2:current": "32A", "socket:type2:output": "7.4kW", "socket:typeL": "1", "voltage": "230V"}}, {"type": "node", "id": 6832635450, "lat": 45.7657122, "lon": 12.8300925, "tags": {"access": "yes", "amenity": "charging_station", "capacity": "2", "covered": "no", "manufacturer": "Scame", "motorcar": "yes", "name": "Eurospin interna", "socket:type2": "2"}}, {"type": "node", "id": 6832711600, "lat": 45.7661519, "lon": 12.8296445, "tags": {"access": "yes", "amenity": "charging_station", "brand": "Scame", "capacity": "2", "covered": "no", "motorcar": "yes", "name": "Eurospin esterna", "socket:type2": "2"}}, {"type": "node", "id": 6848869872, "lat": 45.7159662, "lon": 12.4653109, "tags": {"amenity": "charging_station", "capacity": "2", "capacity:disabled": "1"}}, {"type": "node", "id": 6893527294, "lat": 45.7811684, "lon": 12.8331741, "tags": {"access": "yes", "amenity": "charging_station", "brand": "Enel X", "brand:wikidata": "Q5376815", "capacity": "1", "covered": "no", "fee": "yes", "motorcar": "yes", "name": "Enel X", "operator": "Enel X", "operator:wikidata": "Q5376815", "socket:chademo": "1", "socket:type2": "1", "socket:type2_combo": "1"}}, {"type": "node", "id": 6893527295, "lat": 45.7811946, "lon": 12.8332545, "tags": {"access": "yes", "amenity": "charging_station", "brand": "Enel X", "brand:wikidata": "Q5376815", "capacity": "1", "covered": "no", "motorcar": "yes", "name": "Enel X", "operator": "Enel X", "operator:wikidata": "Q5376815", "socket:chademo": "1", "socket:type2": "1", "socket:type2_combo": "1"}}, {"type": "node", "id": 6959956218, "lat": 45.4762971, "lon": 12.2244475, "tags": {"amenity": "charging_station", "brand": "Enel X", "brand:wikidata": "Q5376815", "capacity": "1", "name": "Enel X", "operator": "Enel X", "operator:wikidata": "Q5376815"}}, {"type": "node", "id": 6959956219, "lat": 45.4800508, "lon": 12.2305314, "tags": {"amenity": "charging_station", "brand": "Enel X", "brand:wikidata": "Q5376815", "capacity": "2", "name": "Enel X", "operator": "Enel X", "operator:wikidata": "Q5376815"}}, {"type": "node", "id": 6959956220, "lat": 45.496875, "lon": 12.2378518, "tags": {"amenity": "charging_station", "capacity": "2", "operator": "enel x"}}, {"type": "node", "id": 8179704420, "lat": 45.4913013, "lon": 12.239193, "tags": {"amenity": "charging_station", "amperage": "22", "capacity": "2", "voltage": "400"}}, {"type": "node", "id": 8180563919, "lat": 45.5000794, "lon": 12.2438309, "tags": {"amenity": "charging_station", "brand": "Enel", "brand:wikidata": "Q651222", "capacity": "6", "fixme": "Posizione da verificare ed etichette da aggiungere", "name": "Enel", "operator": "Enel", "operator:wikidata": "Q651222"}}, {"type": "node", "id": 8181165923, "lat": 45.6827514, "lon": 12.2447106, "tags": {"amenity": "charging_station", "authentication:none": "yes", "fee": "no", "operator": "lidl", "socket:type2": "2"}}, {"type": "node", "id": 8181220125, "lat": 45.691261, "lon": 12.2499128, "tags": {"amenity": "charging_station"}}, {"type": "node", "id": 8188210049, "lat": 45.5879344, "lon": 12.3545871, "tags": {"access": "customers", "amenity": "charging_station", "bicycle": "yes", "motorcar": "yes"}}, {"type": "node", "id": 8195038474, "lat": 45.789975, "lon": 12.8259411, "tags": {"access": "customers", "amenity": "charging_station", "brand": "Enel X", "brand:wikidata": "Q5376815", "brand:wikipedia": "en:ChargePoint", "capacity": "2", "name": "SINA Portogruaro", "operator": "Enel X", "operator:wikidata": "Q5376815", "socket:type2": "2"}}, {"type": "node", "id": 8195067280, "lat": 45.7783257, "lon": 12.8346283, "tags": {"access": "yes", "amenity": "charging_station", "brand": "Enel X", "brand:wikidata": "Q5376815", "brand:wikipedia": "en:ChargePoint", "capacity": "2", "name": "Enel X Portogruaro P.zza Castello", "operator": "Enel X", "operator:wikidata": "Q5376815", "socket:type2": "2"}}, {"type": "node", "id": 8196141941, "lat": 45.7736259, "lon": 12.8272436, "tags": {"access": "yes", "amenity": "charging_station", "brand": "Enel X", "brand:wikidata": "Q5376815", "brand:wikipedia": "en:ChargePoint", "capacity": "2", "covered": "no", "name": "Enel X", "operator": "Enel X", "operator:wikidata": "Q5376815", "socket:type2": "1", "socket:type3": "1"}}, {"type": "node", "id": 8254097481, "lat": 45.7801657, "lon": 12.8351483, "tags": {"amenity": "charging_station", "bicycle": "yes", "description": "Stazione di ricarica E-Bike e monopattini elettrici.4 prese Schuko con USBRicarica tramite registrazione Link:  https://my.thor.tools/", "name": "LYNUS8 by 3M EVOLUTION SRL"}}, {"type": "node", "id": 9004679140, "lat": 45.5030158, "lon": 12.3270051, "tags": {"amenity": "charging_station", "brand": "Enel X", "brand:wikidata": "Q5376815", "brand:wikipedia": "en:Enel X", "capacity": "2", "name": "Enel X", "operator": "Enel X", "operator:wikidata": "Q5376815", "operator:wikipedia": "en:Enel X"}}, {"type": "node", "id": 9029290785, "lat": 45.4802655, "lon": 12.5489963, "tags": {"amenity": "charging_station", "brand": "Enel X", "brand:wikidata": "Q5376815", "brand:wikipedia": "en:Enel X", "capacity": "2", "fee": "yes", "motorcar": "yes", "name": "Enel X", "opening_hours": "24/7", "operator": "Enel X", "operator:wikidata": "Q5376815", "operator:wikipedia": "en:Enel X"}}, {"type": "node", "id": 9029290786, "lat": 45.4802202, "lon": 12.5490362, "tags": {"amenity": "charging_station", "brand": "Enel X", "brand:wikidata": "Q5376815", "brand:wikipedia": "en:Enel X", "capacity": "2", "fee": "yes", "motorcar": "yes", "name": "Enel X", "opening_hours": "24/7", "operator": "Enel X", "operator:wikidata": "Q5376815", "operator:wikipedia": "en:Enel X"}}, {"type": "node", "id": 9074740712, "lat": 45.6689667, "lon": 12.2244759, "tags": {"amenity": "charging_station"}}, {"type": "node", "id": 9142261998, "lat": 45.5846944, "lon": 12.2872183, "tags": {"amenity": "charging_station", "brand": "Tesla, Inc.", "brand:wikidata": "Q478214", "capacity": "8", "fee": "yes", "name": "Mogliano Veneto Supercharger", "opening_hours": "24/7", "operator": "Tesla, Inc.", "operator:wikidata": "Q478214", "short_name": "Tesla", "socket:tesla_supercharger": "8", "socket:tesla_supercharger:output": "150 kW", "website": "https://www.tesla.com/findus/location/supercharger/moglianovenetosupercharger"}}, {"type": "node", "id": 9142450222, "lat": 45.6634497, "lon": 12.248365, "tags": {"amenity": "charging_station", "capacity": "2"}}, {"type": "node", "id": 9142483617, "lat": 45.663449, "lon": 12.2483136, "tags": {"amenity": "charging_station", "capacity": "2"}}, {"type": "node", "id": 9178031731, "lat": 45.7917438, "lon": 12.8152821, "tags": {"access": "yes", "amenity": "charging_station", "brand": "Enel X", "brand:wikidata": "Q5376815", "capacity": "2", "fee": "yes", "motorcar": "yes", "name": "Enel X", "opening_hours": "24/7", "operator": "Enel X", "operator:wikidata": "Q5376815"}}, {"type": "node", "id": 9198323554, "lat": 45.5144795, "lon": 12.6748869, "tags": {"access": "customers", "amenity": "charging_station", "operator": "Hotel Sayonara"}}, {"type": "node", "id": 9211928966, "lat": 45.5030391, "lon": 12.6327784, "tags": {"amenity": "charging_station", "bicycle": "no", "brand": "BeCharge", "capacity": "2", "fee": "yes", "motorcar": "yes", "motorcycle": "yes", "operator": "Be Charge", "operator:wikidata": "Q113289535"}}, {"type": "node", "id": 9214476759, "lat": 45.4688675, "lon": 12.5441259, "tags": {"amenity": "charging_station", "socket:type2": "2"}}, {"type": "node", "id": 9513297230, "lat": 45.5038749, "lon": 12.2856049, "tags": {"amenity": "charging_station", "brand": "Enel X", "brand:wikidata": "Q5376815", "capacity": "2", "charging_station:output": "44kW", "name": "enel x", "opening_hours": "24/7", "operator": "Enel X", "operator:wikidata": "Q5376815", "ref": "20XP22T3KK1AL00801", "socket:type2": "2", "socket:type2:output": "22 kW"}}, {"type": "node", "id": 9606073308, "lat": 45.7090793, "lon": 12.3066463, "tags": {"access": "yes", "amenity": "charging_station", "brand": "Enel", "brand:wikidata": "Q651222", "brand:wikipedia": "en:Enel", "capacity": "4", "name": "Enel", "operator": "Enel", "operator:wikidata": "Q651222", "operator:wikipedia": "en:Enel"}}, {"type": "node", "id": 9678379369, "lat": 45.6427387, "lon": 12.5959189, "tags": {"amenity": "charging_station", "brand": "Be Charge", "capacity": "2", "fee": "yes", "motorcar": "yes", "name": "Be Charge", "opening_hours": "24/7", "operator": "Be Charge", "operator:wikidata": "Q113289535"}}, {"type": "node", "id": 9678379370, "lat": 45.6426742, "lon": 12.5958351, "tags": {"amenity": "charging_station", "brand": "Be Charge", "capacity": "2", "fee": "yes", "motorcar": "yes", "name": "Be Charge", "opening_hours": "24/7", "operator": "Be Charge", "operator:wikidata": "Q113289535"}}, {"type": "node", "id": 9678379371, "lat": 45.6427724, "lon": 12.5959595, "tags": {"amenity": "charging_station", "brand": "Be Charge", "capacity": "2", "fee": "yes", "motorcar": "yes", "name": "Be Charge", "opening_hours": "24/7", "operator": "Be Charge", "operator:wikidata": "Q113289535"}}, {"type": "node", "id": 9678379373, "lat": 45.6427065, "lon": 12.5958777, "tags": {"amenity": "charging_station", "brand": "Be Charge", "capacity": "2", "fee": "yes", "motorcar": "yes", "name": "Be Charge", "opening_hours": "24/7", "operator": "Be Charge", "operator:wikidata": "Q113289535"}}, {"type": "node", "id": 9678379374, "lat": 45.6428051, "lon": 12.5960024, "tags": {"amenity": "charging_station", "brand": "Be Charge", "capacity": "2", "fee": "yes", "motorcar": "yes", "name": "Be Charge", "opening_hours": "24/7", "operator": "Be Charge", "operator:wikidata": "Q113289535"}}, {"type": "node", "id": 9690623779, "lat": 45.6379581, "lon": 12.5418991, "tags": {"amenity": "charging_station", "capacity": "2", "fee": "yes", "motorcar": "yes", "name": "Be Charge", "opening_hours": "24/7", "operator": "Be Charge", "operator:wikidata": "Q113289535"}}, {"type": "node", "id": 9694516540, "lat": 45.6335136, "lon": 12.5613192, "tags": {"amenity": "charging_station"}}, {"type": "node", "id": 9694633867, "lat": 45.6476097, "lon": 12.5484277, "tags": {"amenity": "charging_station", "brand": "Enel", "brand:wikidata": "Q651222", "capacity": "2", "fee": "yes", "motorcar": "yes", "name": "Enel", "operator": "Enel", "operator:wikidata": "Q651222"}}, {"type": "node", "id": 9699983529, "lat": 45.6294271, "lon": 12.5671138, "tags": {"amenity": "charging_station", "capacity": "2", "fee": "yes", "motorcar": "yes", "opening_hours": "24/7"}}, {"type": "node", "id": 9773501009, "lat": 45.4752359, "lon": 12.2687846, "tags": {"amenity": "charging_station", "brand": "Enel X", "brand:wikidata": "Q5376815", "capacity": "2", "fee": "yes", "motorcar": "yes", "name": "Enel X", "opening_hours": "24/7", "operator": "Enel X", "operator:wikidata": "Q5376815", "operator:wikipedia": "en:Enel X"}}, {"type": "node", "id": 9773501010, "lat": 45.4751946, "lon": 12.2686881, "tags": {"amenity": "charging_station", "brand": "Enel X", "brand:wikidata": "Q5376815", "capacity": "2", "fee": "yes", "motorcar": "yes", "name": "Enel X", "opening_hours": "24/7", "operator": "Enel X", "operator:wikidata": "Q5376815", "operator:wikipedia": "en:Enel X"}}, {"type": "node", "id": 9844156418, "lat": 45.5176603, "lon": 12.6835649, "tags": {"access": "customers", "amenity": "charging_station", "capacity": "1", "contact:phone": "+39 0421 961045", "socket:type2": "2", "voltage": "22kW", "website": "https://www.hotelmariver.it"}}, {"type": "node", "id": 9870486207, "lat": 45.636428, "lon": 12.6901839, "tags": {"amenity": "charging_station", "authentication:none": "yes", "bicycle": "yes", "brand": "Repower", "capacity": "2", "fee": "no", "network": "DINAclub", "operator": "Centrale", "operator:wikidata": "Q674712", "website": "https://www.repower.com/it/dina/"}}, {"type": "node", "id": 9870486209, "lat": 45.6364321, "lon": 12.6901986, "tags": {"amenity": "charging_station", "brand": "Repower", "capacity": "1", "motorcar": "yes", "operator": "Centrale", "operator:wikidata": "Q674712", "website": "https://www.repower.com/it/la-mobilita-elettrica/"}}, {"type": "node", "id": 9884091345, "lat": 45.4984408, "lon": 12.6273758, "tags": {"amenity": "charging_station", "capacity": "1", "motorcar": "yes"}}, {"type": "node", "id": 9887458285, "lat": 45.6722698, "lon": 12.5360756, "tags": {"access": "customers", "amenity": "charging_station", "capacity": "6", "description:de": "Um die S\u00e4ulen benutzen zu k\u00f6nnen, muss vorher bei den Guest Services eine ID (z.B. Pass, Ausweis, F\u00fchrerschein) gegen eine Ladekarte eingetauscht und nach dem Laden wieder zur\u00fcckgetauscht werden.", "fee": "no", "maxstay": "2 hours", "motorcar": "yes", "operator": "Designer Outlet Noventa di Piave", "socket:type2": "5", "socket:type2:output": "22 kW", "socket:type3a": "1", "socket:type3a:output": "3.5 Kw"}}, {"type": "node", "id": 9887460955, "lat": 45.5268468, "lon": 12.7165206, "tags": {"amenity": "charging_station", "capacity": "4", "fee": "yes", "motorcar": "yes", "socket:type2": "2"}}, {"type": "node", "id": 9887485226, "lat": 45.6723739, "lon": 12.5362104, "tags": {"amenity": "charging_station", "capacity": "2", "fee": "yes", "motorcar": "yes", "operator": "Enel", "socket:chademo": "1", "socket:type2": "1", "socket:type2_combo": "1"}}, {"type": "node", "id": 9893003773, "lat": 45.4838025, "lon": 12.2323949, "tags": {"amenity": "charging_station", "capacity": "2"}}, {"type": "node", "id": 9931661692, "lat": 45.6278064, "lon": 12.5633362, "tags": {"amenity": "charging_station", "fee": "yes", "motorcar": "yes", "opening_hours": "24/7"}}, {"type": "node", "id": 9953035789, "lat": 45.6995487, "lon": 12.6899797, "tags": {"access": "yes", "amenity": "charging_station", "authentication:none": "yes", "bicycle": "yes", "fee": "no", "fixme": "check type und quantity of sockets", "motorcar": "no", "motorcycle": "no", "opening_hours": "24/7", "scooter": "no", "truck": "no"}}, {"type": "node", "id": 9953035793, "lat": 45.6995736, "lon": 12.6899795, "tags": {"access": "yes", "amenity": "charging_station", "authentication:none": "yes", "bicycle": "yes", "fee": "no", "fixme": "check type und quantity of sockets", "motorcar": "no", "motorcycle": "no", "opening_hours": "24/7", "scooter": "no", "truck": "no"}}, {"type": "node", "id": 9953035807, "lat": 45.6995411, "lon": 12.6899905, "tags": {"access": "yes", "amenity": "charging_station", "authentication:none": "yes", "bicycle": "yes", "fee": "no", "fixme": "check type und quantity of sockets", "motorcar": "no", "motorcycle": "no", "opening_hours": "24/7", "scooter": "no", "truck": "no"}}, {"type": "node", "id": 9953035808, "lat": 45.6995317, "lon": 12.6900049, "tags": {"access": "yes", "amenity": "charging_station", "authentication:none": "yes", "bicycle": "yes", "fee": "no", "fixme": "check type und quantity of sockets", "motorcar": "no", "motorcycle": "no", "opening_hours": "24/7", "scooter": "no", "truck": "no"}}, {"type": "node", "id": 9953035810, "lat": 45.6995575, "lon": 12.6899657, "tags": {"access": "yes", "amenity": "charging_station", "authentication:none": "yes", "bicycle": "yes", "fee": "no", "fixme": "check type und quantity of sockets", "motorcar": "no", "motorcycle": "no", "opening_hours": "24/7", "scooter": "no", "truck": "no"}}, {"type": "node", "id": 9957108324, "lat": 45.7087499, "lon": 12.2234009, "tags": {"amenity": "charging_station"}}, {"type": "node", "id": 9957310907, "lat": 45.5149534, "lon": 12.6411984, "tags": {"amenity": "charging_station", "capacity": "1", "motorcar": "yes", "operator": "F Immobiliare"}}, {"type": "node", "id": 9957603921, "lat": 45.5016343, "lon": 12.6303058, "tags": {"amenity": "charging_station", "capacity": "2", "fee": "yes", "motorcar": "yes", "opening_hours": "24/7", "operator": "Ingeteam", "wikimedia_commons": "File:Ingeteam, Stazione di ricarica.jpg"}}, {"type": "node", "id": 9957603922, "lat": 45.5012268, "lon": 12.6300566, "tags": {"amenity": "charging_station", "capacity": "1", "motorcar": "yes", "operator": "Hotel Colombo"}}, {"type": "node", "id": 9978558268, "lat": 45.4181288, "lon": 12.370032, "tags": {"access": "private", "amenity": "charging_station", "capacity": "2", "description": "For buses only."}}, {"type": "node", "id": 9984456682, "lat": 45.5031089, "lon": 12.6328023, "tags": {"amenity": "charging_station", "bicycle": "no", "brand": "BeCharge", "capacity": "2", "fee": "yes", "motorcar": "yes", "motorcycle": "yes", "operator": "Be Charge", "operator:wikidata": "Q113289535"}}, {"type": "node", "id": 9987691817, "lat": 45.4882811, "lon": 12.254808, "tags": {"amenity": "charging_station", "brand": "Enel", "brand:wikidata": "Q651222", "capacity": "2", "name": "Enel", "opening_hours": "24/7", "operator": "Enel", "operator:wikidata": "Q651222", "socket:chademo": "1", "socket:type2_cable": "1", "socket:type2_combo": "1"}}, {"type": "node", "id": 10009258004, "lat": 45.4830891, "lon": 12.2412246, "tags": {"amenity": "charging_station", "bicycle": "yes", "capacity": "4", "fee": "no", "operator": "Interspar"}}, {"type": "node", "id": 10042554305, "lat": 45.6533047, "lon": 12.798541, "tags": {"amenity": "charging_station", "capacity": "1", "motorcar": "yes"}}, {"type": "node", "id": 10043095787, "lat": 45.506403, "lon": 12.6323067, "tags": {"amenity": "charging_station", "capacity": "2", "fee": "yes", "motorcar": "yes", "name": "Be Charge", "opening_hours": "24/7", "operator": "Be Charge", "operator:wikidata": "Q113289535"}}, {"type": "node", "id": 10043095794, "lat": 45.5063573, "lon": 12.6320638, "tags": {"amenity": "charging_station", "capacity": "2", "fee": "yes", "motorcar": "yes", "name": "Be Charge", "opening_hours": "24/7", "operator": "Be Charge", "operator:wikidata": "Q113289535"}}, {"type": "node", "id": 10043095800, "lat": 45.5063122, "lon": 12.6320677, "tags": {"amenity": "charging_station", "capacity": "2", "fee": "yes", "motorcar": "yes", "name": "Be Charge", "opening_hours": "24/7", "operator": "Be Charge", "operator:wikidata": "Q113289535"}}, {"type": "node", "id": 10043135721, "lat": 45.506377, "lon": 12.632311, "tags": {"amenity": "charging_station", "capacity": "2", "fee": "yes", "motorcar": "yes", "name": "Be Charge", "opening_hours": "24/7", "operator": "Be Charge", "operator:wikidata": "Q113289535"}}, {"type": "node", "id": 10045930990, "lat": 45.4926347, "lon": 12.607198, "tags": {"amenity": "charging_station", "brand": "Enel X", "capacity": "2", "fee": "yes", "motorcar": "yes", "name": "Enel X Way", "opening_hours": "24/7", "operator": "Enel X Way", "operator:wikidata": "Q5376815"}}, {"type": "node", "id": 10269361509, "lat": 45.670967, "lon": 12.551352, "tags": {"access": "customers", "amenity": "charging_station", "capacity": "2", "name": "Trattoria Guaiane"}}, {"type": "node", "id": 10600658490, "lat": 45.6338742, "lon": 12.319171, "tags": {"access": "yes", "amenity": "charging_station", "bicycle": "yes", "network": "DINAclub", "operator": "Repower", "operator:wikidata": "Q674712", "operator:wikipedia": "it:Repower", "website": "https://www.repower.com/it/dina/"}}, {"type": "node", "id": 10600673947, "lat": 45.6591041, "lon": 12.257353, "tags": {"access": "yes", "amenity": "charging_station", "bicycle": "yes", "network": "DINAclub", "operator": "Repower", "operator:wikidata": "Q674712", "operator:wikipedia": "it:Repower", "website": "https://www.repower.com/it/dina/"}}, {"type": "node", "id": 10600673948, "lat": 45.637275, "lon": 12.3015155, "tags": {"access": "yes", "amenity": "charging_station", "bicycle": "yes", "network": "DINAclub", "operator": "Repower", "operator:wikidata": "Q674712", "voltage": "230", "website": "https://www.repower.com/it/dina/"}}, {"type": "node", "id": 10600766321, "lat": 45.5786224, "lon": 12.5482173, "tags": {"access": "yes", "amenity": "charging_station", "amperage": "16", "authentication:none": "yes", "bicycle": "yes", "brand": "Repower", "capacity": "2", "fee": "no", "network": "DINAclub", "opening_hours": "24/7", "operator": "Repower", "operator:wikidata": "Q674712", "operator:wikipedia": "it:Repower", "voltage": "230", "website": "https://www.repower.com/it/dina/"}}, {"type": "node", "id": 10601234341, "lat": 45.5971153, "lon": 12.46982, "tags": {"access": "yes", "amenity": "charging_station", "bicycle": "yes", "network": "DINAclub", "operator": "Repower", "operator:wikidata": "Q674712", "website": "https://www.repower.com/it/dina/"}}, {"type": "node", "id": 10794778042, "lat": 45.5253268, "lon": 12.2597381, "tags": {"access": "yes", "amenity": "charging_station", "brand": "Enel X", "brand:wikidata": "Q5376815", "name": "Enel X", "operator": "Enel X", "operator:wikidata": "Q5376815", "source": "https://www.forumelettrico.it/forum/post354566.html#p354566"}}, {"type": "node", "id": 10889379541, "lat": 45.6082008, "lon": 12.2972167, "tags": {"access": "yes", "amenity": "charging_station", "brand": "FREEtoX", "capacity": "2", "charge": "Dipende dall'operatore", "description": "2 prese di Ricarica fino a 300 KW", "fee": "yes", "operator": "Vari", "payment:app": "yes"}}, {"type": "node", "id": 10889380966, "lat": 45.6082226, "lon": 12.29722, "tags": {"access": "yes", "amenity": "charging_station", "brand": "FREETOX", "capacity": "2", "charge": "Dipende dall'operatore", "fee": "yes", "operator": "vari", "payment:app": "yes"}}, {"type": "node", "id": 10935219836, "lat": 45.4448672, "lon": 12.330795, "tags": {"amenity": "charging_station", "bicycle": "no", "boat": "yes", "capacity": "1", "indoor": "no", "level": "0", "motorcar": "no", "motorcycle": "no", "opening_hours": "24/7", "scooter": "no", "truck": "no"}}, {"type": "node", "id": 11003046638, "lat": 45.459646, "lon": 12.4881856, "tags": {"access": "yes", "amenity": "charging_station", "bicycle": "yes", "motorcar": "no", "network": "DINAclub", "operator": "Repower", "operator:wikidata": "Q674712", "operator:wikipedia": "it:Repower", "socket:schuko": "yes", "voltage": "230", "website": "https://www.repower.com/it/dina/"}}, {"type": "node", "id": 11013741755, "lat": 45.766925, "lon": 12.8304322, "tags": {"amenity": "charging_station", "authentication:none": "yes", "fee": "no", "operator": "Lidl", "socket:type2": "2"}}, {"type": "node", "id": 11093333203, "lat": 45.5786654, "lon": 12.6785714, "tags": {"amenity": "charging_station", "amperage": "16", "authentication:none": "yes", "bicycle": "yes", "brand": "Repower", "capacity": "2", "fee": "no", "network": "DINAclub", "opening_hours": "24/7", "operator": "Repower", "operator:wikidata": "Q674712", "voltage": "230", "website": "https://www.repower.com/it/dina/"}}, {"type": "node", "id": 11093405235, "lat": 45.5365511, "lon": 12.6399806, "tags": {"amenity": "charging_station", "amperage": "16", "authentication:none": "yes", "bicycle": "yes", "capacity": "2", "disused": "yes", "fee": "no", "opening_hours": "24/7", "operator": "Comune di Jesolo", "survey_date": "2024-09-20", "voltage": "230"}}, {"type": "node", "id": 11105676455, "lat": 45.5118795, "lon": 12.642962, "tags": {"access": "yes", "amenity": "charging_station", "amperage": "16", "authentication:none": "yes", "bicycle": "yes", "capacity": "3", "fee": "no", "manufacturer": "Battery Charger", "opening_hours": "24/7", "operator": "Bike Shop Sperandio", "survey:date": "2024-06-20", "voltage": "230", "wikimedia_commons": "File:Stazione di ricarica e-bike 2.jpg"}}, {"type": "node", "id": 11121868420, "lat": 45.4861773, "lon": 12.2919665, "tags": {"amenity": "charging_station", "brand": "Enel X", "capacity": "2", "fee": "yes", "motorcar": "yes", "name": "Enel X", "opening_hours": "24/7", "operator": "Enel X", "operator:wikidata": "Q5376815"}}, {"type": "node", "id": 11122125013, "lat": 45.4673263, "lon": 12.2800322, "tags": {"amenity": "charging_station", "brand": "Enel X", "capacity": "2", "fee": "yes", "motorcar": "yes", "name": "Enel X", "opening_hours": "24/7", "operator": "Enel X", "operator:wikidata": "Q5376815"}}, {"type": "node", "id": 11132932193, "lat": 45.4878258, "lon": 12.5979296, "tags": {"amenity": "charging_station", "amperage": "16", "authentication:none": "yes", "bicycle": "yes", "brand": "Repower", "capacity": "2", "fee": "no", "image": "https://kartaview.org/details/9013401/1", "network": "DINAclub", "opening_hours": "24/7", "operator": "Repower", "operator:wikidata": "Q674712", "voltage": "230", "website": "https://www.repower.com/it/dina/"}}, {"type": "node", "id": 11132932195, "lat": 45.4878059, "lon": 12.5979714, "tags": {"amenity": "charging_station", "bicycle": "yes", "capacity": "4", "fee": "no", "mapillary": "737168395280908", "network": "DINAclub", "operator": "Repower", "operator:wikidata": "Q674712", "operator:wikipedia": "it:Repower", "voltage": "230", "website": "https://www.repower.com/it/dina/"}}, {"type": "node", "id": 11162624141, "lat": 45.7128271, "lon": 12.259687, "tags": {"access": "yes", "amenity": "charging_station", "brand": "Enel X Way", "capacity": "2", "fee": "yes", "payment:app": "yes"}}, {"type": "node", "id": 11162627934, "lat": 45.7058716, "lon": 12.2461355, "tags": {"access": "yes", "amenity": "charging_station", "brand": "Enel X Way", "capacity": "2", "fee": "yes", "operator": "Enel X Way"}}, {"type": "node", "id": 11162651016, "lat": 45.7134772, "lon": 12.2736386, "tags": {"access": "yes", "amenity": "charging_station", "brand": "Enel X Way", "capacity": "2", "fee": "yes", "operator": "Enel X Way"}}, {"type": "node", "id": 11217876261, "lat": 45.4840125, "lon": 12.5880156, "tags": {"amenity": "charging_station", "capacity": "2", "motorcar": "yes"}}, {"type": "node", "id": 11218703552, "lat": 45.5005167, "lon": 12.6270304, "tags": {"amenity": "charging_station", "brand": "Enel X Way", "capacity": "2", "covered": "no", "fee": "yes", "motorcar": "yes", "name": "Enel X Way", "opening_hours": "24/7", "operator": "Enel X Way", "operator:wikidata": "Q5376815", "source": "survey"}}, {"type": "node", "id": 11218752031, "lat": 45.5020279, "lon": 12.6315471, "tags": {"access": "yes", "amenity": "charging_station", "amperage": "16", "authentication:none": "yes", "bicycle": "yes", "capacity": "2", "covered": "no", "fee": "no", "manufacturer": "Battery Charger", "opening_hours": "24/7", "operator": "Tropicarium Park", "survey:date": "2024-06-20", "voltage": "230", "wikimedia_commons": "File:Stazione di ricarica e-bike, Tropicarium Park.jpg"}}, {"type": "node", "id": 11227598615, "lat": 45.5139636, "lon": 12.6719683, "tags": {"amenity": "charging_station", "brand": "Enel X", "brand:wikidata": "Q5376815", "capacity": "2", "fee": "yes", "motorcar": "yes", "name": "Enel X Way", "opening_hours": "24/7", "operator": "Enel X Way", "operator:wikidata": "Q116116836"}}, {"type": "node", "id": 11229959287, "lat": 45.4969357, "lon": 12.6127049, "tags": {"amenity": "charging_station", "brand": "Enel X", "capacity": "2", "fee": "yes", "motorcar": "yes", "name": "Enel X", "opening_hours": "24/7", "operator": "Enel X", "operator:wikidata": "Q5376815"}}, {"type": "node", "id": 11229961726, "lat": 45.5035774, "lon": 12.6353552, "tags": {"amenity": "charging_station", "capacity": "2", "fee": "yes", "motorcar": "yes", "name": "socharge", "opening_hours": "24/7", "wikimedia_commons": "File:Socharge,Lido di Jesolo,Via Aquileia.jpg"}}, {"type": "node", "id": 11231129072, "lat": 45.5130794, "lon": 12.6684806, "tags": {"access": "customers", "amenity": "charging_station", "capacity": "1", "motorcar": "yes", "operator": "Hotel Svezia & Scandinavia"}}, {"type": "node", "id": 11267102493, "lat": 45.7923567, "lon": 12.8175793, "tags": {"amenity": "charging_station", "capacity": "2", "motorcar": "yes"}}, {"type": "node", "id": 11373058829, "lat": 45.6392877, "lon": 12.5948037, "tags": {"amenity": "charging_station", "capacity": "4", "operator": "Plenitude"}}, {"type": "node", "id": 11505488120, "lat": 45.4151022, "lon": 12.3766002, "tags": {"amenity": "charging_station", "motorcar": "yes"}}, {"type": "node", "id": 11930183059, "lat": 45.4458631, "lon": 12.4621723, "tags": {"amenity": "charging_station", "capacity": "2", "network": "Ricarica 101", "operator": "Repower", "operator:wikidata": "Q674712", "operator:wikipedia": "it:Repower", "website": "https://www.repower.com/it/homo-mobilis/ricarica-101/vacanze-last-minute-cinque-camping-village-con-ricarica-per-auto-elettriche/"}}, {"type": "node", "id": 11946267075, "lat": 45.4725001, "lon": 12.5016904, "tags": {"amenity": "charging_station", "bicycle": "yes", "capacity": "2", "fee": "no", "moped": "yes", "motorcar": "no", "motorcycle": "no", "socket:schuko": "2", "socket:schuko:output": "1840"}}, {"type": "node", "id": 11992432283, "lat": 45.5291319, "lon": 12.640822, "tags": {"access": "yes", "amenity": "charging_station", "authentication:app": "yes", "brand": "Coop", "capacity": "2", "fee": "yes", "motorcar": "yes", "opening_hours": "24/7", "operator": "Coop", "source": "survey", "wikimedia_commons": "File:Colonnina di ricarica autoveicoli elettrici coop.jpg"}}, {"type": "node", "id": 11998813013, "lat": 45.5115864, "lon": 12.6560455, "tags": {"amenity": "charging_station"}}, {"type": "node", "id": 11998825461, "lat": 45.5115762, "lon": 12.6560218, "tags": {"amenity": "charging_station"}}, {"type": "node", "id": 11999014552, "lat": 45.5100915, "lon": 12.6474176, "tags": {"amenity": "charging_station", "capacity": "2", "fee": "yes", "motorcar": "yes", "name": "Enel X Way", "opening_hours": "24/7", "operator": "Enel X Way", "operator:wikidata": "Q116116836"}}, {"type": "node", "id": 11999950482, "lat": 45.5173954, "lon": 12.6373435, "tags": {"amenity": "charging_station", "capacity": "1", "operator": "Rampon Auto"}}, {"type": "node", "id": 12000932801, "lat": 45.4950081, "lon": 12.6040292, "tags": {"amenity": "charging_station", "amperage": "16", "authentication:none": "yes", "bicycle": "yes", "brand": "Repower", "capacity": "6", "fee": "no", "network": "DINAclub", "opening_hours": "24/7", "operator": "Repower", "operator:wikidata": "Q674712", "voltage": "230", "website": "https://www.repower.com/it/dina/", "wikimedia_commons": "File:Stazione di ricarica e-bike Repower.jpg"}}, {"type": "node", "id": 12001000043, "lat": 45.4937345, "lon": 12.6097003, "tags": {"amenity": "charging_station", "capacity": "2", "motorcar": "yes", "opening_hours": "24/7", "operator": "Repower", "operator:wikidata": "Q674712", "website": "https://www.repower.com/it/la-mobilita-elettrica/"}}, {"type": "node", "id": 12003267419, "lat": 45.5059134, "lon": 12.6208566, "tags": {"access": "private", "amenity": "charging_station", "motorcar": "yes", "operator": "ecolfumen"}}, {"type": "node", "id": 12004374548, "lat": 45.495591, "lon": 12.6112217, "tags": {"amenity": "charging_station", "capacity": "2", "operator": "Enel X Way"}}, {"type": "node", "id": 12033607252, "lat": 45.5452675, "lon": 12.726059, "tags": {"access": "customers", "amenity": "charging_station", "capacity": "2", "motorcar": "yes", "operator": "Al Traghetto"}}, {"type": "node", "id": 12037739872, "lat": 45.5291872, "lon": 12.6575307, "tags": {"amenity": "charging_station", "capacity": "2", "fee": "yes", "motorcar": "yes", "name": "Enel X Way", "opening_hours": "24/7", "operator": "Enel X Way"}}, {"type": "node", "id": 12038506123, "lat": 45.4874287, "lon": 12.5953897, "tags": {"amenity": "charging_station", "capacity": "2", "fee": "yes", "motorcar": "yes", "name": "Enel X Way", "opening_hours": "24/7", "operator": "Enel X Way"}}, {"type": "node", "id": 12057127974, "lat": 45.5501189, "lon": 12.6594326, "tags": {"access": "customers", "amenity": "charging_station", "amperage": "16", "authentication:none": "yes", "bicycle": "yes", "brand": "Repower", "capacity": "2", "fee": "no", "network": "DINAclub", "operator": "Vinicola al Mulinat", "operator:wikidata": "Q674712", "voltage": "230", "website": "https://www.repower.com/it/dina/"}}, {"type": "node", "id": 12057272911, "lat": 45.6575767, "lon": 12.8021728, "tags": {"access": "yes", "amenity": "charging_station", "amperage": "16", "authentication:none": "yes", "bicycle": "yes", "capacity": "2", "covered": "no", "fee": "no", "opening_hours": "24/7", "operator": "Regione del Veneto", "source": "survey", "voltage": "230", "wikimedia_commons": "File:Ricarica e-bike,La Salute di Livenza.jpg"}}, {"type": "node", "id": 12073700445, "lat": 45.597485, "lon": 12.696762, "tags": {"amenity": "charging_station", "capacity": "2", "fee": "yes", "motorcar": "yes", "name": "Be Charge", "opening_hours": "24/7", "operator": "Be Charge", "operator:wikidata": "Q113289535"}}, {"type": "node", "id": 12085230794, "lat": 45.6424466, "lon": 12.5939902, "tags": {"amenity": "charging_station", "capacity": "2", "fee": "yes", "motorcar": "yes", "opening_hours": "24/7", "operator": "Stellantis"}}, {"type": "node", "id": 12085456171, "lat": 45.6575887, "lon": 12.7998813, "tags": {"amenity": "charging_station", "capacity": "2", "fee": "yes", "motorcar": "yes", "name": "Enel X Way", "opening_hours": "24/7", "operator": "Enel X Way"}}, {"type": "node", "id": 12087604128, "lat": 45.6422616, "lon": 12.5964421, "tags": {"amenity": "charging_station", "brand": "Be Charge", "capacity": "2", "fee": "yes", "motorcar": "yes", "name": "Be Charge", "opening_hours": "24/7", "operator": "Be Charge", "operator:wikidata": "Q113289535"}}, {"type": "node", "id": 12087604133, "lat": 45.6424874, "lon": 12.5958824, "tags": {"amenity": "charging_station", "brand": "Be Charge", "capacity": "2", "fee": "yes", "motorcar": "yes", "name": "Be Charge", "opening_hours": "24/7", "operator": "Be Charge", "operator:wikidata": "Q113289535"}}, {"type": "node", "id": 12087604134, "lat": 45.6420022, "lon": 12.596681, "tags": {"amenity": "charging_station", "brand": "Be Charge", "capacity": "2", "fee": "yes", "motorcar": "yes", "name": "Be Charge", "opening_hours": "24/7", "operator": "Be Charge", "operator:wikidata": "Q113289535"}}, {"type": "node", "id": 12087604139, "lat": 45.6425365, "lon": 12.5959411, "tags": {"amenity": "charging_station", "brand": "Be Charge", "capacity": "2", "fee": "yes", "motorcar": "yes", "name": "Be Charge", "opening_hours": "24/7", "operator": "Be Charge", "operator:wikidata": "Q113289535"}}, {"type": "node", "id": 12087604140, "lat": 45.6424156, "lon": 12.595792, "tags": {"amenity": "charging_station", "brand": "Be Charge", "capacity": "2", "fee": "yes", "motorcar": "yes", "name": "Be Charge", "opening_hours": "24/7", "operator": "Be Charge", "operator:wikidata": "Q113289535"}}, {"type": "node", "id": 12087604141, "lat": 45.6419374, "lon": 12.5968805, "tags": {"amenity": "charging_station", "brand": "Be Charge", "capacity": "2", "fee": "yes", "motorcar": "yes", "name": "Be Charge", "opening_hours": "24/7", "operator": "Be Charge", "operator:wikidata": "Q113289535"}}, {"type": "node", "id": 12087604146, "lat": 45.6424055, "lon": 12.5960586, "tags": {"amenity": "charging_station", "brand": "Be Charge", "capacity": "2", "fee": "yes", "motorcar": "yes", "name": "Be Charge", "opening_hours": "24/7", "operator": "Be Charge", "operator:wikidata": "Q113289535"}}, {"type": "node", "id": 12087604148, "lat": 45.642143, "lon": 12.5962976, "tags": {"amenity": "charging_station", "brand": "Be Charge", "capacity": "2", "fee": "yes", "motorcar": "yes", "name": "Be Charge", "opening_hours": "24/7", "operator": "Be Charge", "operator:wikidata": "Q113289535"}}, {"type": "node", "id": 12087604158, "lat": 45.6419657, "lon": 12.5966367, "tags": {"amenity": "charging_station", "brand": "Be Charge", "capacity": "2", "fee": "yes", "motorcar": "yes", "name": "Be Charge", "opening_hours": "24/7", "operator": "Be Charge", "operator:wikidata": "Q113289535"}}, {"type": "node", "id": 12087604160, "lat": 45.6426258, "lon": 12.5963286, "tags": {"amenity": "charging_station", "brand": "Be Charge", "capacity": "2", "fee": "yes", "motorcar": "yes", "name": "Be Charge", "opening_hours": "24/7", "operator": "Be Charge", "operator:wikidata": "Q113289535"}}, {"type": "node", "id": 12087604161, "lat": 45.6422729, "lon": 12.5961767, "tags": {"amenity": "charging_station", "brand": "Be Charge", "capacity": "2", "fee": "yes", "motorcar": "yes", "name": "Be Charge", "opening_hours": "24/7", "operator": "Be Charge", "operator:wikidata": "Q113289535"}}, {"type": "node", "id": 12087622572, "lat": 45.6420717, "lon": 12.5970449, "tags": {"amenity": "charging_station", "brand": "Be Charge", "capacity": "2", "fee": "yes", "motorcar": "yes", "name": "Be Charge", "opening_hours": "24/7", "operator": "Be Charge", "operator:wikidata": "Q113289535"}}, {"type": "node", "id": 12087622573, "lat": 45.6423645, "lon": 12.5968473, "tags": {"amenity": "charging_station", "brand": "Be Charge", "capacity": "2", "fee": "yes", "motorcar": "yes", "name": "Be Charge", "opening_hours": "24/7", "operator": "Be Charge", "operator:wikidata": "Q113289535"}}, {"type": "node", "id": 12087622574, "lat": 45.6424766, "lon": 12.5964246, "tags": {"amenity": "charging_station", "brand": "Be Charge", "capacity": "2", "fee": "yes", "motorcar": "yes", "name": "Be Charge", "opening_hours": "24/7", "operator": "Be Charge", "operator:wikidata": "Q113289535"}}, {"type": "node", "id": 12087622583, "lat": 45.6419212, "lon": 12.5968605, "tags": {"amenity": "charging_station", "brand": "Be Charge", "capacity": "2", "fee": "yes", "motorcar": "yes", "name": "Be Charge", "opening_hours": "24/7", "operator": "Be Charge", "operator:wikidata": "Q113289535"}}, {"type": "node", "id": 12087622584, "lat": 45.6421866, "lon": 12.5971894, "tags": {"amenity": "charging_station", "brand": "Be Charge", "capacity": "2", "fee": "yes", "motorcar": "yes", "name": "Be Charge", "opening_hours": "24/7", "operator": "Be Charge", "operator:wikidata": "Q113289535"}}, {"type": "node", "id": 12087622591, "lat": 45.6421665, "lon": 12.5966052, "tags": {"amenity": "charging_station", "brand": "Be Charge", "capacity": "2", "fee": "yes", "motorcar": "yes", "name": "Be Charge", "opening_hours": "24/7", "operator": "Be Charge", "operator:wikidata": "Q113289535"}}, {"type": "node", "id": 12087622592, "lat": 45.6421346, "lon": 12.5968454, "tags": {"amenity": "charging_station", "brand": "Be Charge", "capacity": "2", "fee": "yes", "motorcar": "yes", "name": "Be Charge", "opening_hours": "24/7", "operator": "Be Charge", "operator:wikidata": "Q113289535"}}, {"type": "node", "id": 12087622593, "lat": 45.6422515, "lon": 12.5967053, "tags": {"amenity": "charging_station", "brand": "Be Charge", "capacity": "2", "fee": "yes", "motorcar": "yes", "name": "Be Charge", "opening_hours": "24/7", "operator": "Be Charge", "operator:wikidata": "Q113289535"}}, {"type": "node", "id": 12087622594, "lat": 45.6420511, "lon": 12.596742, "tags": {"amenity": "charging_station", "brand": "Be Charge", "capacity": "2", "fee": "yes", "motorcar": "yes", "name": "Be Charge", "opening_hours": "24/7", "operator": "Be Charge", "operator:wikidata": "Q113289535"}}, {"type": "node", "id": 12087622597, "lat": 45.6423486, "lon": 12.5968285, "tags": {"amenity": "charging_station", "brand": "Be Charge", "capacity": "2", "fee": "yes", "motorcar": "yes", "name": "Be Charge", "opening_hours": "24/7", "operator": "Be Charge", "operator:wikidata": "Q113289535"}}, {"type": "node", "id": 12087622605, "lat": 45.6426542, "lon": 12.596086, "tags": {"amenity": "charging_station", "brand": "Be Charge", "capacity": "2", "fee": "yes", "motorcar": "yes", "name": "Be Charge", "opening_hours": "24/7", "operator": "Be Charge", "operator:wikidata": "Q113289535"}}, {"type": "node", "id": 12087622608, "lat": 45.642558, "lon": 12.5962461, "tags": {"amenity": "charging_station", "brand": "Be Charge", "capacity": "2", "fee": "yes", "motorcar": "yes", "name": "Be Charge", "opening_hours": "24/7", "operator": "Be Charge", "operator:wikidata": "Q113289535"}}, {"type": "node", "id": 12087622609, "lat": 45.642267, "lon": 12.5967281, "tags": {"amenity": "charging_station", "brand": "Be Charge", "capacity": "2", "fee": "yes", "motorcar": "yes", "name": "Be Charge", "opening_hours": "24/7", "operator": "Be Charge", "operator:wikidata": "Q113289535"}}, {"type": "node", "id": 12087622610, "lat": 45.6424616, "lon": 12.5966871, "tags": {"amenity": "charging_station", "brand": "Be Charge", "capacity": "2", "fee": "yes", "motorcar": "yes", "name": "Be Charge", "opening_hours": "24/7", "operator": "Be Charge", "operator:wikidata": "Q113289535"}}, {"type": "node", "id": 12087622611, "lat": 45.6421788, "lon": 12.5963398, "tags": {"amenity": "charging_station", "brand": "Be Charge", "capacity": "2", "fee": "yes", "motorcar": "yes", "name": "Be Charge", "opening_hours": "24/7", "operator": "Be Charge", "operator:wikidata": "Q113289535"}}, {"type": "node", "id": 12087622613, "lat": 45.6421045, "lon": 12.5970881, "tags": {"amenity": "charging_station", "brand": "Be Charge", "capacity": "2", "fee": "yes", "motorcar": "yes", "name": "Be Charge", "opening_hours": "24/7", "operator": "Be Charge", "operator:wikidata": "Q113289535"}}, {"type": "node", "id": 12087622615, "lat": 45.6422415, "lon": 12.5961371, "tags": {"amenity": "charging_station", "brand": "Be Charge", "capacity": "2", "fee": "yes", "motorcar": "yes", "name": "Be Charge", "opening_hours": "24/7", "operator": "Be Charge", "operator:wikidata": "Q113289535"}}, {"type": "node", "id": 12087622616, "lat": 45.6426875, "lon": 12.5961255, "tags": {"amenity": "charging_station", "brand": "Be Charge", "capacity": "2", "fee": "yes", "motorcar": "yes", "name": "Be Charge", "opening_hours": "24/7", "operator": "Be Charge", "operator:wikidata": "Q113289535"}}, {"type": "node", "id": 12087622621, "lat": 45.6421166, "lon": 12.5965448, "tags": {"amenity": "charging_station", "brand": "Be Charge", "capacity": "2", "fee": "yes", "motorcar": "yes", "name": "Be Charge", "opening_hours": "24/7", "operator": "Be Charge", "operator:wikidata": "Q113289535"}}, {"type": "node", "id": 12087622636, "lat": 45.6419823, "lon": 12.5966586, "tags": {"amenity": "charging_station", "brand": "Be Charge", "capacity": "2", "fee": "yes", "motorcar": "yes", "name": "Be Charge", "opening_hours": "24/7", "operator": "Be Charge", "operator:wikidata": "Q113289535"}}, {"type": "node", "id": 12087622640, "lat": 45.6420881, "lon": 12.5970654, "tags": {"amenity": "charging_station", "brand": "Be Charge", "capacity": "2", "fee": "yes", "motorcar": "yes", "name": "Be Charge", "opening_hours": "24/7", "operator": "Be Charge", "operator:wikidata": "Q113289535"}}, {"type": "node", "id": 12087622644, "lat": 45.641955, "lon": 12.5969019, "tags": {"amenity": "charging_station", "brand": "Be Charge", "capacity": "2", "fee": "yes", "motorcar": "yes", "name": "Be Charge", "opening_hours": "24/7", "operator": "Be Charge", "operator:wikidata": "Q113289535"}}, {"type": "node", "id": 12087622648, "lat": 45.6420857, "lon": 12.5967844, "tags": {"amenity": "charging_station", "brand": "Be Charge", "capacity": "2", "fee": "yes", "motorcar": "yes", "name": "Be Charge", "opening_hours": "24/7", "operator": "Be Charge", "operator:wikidata": "Q113289535"}}, {"type": "node", "id": 12087622654, "lat": 45.6423161, "lon": 12.5967865, "tags": {"amenity": "charging_station", "brand": "Be Charge", "capacity": "2", "fee": "yes", "motorcar": "yes", "name": "Be Charge", "opening_hours": "24/7", "operator": "Be Charge", "operator:wikidata": "Q113289535"}}, {"type": "node", "id": 12087622661, "lat": 45.6422191, "lon": 12.5961107, "tags": {"amenity": "charging_station", "brand": "Be Charge", "capacity": "2", "fee": "yes", "motorcar": "yes", "name": "Be Charge", "opening_hours": "24/7", "operator": "Be Charge", "operator:wikidata": "Q113289535"}}, {"type": "node", "id": 12087622664, "lat": 45.642385, "lon": 12.5968718, "tags": {"amenity": "charging_station", "brand": "Be Charge", "capacity": "2", "fee": "yes", "motorcar": "yes", "name": "Be Charge", "opening_hours": "24/7", "operator": "Be Charge", "operator:wikidata": "Q113289535"}}, {"type": "node", "id": 12087622670, "lat": 45.639702, "lon": 12.5990314, "tags": {"amenity": "charging_station", "capacity": "2", "car": "yes", "fee": "yes", "opening_hours": "24/7", "operator": "Centro Piave"}}, {"type": "node", "id": 12087622673, "lat": 45.6421713, "lon": 12.5971696, "tags": {"amenity": "charging_station", "brand": "Be Charge", "capacity": "2", "fee": "yes", "motorcar": "yes", "name": "Be Charge", "opening_hours": "24/7", "operator": "Be Charge", "operator:wikidata": "Q113289535"}}, {"type": "node", "id": 12087622675, "lat": 45.6424392, "lon": 12.5961006, "tags": {"amenity": "charging_station", "brand": "Be Charge", "capacity": "2", "fee": "yes", "motorcar": "yes", "name": "Be Charge", "opening_hours": "24/7", "operator": "Be Charge", "operator:wikidata": "Q113289535"}}, {"type": "node", "id": 12087622676, "lat": 45.6423962, "lon": 12.5966085, "tags": {"amenity": "charging_station", "brand": "Be Charge", "capacity": "2", "fee": "yes", "motorcar": "yes", "name": "Be Charge", "opening_hours": "24/7", "operator": "Be Charge", "operator:wikidata": "Q113289535"}}, {"type": "node", "id": 12087622677, "lat": 45.6426755, "lon": 12.596391, "tags": {"amenity": "charging_station", "brand": "Be Charge", "capacity": "2", "fee": "yes", "motorcar": "yes", "name": "Be Charge", "opening_hours": "24/7", "operator": "Be Charge", "operator:wikidata": "Q113289535"}}, {"type": "node", "id": 12087622679, "lat": 45.64251, "lon": 12.5964654, "tags": {"amenity": "charging_station", "brand": "Be Charge", "capacity": "2", "fee": "yes", "motorcar": "yes", "name": "Be Charge", "opening_hours": "24/7", "operator": "Be Charge", "operator:wikidata": "Q113289535"}}, {"type": "node", "id": 12087622682, "lat": 45.6424585, "lon": 12.5964038, "tags": {"amenity": "charging_station", "brand": "Be Charge", "capacity": "2", "fee": "yes", "motorcar": "yes", "name": "Be Charge", "opening_hours": "24/7", "operator": "Be Charge", "operator:wikidata": "Q113289535"}}, {"type": "node", "id": 12087622691, "lat": 45.6423585, "lon": 12.5962802, "tags": {"amenity": "charging_station", "brand": "Be Charge", "capacity": "2", "fee": "yes", "motorcar": "yes", "name": "Be Charge", "opening_hours": "24/7", "operator": "Be Charge", "operator:wikidata": "Q113289535"}}, {"type": "node", "id": 12087622692, "lat": 45.6423556, "lon": 12.5959992, "tags": {"amenity": "charging_station", "brand": "Be Charge", "capacity": "2", "fee": "yes", "motorcar": "yes", "name": "Be Charge", "opening_hours": "24/7", "operator": "Be Charge", "operator:wikidata": "Q113289535"}}, {"type": "node", "id": 12087622693, "lat": 45.6423381, "lon": 12.5959772, "tags": {"amenity": "charging_station", "brand": "Be Charge", "capacity": "2", "fee": "yes", "motorcar": "yes", "name": "Be Charge", "opening_hours": "24/7", "operator": "Be Charge", "operator:wikidata": "Q113289535"}}, {"type": "node", "id": 12087622694, "lat": 45.6422829, "lon": 12.5967474, "tags": {"amenity": "charging_station", "brand": "Be Charge", "capacity": "2", "fee": "yes", "motorcar": "yes", "name": "Be Charge", "opening_hours": "24/7", "operator": "Be Charge", "operator:wikidata": "Q113289535"}}, {"type": "node", "id": 12087622696, "lat": 45.6423313, "lon": 12.596806, "tags": {"amenity": "charging_station", "brand": "Be Charge", "capacity": "2", "fee": "yes", "motorcar": "yes", "name": "Be Charge", "opening_hours": "24/7", "operator": "Be Charge", "operator:wikidata": "Q113289535"}}, {"type": "node", "id": 12087622699, "lat": 45.6422133, "lon": 12.5963806, "tags": {"amenity": "charging_station", "brand": "Be Charge", "capacity": "2", "fee": "yes", "motorcar": "yes", "name": "Be Charge", "opening_hours": "24/7", "operator": "Be Charge", "operator:wikidata": "Q113289535"}}, {"type": "node", "id": 12087622704, "lat": 45.6426195, "lon": 12.5960431, "tags": {"amenity": "charging_station", "brand": "Be Charge", "capacity": "2", "fee": "yes", "motorcar": "yes", "name": "Be Charge", "opening_hours": "24/7", "operator": "Be Charge", "operator:wikidata": "Q113289535"}}, {"type": "node", "id": 12087622705, "lat": 45.6422994, "lon": 12.596769, "tags": {"amenity": "charging_station", "brand": "Be Charge", "capacity": "2", "fee": "yes", "motorcar": "yes", "name": "Be Charge", "opening_hours": "24/7", "operator": "Be Charge", "operator:wikidata": "Q113289535"}}, {"type": "node", "id": 12087622708, "lat": 45.6425595, "lon": 12.5965276, "tags": {"amenity": "charging_station", "brand": "Be Charge", "capacity": "2", "fee": "yes", "motorcar": "yes", "name": "Be Charge", "opening_hours": "24/7", "operator": "Be Charge", "operator:wikidata": "Q113289535"}}, {"type": "node", "id": 12087622711, "lat": 45.6422345, "lon": 12.5969695, "tags": {"amenity": "charging_station", "brand": "Be Charge", "capacity": "2", "fee": "yes", "motorcar": "yes", "name": "Be Charge", "opening_hours": "24/7", "operator": "Be Charge", "operator:wikidata": "Q113289535"}}, {"type": "node", "id": 12087622716, "lat": 45.6421334, "lon": 12.5965648, "tags": {"amenity": "charging_station", "brand": "Be Charge", "capacity": "2", "fee": "yes", "motorcar": "yes", "name": "Be Charge", "opening_hours": "24/7", "operator": "Be Charge", "operator:wikidata": "Q113289535"}}, {"type": "node", "id": 12087622717, "lat": 45.6427019, "lon": 12.5961471, "tags": {"amenity": "charging_station", "brand": "Be Charge", "capacity": "2", "fee": "yes", "motorcar": "yes", "name": "Be Charge", "opening_hours": "24/7", "operator": "Be Charge", "operator:wikidata": "Q113289535"}}, {"type": "node", "id": 12087622725, "lat": 45.6420653, "lon": 12.5967619, "tags": {"amenity": "charging_station", "brand": "Be Charge", "capacity": "2", "fee": "yes", "motorcar": "yes", "name": "Be Charge", "opening_hours": "24/7", "operator": "Be Charge", "operator:wikidata": "Q113289535"}}, {"type": "node", "id": 12087622726, "lat": 45.6421218, "lon": 12.5971086, "tags": {"amenity": "charging_station", "brand": "Be Charge", "capacity": "2", "fee": "yes", "motorcar": "yes", "name": "Be Charge", "opening_hours": "24/7", "operator": "Be Charge", "operator:wikidata": "Q113289535"}}, {"type": "node", "id": 12087622728, "lat": 45.642257, "lon": 12.5961586, "tags": {"amenity": "charging_station", "brand": "Be Charge", "capacity": "2", "fee": "yes", "motorcar": "yes", "name": "Be Charge", "opening_hours": "24/7", "operator": "Be Charge", "operator:wikidata": "Q113289535"}}, {"type": "node", "id": 12087622734, "lat": 45.6423424, "lon": 12.5962607, "tags": {"amenity": "charging_station", "brand": "Be Charge", "capacity": "2", "fee": "yes", "motorcar": "yes", "name": "Be Charge", "opening_hours": "24/7", "operator": "Be Charge", "operator:wikidata": "Q113289535"}}, {"type": "node", "id": 12087622738, "lat": 45.6421677, "lon": 12.5968872, "tags": {"amenity": "charging_station", "brand": "Be Charge", "capacity": "2", "fee": "yes", "motorcar": "yes", "name": "Be Charge", "opening_hours": "24/7", "operator": "Be Charge", "operator:wikidata": "Q113289535"}}, {"type": "node", "id": 12087622739, "lat": 45.6425906, "lon": 12.5962862, "tags": {"amenity": "charging_station", "brand": "Be Charge", "capacity": "2", "fee": "yes", "motorcar": "yes", "name": "Be Charge", "opening_hours": "24/7", "operator": "Be Charge", "operator:wikidata": "Q113289535"}}, {"type": "node", "id": 12087622740, "lat": 45.6427777, "lon": 12.5962373, "tags": {"amenity": "charging_station", "brand": "Be Charge", "capacity": "2", "fee": "yes", "motorcar": "yes", "name": "Be Charge", "opening_hours": "24/7", "operator": "Be Charge", "operator:wikidata": "Q113289535"}}, {"type": "node", "id": 12087622743, "lat": 45.6420336, "lon": 12.596722, "tags": {"amenity": "charging_station", "brand": "Be Charge", "capacity": "2", "fee": "yes", "motorcar": "yes", "name": "Be Charge", "opening_hours": "24/7", "operator": "Be Charge", "operator:wikidata": "Q113289535"}}, {"type": "node", "id": 12087622744, "lat": 45.6421546, "lon": 12.5971497, "tags": {"amenity": "charging_station", "brand": "Be Charge", "capacity": "2", "fee": "yes", "motorcar": "yes", "name": "Be Charge", "opening_hours": "24/7", "operator": "Be Charge", "operator:wikidata": "Q113289535"}}, {"type": "node", "id": 12087622745, "lat": 45.64257, "lon": 12.5959804, "tags": {"amenity": "charging_station", "brand": "Be Charge", "capacity": "2", "fee": "yes", "motorcar": "yes", "name": "Be Charge", "opening_hours": "24/7", "operator": "Be Charge", "operator:wikidata": "Q113289535"}}, {"type": "node", "id": 12087622746, "lat": 45.6424677, "lon": 12.5958599, "tags": {"amenity": "charging_station", "brand": "Be Charge", "capacity": "2", "fee": "yes", "motorcar": "yes", "name": "Be Charge", "opening_hours": "24/7", "operator": "Be Charge", "operator:wikidata": "Q113289535"}}, {"type": "node", "id": 12087622753, "lat": 45.6425762, "lon": 12.5965493, "tags": {"amenity": "charging_station", "brand": "Be Charge", "capacity": "2", "fee": "yes", "motorcar": "yes", "name": "Be Charge", "opening_hours": "24/7", "operator": "Be Charge", "operator:wikidata": "Q113289535"}}, {"type": "node", "id": 12087622754, "lat": 45.642049, "lon": 12.5964592, "tags": {"amenity": "charging_station", "brand": "Be Charge", "capacity": "2", "fee": "yes", "motorcar": "yes", "name": "Be Charge", "opening_hours": "24/7", "operator": "Be Charge", "operator:wikidata": "Q113289535"}}, {"type": "node", "id": 12087622758, "lat": 45.6423469, "lon": 12.596546, "tags": {"amenity": "charging_station", "brand": "Be Charge", "capacity": "2", "fee": "yes", "motorcar": "yes", "name": "Be Charge", "opening_hours": "24/7", "operator": "Be Charge", "operator:wikidata": "Q113289535"}}, {"type": "node", "id": 12087622759, "lat": 45.642288, "lon": 12.5970345, "tags": {"amenity": "charging_station", "brand": "Be Charge", "capacity": "2", "fee": "yes", "motorcar": "yes", "name": "Be Charge", "opening_hours": "24/7", "operator": "Be Charge", "operator:wikidata": "Q113289535"}}, {"type": "node", "id": 12087622763, "lat": 45.6425524, "lon": 12.5959611, "tags": {"amenity": "charging_station", "brand": "Be Charge", "capacity": "2", "fee": "yes", "motorcar": "yes", "name": "Be Charge", "opening_hours": "24/7", "operator": "Be Charge", "operator:wikidata": "Q113289535"}}, {"type": "node", "id": 12087622764, "lat": 45.6421047, "lon": 12.5968091, "tags": {"amenity": "charging_station", "brand": "Be Charge", "capacity": "2", "fee": "yes", "motorcar": "yes", "name": "Be Charge", "opening_hours": "24/7", "operator": "Be Charge", "operator:wikidata": "Q113289535"}}, {"type": "node", "id": 12087622769, "lat": 45.6424345, "lon": 12.5958153, "tags": {"amenity": "charging_station", "brand": "Be Charge", "capacity": "2", "fee": "yes", "motorcar": "yes", "name": "Be Charge", "opening_hours": "24/7", "operator": "Be Charge", "operator:wikidata": "Q113289535"}}, {"type": "node", "id": 12087622771, "lat": 45.6424423, "lon": 12.5963829, "tags": {"amenity": "charging_station", "brand": "Be Charge", "capacity": "2", "fee": "yes", "motorcar": "yes", "name": "Be Charge", "opening_hours": "24/7", "operator": "Be Charge", "operator:wikidata": "Q113289535"}}, {"type": "node", "id": 12087622772, "lat": 45.6422186, "lon": 12.596948, "tags": {"amenity": "charging_station", "brand": "Be Charge", "capacity": "2", "fee": "yes", "motorcar": "yes", "name": "Be Charge", "opening_hours": "24/7", "operator": "Be Charge", "operator:wikidata": "Q113289535"}}, {"type": "node", "id": 12087622779, "lat": 45.6419511, "lon": 12.5966168, "tags": {"amenity": "charging_station", "brand": "Be Charge", "capacity": "2", "fee": "yes", "motorcar": "yes", "name": "Be Charge", "opening_hours": "24/7", "operator": "Be Charge", "operator:wikidata": "Q113289535"}}, {"type": "node", "id": 12087622785, "lat": 45.6425444, "lon": 12.5965083, "tags": {"amenity": "charging_station", "brand": "Be Charge", "capacity": "2", "fee": "yes", "motorcar": "yes", "name": "Be Charge", "opening_hours": "24/7", "operator": "Be Charge", "operator:wikidata": "Q113289535"}}, {"type": "node", "id": 12087622786, "lat": 45.6423258, "lon": 12.59624, "tags": {"amenity": "charging_station", "brand": "Be Charge", "capacity": "2", "fee": "yes", "motorcar": "yes", "name": "Be Charge", "opening_hours": "24/7", "operator": "Be Charge", "operator:wikidata": "Q113289535"}}, {"type": "node", "id": 12087622789, "lat": 45.6419277, "lon": 12.5965897, "tags": {"amenity": "charging_station", "brand": "Be Charge", "capacity": "2", "fee": "yes", "motorcar": "yes", "name": "Be Charge", "opening_hours": "24/7", "operator": "Be Charge", "operator:wikidata": "Q113289535"}}, {"type": "node", "id": 12087622791, "lat": 45.6424806, "lon": 12.5967105, "tags": {"amenity": "charging_station", "brand": "Be Charge", "capacity": "2", "fee": "yes", "motorcar": "yes", "name": "Be Charge", "opening_hours": "24/7", "operator": "Be Charge", "operator:wikidata": "Q113289535"}}, {"type": "node", "id": 12087622794, "lat": 45.6420183, "lon": 12.5967007, "tags": {"amenity": "charging_station", "brand": "Be Charge", "capacity": "2", "fee": "yes", "motorcar": "yes", "name": "Be Charge", "opening_hours": "24/7", "operator": "Be Charge", "operator:wikidata": "Q113289535"}}, {"type": "node", "id": 12087622795, "lat": 45.6423892, "lon": 12.5960402, "tags": {"amenity": "charging_station", "brand": "Be Charge", "capacity": "2", "fee": "yes", "motorcar": "yes", "name": "Be Charge", "opening_hours": "24/7", "operator": "Be Charge", "operator:wikidata": "Q113289535"}}, {"type": "node", "id": 12087622796, "lat": 45.6418694, "lon": 12.596798, "tags": {"amenity": "charging_station", "brand": "Be Charge", "capacity": "2", "fee": "yes", "motorcar": "yes", "name": "Be Charge", "opening_hours": "24/7", "operator": "Be Charge", "operator:wikidata": "Q113289535"}}, {"type": "node", "id": 12087622798, "lat": 45.642138, "lon": 12.597127, "tags": {"amenity": "charging_station", "brand": "Be Charge", "capacity": "2", "fee": "yes", "motorcar": "yes", "name": "Be Charge", "opening_hours": "24/7", "operator": "Be Charge", "operator:wikidata": "Q113289535"}}, {"type": "node", "id": 12087622805, "lat": 45.6421206, "lon": 12.5962692, "tags": {"amenity": "charging_station", "brand": "Be Charge", "capacity": "2", "fee": "yes", "motorcar": "yes", "name": "Be Charge", "opening_hours": "24/7", "operator": "Be Charge", "operator:wikidata": "Q113289535"}}, {"type": "node", "id": 12087622811, "lat": 45.6425422, "lon": 12.5962242, "tags": {"amenity": "charging_station", "brand": "Be Charge", "capacity": "2", "fee": "yes", "motorcar": "yes", "name": "Be Charge", "opening_hours": "24/7", "operator": "Be Charge", "operator:wikidata": "Q113289535"}}, {"type": "node", "id": 12087622820, "lat": 45.6427211, "lon": 12.5961681, "tags": {"amenity": "charging_station", "brand": "Be Charge", "capacity": "2", "fee": "yes", "motorcar": "yes", "name": "Be Charge", "opening_hours": "24/7", "operator": "Be Charge", "operator:wikidata": "Q113289535"}}, {"type": "node", "id": 12087622827, "lat": 45.6424717, "lon": 12.5961407, "tags": {"amenity": "charging_station", "brand": "Be Charge", "capacity": "2", "fee": "yes", "motorcar": "yes", "name": "Be Charge", "opening_hours": "24/7", "operator": "Be Charge", "operator:wikidata": "Q113289535"}}, {"type": "node", "id": 12087622837, "lat": 45.6421599, "lon": 12.596316, "tags": {"amenity": "charging_station", "brand": "Be Charge", "capacity": "2", "fee": "yes", "motorcar": "yes", "name": "Be Charge", "opening_hours": "24/7", "operator": "Be Charge", "operator:wikidata": "Q113289535"}}, {"type": "node", "id": 12087622839, "lat": 45.6424446, "lon": 12.5966658, "tags": {"amenity": "charging_station", "brand": "Be Charge", "capacity": "2", "fee": "yes", "motorcar": "yes", "name": "Be Charge", "opening_hours": "24/7", "operator": "Be Charge", "operator:wikidata": "Q113289535"}}, {"type": "node", "id": 12087622841, "lat": 45.6422794, "lon": 12.5964632, "tags": {"amenity": "charging_station", "brand": "Be Charge", "capacity": "2", "fee": "yes", "motorcar": "yes", "name": "Be Charge", "opening_hours": "24/7", "operator": "Be Charge", "operator:wikidata": "Q113289535"}}, {"type": "node", "id": 12087622846, "lat": 45.642269, "lon": 12.5970115, "tags": {"amenity": "charging_station", "brand": "Be Charge", "capacity": "2", "fee": "yes", "motorcar": "yes", "name": "Be Charge", "opening_hours": "24/7", "operator": "Be Charge", "operator:wikidata": "Q113289535"}}, {"type": "node", "id": 12087622849, "lat": 45.6425742, "lon": 12.5962644, "tags": {"amenity": "charging_station", "brand": "Be Charge", "capacity": "2", "fee": "yes", "motorcar": "yes", "name": "Be Charge", "opening_hours": "24/7", "operator": "Be Charge", "operator:wikidata": "Q113289535"}}, {"type": "node", "id": 12087622850, "lat": 45.6423759, "lon": 12.5962998, "tags": {"amenity": "charging_station", "brand": "Be Charge", "capacity": "2", "fee": "yes", "motorcar": "yes", "name": "Be Charge", "opening_hours": "24/7", "operator": "Be Charge", "operator:wikidata": "Q113289535"}}, {"type": "node", "id": 12087622852, "lat": 45.6424221, "lon": 12.5960804, "tags": {"amenity": "charging_station", "brand": "Be Charge", "capacity": "2", "fee": "yes", "motorcar": "yes", "name": "Be Charge", "opening_hours": "24/7", "operator": "Be Charge", "operator:wikidata": "Q113289535"}}, {"type": "node", "id": 12087622854, "lat": 45.6418869, "lon": 12.5968214, "tags": {"amenity": "charging_station", "brand": "Be Charge", "capacity": "2", "fee": "yes", "motorcar": "yes", "name": "Be Charge", "opening_hours": "24/7", "operator": "Be Charge", "operator:wikidata": "Q113289535"}}, {"type": "node", "id": 12087622855, "lat": 45.6426001, "lon": 12.5957396, "tags": {"amenity": "charging_station", "brand": "Be Charge", "capacity": "2", "fee": "yes", "motorcar": "yes", "name": "Be Charge", "opening_hours": "24/7", "operator": "Be Charge", "operator:wikidata": "Q113289535"}}, {"type": "node", "id": 12087622859, "lat": 45.6426587, "lon": 12.5963703, "tags": {"amenity": "charging_station", "brand": "Be Charge", "capacity": "2", "fee": "yes", "motorcar": "yes", "name": "Be Charge", "opening_hours": "24/7", "operator": "Be Charge", "operator:wikidata": "Q113289535"}}, {"type": "node", "id": 12087622866, "lat": 45.6426706, "lon": 12.5961054, "tags": {"amenity": "charging_station", "brand": "Be Charge", "capacity": "2", "fee": "yes", "motorcar": "yes", "name": "Be Charge", "opening_hours": "24/7", "operator": "Be Charge", "operator:wikidata": "Q113289535"}}, {"type": "node", "id": 12087622867, "lat": 45.6420659, "lon": 12.5964767, "tags": {"amenity": "charging_station", "brand": "Be Charge", "capacity": "2", "fee": "yes", "motorcar": "yes", "name": "Be Charge", "opening_hours": "24/7", "operator": "Be Charge", "operator:wikidata": "Q113289535"}}, {"type": "node", "id": 12087622869, "lat": 45.6421834, "lon": 12.5969049, "tags": {"amenity": "charging_station", "brand": "Be Charge", "capacity": "2", "fee": "yes", "motorcar": "yes", "name": "Be Charge", "opening_hours": "24/7", "operator": "Be Charge", "operator:wikidata": "Q113289535"}}, {"type": "node", "id": 12087622870, "lat": 45.6397377, "lon": 12.5990715, "tags": {"amenity": "charging_station", "capacity": "2", "car": "yes", "fee": "yes", "opening_hours": "24/7", "operator": "Centro Piave"}}, {"type": "node", "id": 12087622874, "lat": 45.6424881, "lon": 12.5961625, "tags": {"amenity": "charging_station", "brand": "Be Charge", "capacity": "2", "fee": "yes", "motorcar": "yes", "name": "Be Charge", "opening_hours": "24/7", "operator": "Be Charge", "operator:wikidata": "Q113289535"}}, {"type": "node", "id": 12087622875, "lat": 45.6428464, "lon": 12.5960479, "tags": {"amenity": "charging_station", "brand": "Be Charge", "capacity": "2", "fee": "yes", "motorcar": "yes", "name": "Be Charge", "opening_hours": "24/7", "operator": "Be Charge", "operator:wikidata": "Q113289535"}}, {"type": "node", "id": 12087622880, "lat": 45.642199, "lon": 12.5966418, "tags": {"amenity": "charging_station", "brand": "Be Charge", "capacity": "2", "fee": "yes", "motorcar": "yes", "name": "Be Charge", "opening_hours": "24/7", "operator": "Be Charge", "operator:wikidata": "Q113289535"}}, {"type": "node", "id": 12087622888, "lat": 45.6421825, "lon": 12.5966243, "tags": {"amenity": "charging_station", "brand": "Be Charge", "capacity": "2", "fee": "yes", "motorcar": "yes", "name": "Be Charge", "opening_hours": "24/7", "operator": "Be Charge", "operator:wikidata": "Q113289535"}}, {"type": "node", "id": 12087622891, "lat": 45.6427378, "lon": 12.59619, "tags": {"amenity": "charging_station", "brand": "Be Charge", "capacity": "2", "fee": "yes", "motorcar": "yes", "name": "Be Charge", "opening_hours": "24/7", "operator": "Be Charge", "operator:wikidata": "Q113289535"}}, {"type": "node", "id": 12087622892, "lat": 45.6420386, "lon": 12.5970051, "tags": {"amenity": "charging_station", "brand": "Be Charge", "capacity": "2", "fee": "yes", "motorcar": "yes", "name": "Be Charge", "opening_hours": "24/7", "operator": "Be Charge", "operator:wikidata": "Q113289535"}}, {"type": "node", "id": 12087622899, "lat": 45.6422896, "lon": 12.596199, "tags": {"amenity": "charging_station", "brand": "Be Charge", "capacity": "2", "fee": "yes", "motorcar": "yes", "name": "Be Charge", "opening_hours": "24/7", "operator": "Be Charge", "operator:wikidata": "Q113289535"}}, {"type": "node", "id": 12087622901, "lat": 45.6426342, "lon": 12.5957834, "tags": {"amenity": "charging_station", "brand": "Be Charge", "capacity": "2", "fee": "yes", "motorcar": "yes", "name": "Be Charge", "opening_hours": "24/7", "operator": "Be Charge", "operator:wikidata": "Q113289535"}}, {"type": "node", "id": 12087622923, "lat": 45.6422515, "lon": 12.5969892, "tags": {"amenity": "charging_station", "brand": "Be Charge", "capacity": "2", "fee": "yes", "motorcar": "yes", "name": "Be Charge", "opening_hours": "24/7", "operator": "Be Charge", "operator:wikidata": "Q113289535"}}, {"type": "node", "id": 12087622926, "lat": 45.6427557, "lon": 12.596209, "tags": {"amenity": "charging_station", "brand": "Be Charge", "capacity": "2", "fee": "yes", "motorcar": "yes", "name": "Be Charge", "opening_hours": "24/7", "operator": "Be Charge", "operator:wikidata": "Q113289535"}}, {"type": "node", "id": 12087622927, "lat": 45.642452, "lon": 12.5958381, "tags": {"amenity": "charging_station", "brand": "Be Charge", "capacity": "2", "fee": "yes", "motorcar": "yes", "name": "Be Charge", "opening_hours": "24/7", "operator": "Be Charge", "operator:wikidata": "Q113289535"}}, {"type": "node", "id": 12087622937, "lat": 45.6419733, "lon": 12.5969223, "tags": {"amenity": "charging_station", "brand": "Be Charge", "capacity": "2", "fee": "yes", "motorcar": "yes", "name": "Be Charge", "opening_hours": "24/7", "operator": "Be Charge", "operator:wikidata": "Q113289535"}}, {"type": "node", "id": 12087622938, "lat": 45.642528, "lon": 12.5964865, "tags": {"amenity": "charging_station", "brand": "Be Charge", "capacity": "2", "fee": "yes", "motorcar": "yes", "name": "Be Charge", "opening_hours": "24/7", "operator": "Be Charge", "operator:wikidata": "Q113289535"}}, {"type": "node", "id": 12087622940, "lat": 45.642247, "lon": 12.5964243, "tags": {"amenity": "charging_station", "brand": "Be Charge", "capacity": "2", "fee": "yes", "motorcar": "yes", "name": "Be Charge", "opening_hours": "24/7", "operator": "Be Charge", "operator:wikidata": "Q113289535"}}, {"type": "node", "id": 12087622942, "lat": 45.6425864, "lon": 12.5960031, "tags": {"amenity": "charging_station", "brand": "Be Charge", "capacity": "2", "fee": "yes", "motorcar": "yes", "name": "Be Charge", "opening_hours": "24/7", "operator": "Be Charge", "operator:wikidata": "Q113289535"}}, {"type": "node", "id": 12087622943, "lat": 45.6423813, "lon": 12.5965864, "tags": {"amenity": "charging_station", "brand": "Be Charge", "capacity": "2", "fee": "yes", "motorcar": "yes", "name": "Be Charge", "opening_hours": "24/7", "operator": "Be Charge", "operator:wikidata": "Q113289535"}}, {"type": "node", "id": 12087622945, "lat": 45.6421493, "lon": 12.5968656, "tags": {"amenity": "charging_station", "brand": "Be Charge", "capacity": "2", "fee": "yes", "motorcar": "yes", "name": "Be Charge", "opening_hours": "24/7", "operator": "Be Charge", "operator:wikidata": "Q113289535"}}, {"type": "node", "id": 12087622951, "lat": 45.642006, "lon": 12.5969638, "tags": {"amenity": "charging_station", "brand": "Be Charge", "capacity": "2", "fee": "yes", "motorcar": "yes", "name": "Be Charge", "opening_hours": "24/7", "operator": "Be Charge", "operator:wikidata": "Q113289535"}}, {"type": "node", "id": 12087622955, "lat": 45.6421501, "lon": 12.5965846, "tags": {"amenity": "charging_station", "brand": "Be Charge", "capacity": "2", "fee": "yes", "motorcar": "yes", "name": "Be Charge", "opening_hours": "24/7", "operator": "Be Charge", "operator:wikidata": "Q113289535"}}, {"type": "node", "id": 12087622967, "lat": 45.6419032, "lon": 12.5968393, "tags": {"amenity": "charging_station", "brand": "Be Charge", "capacity": "2", "fee": "yes", "motorcar": "yes", "name": "Be Charge", "opening_hours": "24/7", "operator": "Be Charge", "operator:wikidata": "Q113289535"}}, {"type": "node", "id": 12087622969, "lat": 45.6424557, "lon": 12.5961217, "tags": {"amenity": "charging_station", "brand": "Be Charge", "capacity": "2", "fee": "yes", "motorcar": "yes", "name": "Be Charge", "opening_hours": "24/7", "operator": "Be Charge", "operator:wikidata": "Q113289535"}}, {"type": "node", "id": 12087622987, "lat": 45.6425209, "lon": 12.5959236, "tags": {"amenity": "charging_station", "brand": "Be Charge", "capacity": "2", "fee": "yes", "motorcar": "yes", "name": "Be Charge", "opening_hours": "24/7", "operator": "Be Charge", "operator:wikidata": "Q113289535"}}, {"type": "node", "id": 12087622988, "lat": 45.6424269, "lon": 12.5963619, "tags": {"amenity": "charging_station", "brand": "Be Charge", "capacity": "2", "fee": "yes", "motorcar": "yes", "name": "Be Charge", "opening_hours": "24/7", "operator": "Be Charge", "operator:wikidata": "Q113289535"}}, {"type": "node", "id": 12087622994, "lat": 45.6425628, "lon": 12.5956958, "tags": {"amenity": "charging_station", "brand": "Be Charge", "capacity": "2", "fee": "yes", "motorcar": "yes", "name": "Be Charge", "opening_hours": "24/7", "operator": "Be Charge", "operator:wikidata": "Q113289535"}}, {"type": "node", "id": 12087622996, "lat": 45.6426089, "lon": 12.596307, "tags": {"amenity": "charging_station", "brand": "Be Charge", "capacity": "2", "fee": "yes", "motorcar": "yes", "name": "Be Charge", "opening_hours": "24/7", "operator": "Be Charge", "operator:wikidata": "Q113289535"}}, {"type": "node", "id": 12087622997, "lat": 45.6420974, "lon": 12.5965204, "tags": {"amenity": "charging_station", "brand": "Be Charge", "capacity": "2", "fee": "yes", "motorcar": "yes", "name": "Be Charge", "opening_hours": "24/7", "operator": "Be Charge", "operator:wikidata": "Q113289535"}}, {"type": "node", "id": 12087623008, "lat": 45.6422278, "lon": 12.5964016, "tags": {"amenity": "charging_station", "brand": "Be Charge", "capacity": "2", "fee": "yes", "motorcar": "yes", "name": "Be Charge", "opening_hours": "24/7", "operator": "Be Charge", "operator:wikidata": "Q113289535"}}, {"type": "node", "id": 12087623014, "lat": 45.6420257, "lon": 12.59643, "tags": {"amenity": "charging_station", "brand": "Be Charge", "capacity": "2", "fee": "yes", "motorcar": "yes", "name": "Be Charge", "opening_hours": "24/7", "operator": "Be Charge", "operator:wikidata": "Q113289535"}}, {"type": "node", "id": 12087623015, "lat": 45.6420815, "lon": 12.5964992, "tags": {"amenity": "charging_station", "brand": "Be Charge", "capacity": "2", "fee": "yes", "motorcar": "yes", "name": "Be Charge", "opening_hours": "24/7", "operator": "Be Charge", "operator:wikidata": "Q113289535"}}, {"type": "node", "id": 12087623018, "lat": 45.6423067, "lon": 12.5962189, "tags": {"amenity": "charging_station", "brand": "Be Charge", "capacity": "2", "fee": "yes", "motorcar": "yes", "name": "Be Charge", "opening_hours": "24/7", "operator": "Be Charge", "operator:wikidata": "Q113289535"}}, {"type": "node", "id": 12087623020, "lat": 45.6423652, "lon": 12.5965652, "tags": {"amenity": "charging_station", "brand": "Be Charge", "capacity": "2", "fee": "yes", "motorcar": "yes", "name": "Be Charge", "opening_hours": "24/7", "operator": "Be Charge", "operator:wikidata": "Q113289535"}}, {"type": "node", "id": 12087623022, "lat": 45.642371, "lon": 12.5960181, "tags": {"amenity": "charging_station", "brand": "Be Charge", "capacity": "2", "fee": "yes", "motorcar": "yes", "name": "Be Charge", "opening_hours": "24/7", "operator": "Be Charge", "operator:wikidata": "Q113289535"}}, {"type": "node", "id": 12087623026, "lat": 45.6426419, "lon": 12.5963481, "tags": {"amenity": "charging_station", "brand": "Be Charge", "capacity": "2", "fee": "yes", "motorcar": "yes", "name": "Be Charge", "opening_hours": "24/7", "operator": "Be Charge", "operator:wikidata": "Q113289535"}}, {"type": "node", "id": 12087623028, "lat": 45.64199, "lon": 12.5969441, "tags": {"amenity": "charging_station", "brand": "Be Charge", "capacity": "2", "fee": "yes", "motorcar": "yes", "name": "Be Charge", "opening_hours": "24/7", "operator": "Be Charge", "operator:wikidata": "Q113289535"}}, {"type": "node", "id": 12087623032, "lat": 45.6423199, "lon": 12.5959528, "tags": {"amenity": "charging_station", "brand": "Be Charge", "capacity": "2", "fee": "yes", "motorcar": "yes", "name": "Be Charge", "opening_hours": "24/7", "operator": "Be Charge", "operator:wikidata": "Q113289535"}}, {"type": "node", "id": 12087623033, "lat": 45.6425257, "lon": 12.596204, "tags": {"amenity": "charging_station", "brand": "Be Charge", "capacity": "2", "fee": "yes", "motorcar": "yes", "name": "Be Charge", "opening_hours": "24/7", "operator": "Be Charge", "operator:wikidata": "Q113289535"}}, {"type": "node", "id": 12087623046, "lat": 45.6423311, "lon": 12.5965273, "tags": {"amenity": "charging_station", "brand": "Be Charge", "capacity": "2", "fee": "yes", "motorcar": "yes", "name": "Be Charge", "opening_hours": "24/7", "operator": "Be Charge", "operator:wikidata": "Q113289535"}}, {"type": "node", "id": 12087623053, "lat": 45.6423924, "lon": 12.5963219, "tags": {"amenity": "charging_station", "brand": "Be Charge", "capacity": "2", "fee": "yes", "motorcar": "yes", "name": "Be Charge", "opening_hours": "24/7", "operator": "Be Charge", "operator:wikidata": "Q113289535"}}, {"type": "node", "id": 12087623055, "lat": 45.6422937, "lon": 12.5964829, "tags": {"amenity": "charging_station", "brand": "Be Charge", "capacity": "2", "fee": "yes", "motorcar": "yes", "name": "Be Charge", "opening_hours": "24/7", "operator": "Be Charge", "operator:wikidata": "Q113289535"}}, {"type": "node", "id": 12087623056, "lat": 45.6426383, "lon": 12.5960659, "tags": {"amenity": "charging_station", "brand": "Be Charge", "capacity": "2", "fee": "yes", "motorcar": "yes", "name": "Be Charge", "opening_hours": "24/7", "operator": "Be Charge", "operator:wikidata": "Q113289535"}}, {"type": "node", "id": 12087623060, "lat": 45.6421974, "lon": 12.5963626, "tags": {"amenity": "charging_station", "brand": "Be Charge", "capacity": "2", "fee": "yes", "motorcar": "yes", "name": "Be Charge", "opening_hours": "24/7", "operator": "Be Charge", "operator:wikidata": "Q113289535"}}, {"type": "node", "id": 12087623067, "lat": 45.6420563, "lon": 12.5970266, "tags": {"amenity": "charging_station", "brand": "Be Charge", "capacity": "2", "fee": "yes", "motorcar": "yes", "name": "Be Charge", "opening_hours": "24/7", "operator": "Be Charge", "operator:wikidata": "Q113289535"}}, {"type": "node", "id": 12087623070, "lat": 45.6421996, "lon": 12.5969251, "tags": {"amenity": "charging_station", "brand": "Be Charge", "capacity": "2", "fee": "yes", "motorcar": "yes", "name": "Be Charge", "opening_hours": "24/7", "operator": "Be Charge", "operator:wikidata": "Q113289535"}}, {"type": "node", "id": 12087623079, "lat": 45.6424136, "lon": 12.596627, "tags": {"amenity": "charging_station", "brand": "Be Charge", "capacity": "2", "fee": "yes", "motorcar": "yes", "name": "Be Charge", "opening_hours": "24/7", "operator": "Be Charge", "operator:wikidata": "Q113289535"}}, {"type": "node", "id": 12087623083, "lat": 45.6422308, "lon": 12.5966857, "tags": {"amenity": "charging_station", "brand": "Be Charge", "capacity": "2", "fee": "yes", "motorcar": "yes", "name": "Be Charge", "opening_hours": "24/7", "operator": "Be Charge", "operator:wikidata": "Q113289535"}}, {"type": "node", "id": 12087623084, "lat": 45.6425281, "lon": 12.5956527, "tags": {"amenity": "charging_station", "brand": "Be Charge", "capacity": "2", "fee": "yes", "motorcar": "yes", "name": "Be Charge", "opening_hours": "24/7", "operator": "Be Charge", "operator:wikidata": "Q113289535"}}, {"type": "node", "id": 12087623087, "lat": 45.6424304, "lon": 12.596646, "tags": {"amenity": "charging_station", "brand": "Be Charge", "capacity": "2", "fee": "yes", "motorcar": "yes", "name": "Be Charge", "opening_hours": "24/7", "operator": "Be Charge", "operator:wikidata": "Q113289535"}}, {"type": "node", "id": 12087623089, "lat": 45.6424928, "lon": 12.5964464, "tags": {"amenity": "charging_station", "brand": "Be Charge", "capacity": "2", "fee": "yes", "motorcar": "yes", "name": "Be Charge", "opening_hours": "24/7", "operator": "Be Charge", "operator:wikidata": "Q113289535"}}, {"type": "node", "id": 12087623090, "lat": 45.6418545, "lon": 12.5967796, "tags": {"amenity": "charging_station", "brand": "Be Charge", "capacity": "1", "fee": "yes", "motorcar": "yes", "name": "Be Charge", "opening_hours": "24/7", "operator": "Be Charge", "operator:wikidata": "Q113289535"}}, {"type": "node", "id": 12087947704, "lat": 45.6243274, "lon": 12.5842474, "tags": {"amenity": "charging_station", "fee": "yes", "motorcar": "yes", "name": "Be Charge", "opening_hours": "24/7", "operator": "Be Charge", "operator:wikidata": "Q113289535"}}, {"type": "node", "id": 12087947811, "lat": 45.624308, "lon": 12.5842985, "tags": {"amenity": "charging_station", "fee": "yes", "motorcar": "yes", "name": "Be Charge", "opening_hours": "24/7", "operator": "Be Charge", "operator:wikidata": "Q113289535"}}, {"type": "node", "id": 12110407193, "lat": 45.5349708, "lon": 12.722548, "tags": {"access": "customers", "amenity": "charging_station", "amperage": "16", "authentication:none": "yes", "brand": "Repower", "capacity": "2", "fee": "no", "motorcar": "yes", "operator": "Repower", "operator:wikidata": "Q674712", "operator:wikipedia": "it:Repower", "voltage": "230", "website": "https://www.repower.com/it/la-mobilita-elettrica/"}}, {"type": "node", "id": 12137684749, "lat": 45.6456968, "lon": 12.5941144, "tags": {"amenity": "charging_station", "brand": "Enel X", "capacity": "2", "fee": "yes", "motorcar": "yes", "name": "Enel X", "opening_hours": "24/7", "operator": "Enel X", "operator:wikidata": "Q5376815"}}, {"type": "node", "id": 12161550308, "lat": 45.5658741, "lon": 12.7951036, "tags": {"access": "customers", "amenity": "charging_station"}}, {"type": "node", "id": 12217025813, "lat": 45.6379146, "lon": 12.5419212, "tags": {"amenity": "charging_station", "capacity": "2", "fee": "yes", "motorcar": "yes", "name": "Be Charge", "opening_hours": "24/7", "operator": "Be Charge", "operator:wikidata": "Q113289535"}}, {"type": "node", "id": 12218845993, "lat": 45.6380002, "lon": 12.5655286, "tags": {"amenity": "charging_station", "capacity": "2", "fee": "yes", "motorcar": "yes", "name": "Be Charge", "opening_hours": "24/7", "operator": "Be Charge", "operator:wikidata": "Q113289535"}}, {"type": "node", "id": 12218846115, "lat": 45.6380095, "lon": 12.5654689, "tags": {"amenity": "charging_station", "capacity": "2", "fee": "yes", "motorcar": "yes", "name": "Be Charge", "opening_hours": "24/7", "operator": "Be Charge", "operator:wikidata": "Q113289535"}}, {"type": "node", "id": 12227802886, "lat": 45.6421741, "lon": 12.5668437, "tags": {"access": "private", "amenity": "charging_station", "brand": "Enel", "brand:wikidata": "Q651222", "bus": "designated", "name": "Enel", "operator": "Enel", "operator:wikidata": "Q651222"}}, {"type": "node", "id": 12227802887, "lat": 45.6415979, "lon": 12.566565, "tags": {"access": "private", "amenity": "charging_station", "brand": "Enel", "brand:wikidata": "Q651222", "bus": "designated", "name": "Enel", "operator": "Enel", "operator:wikidata": "Q651222"}}, {"type": "node", "id": 12227802888, "lat": 45.6418808, "lon": 12.5666963, "tags": {"access": "private", "amenity": "charging_station", "brand": "Enel", "brand:wikidata": "Q651222", "bus": "designated", "name": "Enel", "operator": "Enel", "operator:wikidata": "Q651222"}}, {"type": "node", "id": 12227802889, "lat": 45.6420293, "lon": 12.5667736, "tags": {"access": "private", "amenity": "charging_station", "brand": "Enel", "brand:wikidata": "Q651222", "bus": "designated", "name": "Enel", "operator": "Enel", "operator:wikidata": "Q651222"}}, {"type": "node", "id": 12227802890, "lat": 45.6417293, "lon": 12.5666319, "tags": {"access": "private", "amenity": "charging_station", "brand": "Enel", "brand:wikidata": "Q651222", "bus": "designated", "name": "Enel", "operator": "Enel", "operator:wikidata": "Q651222"}}, {"type": "node", "id": 12243655561, "lat": 45.621898, "lon": 12.5459105, "tags": {"amenity": "charging_station", "capacity": "2", "fee": "yes", "motorcar": "yes", "name": "Enel X Way", "opening_hours": "24/7", "operator": "Enel X Way"}}, {"type": "node", "id": 12299429377, "lat": 45.6346957, "lon": 12.4396745, "tags": {"amenity": "charging_station", "capacity": "2"}}, {"type": "node", "id": 12299545188, "lat": 45.6533217, "lon": 12.2991, "tags": {"amenity": "charging_station", "capacity": "2", "operator": "Be Charge", "operator:wikidata": "Q113289535"}}]}