{"version": 0.6, "generator": "Overpass API 0.7.62.1 084b4234", "osm3s": {"timestamp_osm_base": "2024-11-06T19:39:26Z", "copyright": "The data included in this document is from www.openstreetmap.org. The data is made available under ODbL."}, "elements": [{"type": "node", "id": 6175252042, "lat": 40.6431045, "lon": 15.7880798, "tags": {"amenity": "charging_station"}}, {"type": "node", "id": 6175256128, "lat": 40.6424791, "lon": 15.8017322, "tags": {"amenity": "charging_station", "name": "Enel X"}}, {"type": "node", "id": 9820535888, "lat": 40.5639379, "lon": 15.7721164, "tags": {"amenity": "charging_station", "bicycle": "yes", "network": "DINAclub", "operator": "Repower", "operator:wikidata": "Q674712", "operator:wikipedia": "it:Repower", "website": "https://www.dinaclub.cloud"}}, {"type": "node", "id": 9901004275, "lat": 40.6361462, "lon": 15.8008557, "tags": {"amenity": "charging_station", "brand": "Enel X", "brand:wikidata": "Q5376815", "capacity": "1", "covered": "no", "operator": "Enel X", "operator:wikidata": "Q5376815"}}, {"type": "node", "id": 9904368519, "lat": 40.6417891, "lon": 15.8089122, "tags": {"amenity": "charging_station", "brand": "Enel X", "brand:wikidata": "Q5376815", "covered": "no", "operator": "Enel X", "operator:wikidata": "Q5376815"}}, {"type": "node", "id": 9954798811, "lat": 40.6319334, "lon": 15.8136445, "tags": {"access": "yes", "amenity": "charging_station", "brand": "Enel X", "brand:wikidata": "Q5376815", "capacity": "4", "fee": "yes", "name": "Enel X - IONITY Potenza", "opening_hours": "24/7", "operator": "Ionity", "operator:wikidata": "Q5376815", "payment:app": "yes", "payment:contactless": "yes", "socket:type2_combo": "1", "socket:type2_combo:output": "350 kW"}}, {"type": "node", "id": 9954798812, "lat": 40.6318495, "lon": 15.8134962, "tags": {"access": "yes", "amenity": "charging_station", "brand": "Enel X", "brand:wikidata": "Q5376815", "capacity": "4", "fee": "yes", "name": "Enel X - IONITY Potenza", "opening_hours": "24/7", "operator": "Ionity", "operator:wikidata": "Q5376815", "payment:app": "yes", "payment:contactless": "yes", "socket:type2_combo": "1", "socket:type2_combo:output": "350 kW"}}, {"type": "node", "id": 9954798813, "lat": 40.6318292, "lon": 15.8135244, "tags": {"access": "yes", "amenity": "charging_station", "brand": "Enel X", "brand:wikidata": "Q5376815", "capacity": "4", "fee": "yes", "name": "Enel X - IONITY Potenza", "opening_hours": "24/7", "operator": "Ionity", "operator:wikidata": "Q5376815", "payment:app": "yes", "payment:contactless": "yes", "socket:type2_combo": "1", "socket:type2_combo:output": "350 kW"}}, {"type": "node", "id": 9956668352, "lat": 40.6284774, "lon": 15.8072384, "tags": {"amenity": "charging_station", "name": "Enel X"}}, {"type": "node", "id": 9961251089, "lat": 40.9018789, "lon": 15.4300404, "tags": {"amenity": "charging_station", "brand": "Enel X", "brand:wikidata": "Q5376815", "name": "Enel X", "operator": "Enel X", "operator:wikidata": "Q5376815"}}, {"type": "node", "id": 10245109862, "lat": 40.6510893, "lon": 15.8018457, "tags": {"amenity": "charging_station", "brand": "Enel", "brand:wikidata": "Q651222", "capacity": "2", "fee": "yes", "name": "Enel X", "operator": "Enel", "operator:wikidata": "Q651222"}}, {"type": "node", "id": 11141043903, "lat": 40.5743618, "lon": 15.7851261, "tags": {"access": "yes", "amenity": "charging_station", "bicycle": "yes", "network": "DINAclub", "operator": "Repower", "operator:wikidata": "Q674712", "website": "https://www.repower.com/it/dina/"}}, {"type": "node", "id": 11494580532, "lat": 40.5831088, "lon": 15.4156627, "tags": {"amenity": "charging_station", "brand": "Enel X", "brand:wikidata": "Q5376815", "fee": "yes", "motorcar": "yes", "name": "Enel X", "opening_hours": "24/7", "operator": "Enel X", "operator:wikidata": "Q5376815"}}, {"type": "node", "id": 11828370970, "lat": 40.9100721, "lon": 15.6657113, "tags": {"access": "permit", "amenity": "charging_station", "capacity": "2", "charge": "0,35 EUR", "covered": "yes", "description": "Socket Type2 7,4 kW", "fee": "yes", "nohousenumber": "yes", "payment:cash": "yes", "website": "https://www.grupposimm.it"}}, {"type": "node", "id": 12296961566, "lat": 40.9745176, "lon": 15.8306978, "tags": {"access": "yes", "amenity": "charging_station", "bicycle": "yes", "fixme": "verificare la posizione", "name": "DINAclub - Stazione di Ricarica e-Bike", "network": "DINAclub", "operator": "Repower", "operator:wikidata": "Q674712", "website": "https://www.repower.com/it/dina/"}}]}