{"version": 0.6, "generator": "Overpass API 0.7.62.1 084b4234", "osm3s": {"timestamp_osm_base": "2024-11-06T19:37:16Z", "copyright": "The data included in this document is from www.openstreetmap.org. The data is made available under ODbL."}, "elements": [{"type": "node", "id": 4243973705, "lat": 46.9954442, "lon": 11.5020694, "tags": {"access": "yes", "addr:city": "Brennero", "addr:postcode": "39041", "addr:street": "snc A22 Al Passo del Brennero", "addr:street:de": "Brennerautobahn", "amenity": "charging_station", "bicycle": "no", "brand": "Tesla, Inc.", "brand:wikidata": "Q478214", "capacity": "24", "fee": "yes", "motorcar": "yes", "name": "Brenner - Brennero Supercharger", "name:de": "Brenner Supercharger", "name:it": "Brennero Supercharger", "opening_hours": "24/7", "operator": "Tesla, Inc.", "operator:wikidata": "Q478214", "parking:fee": "no", "payment:app": "yes", "payment:cards": "no", "payment:cash": "no", "payment:membership_card": "no", "payment:qr_code": "no", "short_name": "Tesla", "socket:tesla_supercharger": "16", "socket:tesla_supercharger:output": "150 kW", "socket:tesla_supercharger_ccs": "8", "socket:tesla_supercharger_ccs:output": "250 kW", "website": "https://www.tesla.com/de_AT/findus/location/supercharger/brennerosupercharger"}}, {"type": "node", "id": 4482580489, "lat": 46.7192271, "lon": 11.6562139, "tags": {"access": "yes", "amenity": "charging_station", "capacity": "2", "fee": "yes", "motorcar": "yes", "opening_hours": "24/7", "operator": "Alperia", "operator:wikidata": "Q25387077", "operator:wikipedia": "it:Alperia", "parking:fee": "no", "socket:type2:output": "50kW", "socket:type2_combo": "2"}}, {"type": "node", "id": 5046392428, "lat": 46.8532642, "lon": 11.5218912, "tags": {"amenity": "charging_station", "amperage": "11kW+4kW", "operator": "Alperia", "operator:wikidata": "Q25387077", "operator:wikipedia": "it:Alperia", "socket:type2": "1"}}, {"type": "node", "id": 5046425221, "lat": 46.8298649, "lon": 11.78829, "tags": {"amenity": "charging_station", "operator": "Tankstelle", "socket:type2": "yes"}}, {"type": "node", "id": 5725856567, "lat": 46.7063014, "lon": 11.6512871, "tags": {"access": "yes", "amenity": "charging_station", "capacity": "2", "fee": "yes", "name": "BRIXEN_02", "opening_hours": "24/7", "operator": "Alperia", "operator:wikidata": "Q25387077", "operator:wikipedia": "it:Alperia", "payment:credit_cards": "yes", "payment:rfid_card": "yes", "payment:smartphone": "yes", "socket:chademo": "1", "socket:chademo:output": "50kW", "socket:type2": "1", "socket:type2:output": "43kW", "socket:type2_combo": "1", "socket:type2_combo:output": "50kW"}}, {"type": "node", "id": 5725856568, "lat": 46.7168956, "lon": 11.653746, "tags": {"access": "yes", "amenity": "charging_station", "bicycle": "no", "bus": "no", "capacity": "2", "fee": "yes", "hgv": "no", "motorcar": "yes", "name": "BRIXEN_03", "opening_hours": "24/7", "operator": "Alperia", "operator:wikidata": "Q25387077", "operator:wikipedia": "it:Alperia", "parking:fee": "no", "payment:credit_cards": "yes", "payment:rfid_card": "yes", "payment:smartphone": "yes", "scooter": "no", "socket:type2": "2", "socket:type2:output": "22kW", "source": "https://www.greenmobility.bz.it/green-mobility/ladesaeulen/"}}, {"type": "node", "id": 6046780107, "lat": 46.8159066, "lon": 11.675988, "tags": {"amenity": "charging_station", "authentication:nfc": "yes", "socket:type2": "1"}}, {"type": "node", "id": 6287087738, "lat": 46.9330328, "lon": 11.9375119, "tags": {"amenity": "charging_station"}}, {"type": "node", "id": 6291587518, "lat": 46.9796878, "lon": 11.9394088, "tags": {"access": "yes", "amenity": "charging_station", "capacity": "2", "fee": "yes", "name": "SAN_GIOVANNI_01", "opening_hours": "24/7", "operator": "Alperia Smart Mobility", "payment:credit_cards": "yes", "payment:rfid_card": "yes", "payment:smartphone": "yes", "socket:type2": "2", "socket:type2:output": "22kW", "source": "https://www.greenmobility.bz.it/green-mobility/ladesaeulen/"}}, {"type": "node", "id": 6347764899, "lat": 46.7830895, "lon": 11.7543148, "tags": {"amenity": "charging_station", "bicycle": "yes", "capacity": "2", "fee": "yes", "manufacturer": "Bike Energy", "operator": "Ronerh\u00fctte - Rifugio Roner"}}, {"type": "node", "id": 6753451602, "lat": 46.6388976, "lon": 11.5647903, "tags": {"access": "yes", "amenity": "charging_station", "capacity": "2", "fee": "yes", "name": "KLAUSEN_01 / CHIUSA_01", "operator": "Alperia", "operator:wikidata": "Q25387077", "operator:wikipedia": "it:Alperia", "payment:credit_cards": "yes", "payment:rfid_card": "yes", "payment:smartphone": "yes", "socket:chademo": "1", "socket:chademo:output": "45kW", "socket:type2": "1", "socket:type2:output": "22kW", "socket:type2_combo": "1", "socket:type2_combo:output": "45kW"}}, {"type": "node", "id": 6753451604, "lat": 46.8026698, "lon": 11.9386639, "tags": {"access": "yes", "amenity": "charging_station", "capacity": "2", "fee": "yes", "name": "BRUNICO_02", "opening_hours": "24/7", "operator": "Alperia", "operator:wikidata": "Q25387077", "operator:wikipedia": "it:Alperia", "payment:credit_cards": "yes", "payment:rfid_card": "yes", "payment:smartphone": "yes", "socket:chademo": "1", "socket:chademo:output": "50kW", "socket:type2": "1", "socket:type2:output": "43kW", "socket:type2_combo": "1", "socket:type2_combo:output": "50kW"}}, {"type": "node", "id": 6753626869, "lat": 46.7591487, "lon": 11.6381267, "tags": {"access": "yes", "amenity": "charging_station", "capacity": "2", "fee": "yes", "name": "VARNA_01", "opening_hours": "24/7", "operator": "Alperia", "operator:wikidata": "Q25387077", "operator:wikipedia": "it:Alperia", "payment:credit_cards": "yes", "payment:rfid_card": "yes", "payment:smartphone": "yes", "socket:chademo": "1", "socket:chademo:output": "50kW", "socket:type2": "1", "socket:type2:output": "43kW", "socket:type2_combo": "1", "socket:type2_combo:output": "50kW"}}, {"type": "node", "id": 6753626870, "lat": 46.9120675, "lon": 11.9618866, "tags": {"access": "yes", "amenity": "charging_station", "capacity": "2", "fee": "yes", "name": "CAMPO_TURES_01", "opening_hours": "24/7", "operator": "Alperia", "operator:wikidata": "Q25387077", "payment:credit_cards": "yes", "payment:rfid_card": "yes", "payment:smartphone": "yes", "socket:chademo": "1", "socket:chademo:output": "50kW", "socket:type2": "1", "socket:type2:output": "43kW", "socket:type2_combo": "1", "socket:type2_combo:output": "50kW"}}, {"type": "node", "id": 6756968057, "lat": 46.6415599, "lon": 11.5687182, "tags": {"access": "yes", "amenity": "charging_station", "capacity": "2", "fee": "yes", "name": "KLAUSEN_02 - CHIUSA_02", "name:de": "KLAUSEN_02", "name:it": "CHIUSA_02", "opening_hours": "24/7", "operator": "Alperia", "operator:wikidata": "Q25387077", "payment:credit_cards": "yes", "payment:rfid_card": "yes", "payment:smartphone": "yes", "socket:type2": "2", "socket:type2:output": "22kW", "source": "https://www.greenmobility.bz.it/green-mobility/ladesaeulen/"}}, {"type": "node", "id": 6757099113, "lat": 46.7577893, "lon": 12.1046732, "tags": {"access": "yes", "amenity": "charging_station", "capacity": "2", "fee": "yes", "name": "MONGUELFO_01", "opening_hours": "24/7", "operator": "Alperia Smart Mobility", "payment:credit_cards": "yes", "payment:rfid_card": "yes", "payment:smartphone": "yes", "socket:type2": "2", "socket:type2:output": "22kW", "source": "https://www.greenmobility.bz.it/green-mobility/ladesaeulen/"}}, {"type": "node", "id": 6757264442, "lat": 46.8153139, "lon": 11.7355288, "tags": {"access": "yes", "amenity": "charging_station", "capacity": "2", "fee": "yes", "name": "SANKT JOHANN_01 / SAN_GIOVANNI_01", "opening_hours": "24/7", "operator": "Alperia Smart Mobility", "payment:credit_cards": "yes", "payment:rfid_card": "yes", "payment:smartphone": "yes", "socket:type2": "2", "socket:type2:output": "22kW", "source": "https://www.greenmobility.bz.it/green-mobility/ladesaeulen/"}}, {"type": "node", "id": 6851397482, "lat": 46.7639137, "lon": 11.6430725, "tags": {"access": "yes", "amenity": "charging_station", "capacity": "2", "fee": "no", "opening_hours": "24/7", "operator": "A22", "socket:chademo": "1", "socket:chademo:output": "50kW", "socket:type2": "1", "socket:type2:output": "43kW", "socket:type2_combo": "1", "socket:type2_combo:output": "50kW"}}, {"type": "node", "id": 6851397483, "lat": 46.7639308, "lon": 11.6431318, "tags": {"access": "yes", "amenity": "charging_station", "capacity": "2", "fee": "no", "operator": "A22", "socket:type2": "2", "socket:type2:output": "2x22kw"}}, {"type": "node", "id": 7247514608, "lat": 46.9181054, "lon": 11.9538023, "tags": {"amenity": "charging_station", "capacity": "2"}}, {"type": "node", "id": 7575425881, "lat": 46.7624866, "lon": 12.0304653, "tags": {"amenity": "charging_station"}}, {"type": "node", "id": 7726775140, "lat": 46.778619, "lon": 12.0471938, "tags": {"amenity": "charging_station"}}, {"type": "node", "id": 7785489422, "lat": 46.9818204, "lon": 12.0988599, "tags": {"access": "customers", "amenity": "charging_station", "bicycle": "yes", "fee": "no", "name": "E-Bike Ladestelle", "socket:schuko": "yes"}}, {"type": "node", "id": 8065617972, "lat": 46.6994515, "lon": 11.6355508, "tags": {"access": "yes", "amenity": "charging_station", "brand": "NEOGY", "capacity": "2", "covered": "no", "ele": "600", "manufacturer": "NEOGY", "name": "NEOGY Ladestationen f\u00fcr Elektroautos", "note": "22 kW/h", "operator": "NEOGY"}}, {"type": "node", "id": 8068437624, "lat": 46.6413672, "lon": 11.6817298, "tags": {"amenity": "charging_station", "authentication:none": "yes", "bicycle": "yes", "capacity": "4", "fee": "no", "motor_vehicle": "no", "opening_hours": "24/7", "socket:schuko": "4", "socket:schuko:voltage": "230"}}, {"type": "node", "id": 8412182257, "lat": 46.740507, "lon": 11.6363522, "tags": {"amenity": "charging_station"}}, {"type": "node", "id": 8663123127, "lat": 46.7345692, "lon": 11.6480459, "tags": {"amenity": "charging_station", "capacity": "2", "operator": "alperia", "operator:wikidata": "Q25387077", "operator:wikipedia": "it:Alperia", "socket:chademo": "1", "socket:chademo:output": "63 kW", "socket:type2_combo": "2", "socket:type2_combo:output": "100 kW"}}, {"type": "node", "id": 9093703551, "lat": 46.7041389, "lon": 11.9301129, "tags": {"access": "yes", "amenity": "charging_station", "bicycle": "no", "capacity": "2", "covered": "no", "fee": "yes", "name": "Miara", "operator": "Neogy"}}, {"type": "node", "id": 9093718271, "lat": 46.7006139, "lon": 11.9294919, "tags": {"access": "yes", "amenity": "charging_station", "capacity": "2", "covered": "no", "fee": "no", "level": "0", "name": "Gemeinde Parkplatz", "operator": "Gemeinde St Vigil"}}, {"type": "node", "id": 9094233018, "lat": 46.6982403, "lon": 11.9304647, "tags": {"access": "yes", "amenity": "charging_station", "authentication:none": "yes", "bicycle": "yes", "capacity": "5", "covered": "no", "fee": "no", "motorcar": "no", "motorcycle": "no", "name": "E-Bike Ladestelle", "opening_hours": "24/7", "operator": "Gemeinde St. Vigil", "scooter": "no", "socket:schuko": "5", "truck": "no"}}, {"type": "node", "id": 9094237222, "lat": 46.7003708, "lon": 11.9304482, "tags": {"access": "yes", "amenity": "charging_station", "authentication:none": "yes", "bicycle": "yes", "capacity": "3", "covered": "no", "fee": "no", "motorcar": "no", "name": "E-Bike Ladestelle", "opening_hours": "24/7", "operator": "Gemeinde St. Vigil", "scooter": "no", "socket:schuko": "3", "truck": "no"}}, {"type": "node", "id": 9095143745, "lat": 46.6991943, "lon": 11.9345656, "tags": {"access": "customers", "amenity": "charging_station", "brand": "Tesla", "capacity": "1", "manufacturer": "Tesla", "name": "Hotel Almhof Call"}}, {"type": "node", "id": 9095150198, "lat": 46.6981326, "lon": 11.9348009, "tags": {"access": "yes", "amenity": "charging_station", "capacity": "1", "fee": "yes", "name": "Sport Hotel exclusive", "operator": "Nextcharge"}}, {"type": "node", "id": 9095156985, "lat": 46.712661, "lon": 11.9499046, "tags": {"access": "customers", "amenity": "charging_station", "capacity": "2", "description": "CEE 16A"}}, {"type": "node", "id": 9095163458, "lat": 46.6972001, "lon": 11.9347685, "tags": {"access": "customers", "amenity": "charging_station", "capacity": "1", "name": "Hotel Brunella", "operator": "Hotel Brunella"}}, {"type": "node", "id": 9158470721, "lat": 46.7404238, "lon": 12.1572859, "tags": {"access": "yes", "amenity": "charging_station", "capacity": "2", "covered": "no", "fee": "yes", "image": "https://openstreetmap-assets.simedia.cloud/charging_station-simedia-niederdorf-9158470721-001.jpeg", "name:de": "SiMedia GmbH", "name:en": "SiMedia Ltd", "name:it": "SiMedia Srl", "operator": "SiMedia GmbH"}}, {"type": "node", "id": 9184175439, "lat": 46.7343192, "lon": 11.6475411, "tags": {"amenity": "charging_station", "capacity": "4", "operator": "L\u00f6wenhof"}}, {"type": "node", "id": 9486282871, "lat": 47.0062999, "lon": 11.5066896, "tags": {"access": "yes", "amenity": "charging_station", "brand": "Ionity", "brand:wikidata": "Q42717773", "capacity": "18", "description": "Unter dem Parkplatz ist die H\u00f6he begrenzt.", "fee": "yes", "name": "IONITY Brenner", "opening_hours": "24/7", "operator": "Ionity", "operator:wikidata": "Q42717773", "socket:type2_combo": "18", "socket:type2_combo:output": "350 kW"}}, {"type": "node", "id": 9562462280, "lat": 46.8505992, "lon": 11.6219137, "tags": {"amenity": "charging_station", "capacity": "4", "operator": "ecogy"}}, {"type": "node", "id": 9675021357, "lat": 46.6821497, "lon": 11.8978454, "tags": {"amenity": "charging_station", "capacity": "1", "name": "Ladestation"}}, {"type": "node", "id": 9993325479, "lat": 46.8153091, "lon": 11.7354138, "tags": {"amenity": "charging_station", "authentication:nfc": "yes", "authentication:none": "yes", "fee": "yes", "name": "Alperia Hypercharger", "opening_hours": "Sa-Su 00:00-24:00", "operator": "Alperia", "operator:wikidata": "Q25387077", "operator:wikipedia": "it:Alperia", "socket:chademo": "1", "socket:type2_combo": "2", "socket:type2_combo:output": "100"}}, {"type": "node", "id": 10030021471, "lat": 46.7564967, "lon": 12.1047378, "tags": {"access": "customers", "amenity": "charging_station", "bicycle": "yes", "fee": "no"}}, {"type": "node", "id": 10035031286, "lat": 46.7764682, "lon": 11.6904106, "tags": {"access": "yes", "amenity": "charging_station", "capacity": "2", "fee": "yes", "motorcar": "yes", "name": "RODENGO_01", "opening_hours": "24/7", "operator": "Alperia", "operator:wikidata": "Q25387077", "socket:type2": "2", "socket:type2:output": "22 kW", "source": "https://charge.greenmobility.bz.it/"}}, {"type": "node", "id": 10271949425, "lat": 46.9089181, "lon": 11.9612261, "tags": {"access": "yes", "amenity": "charging_station", "capacity": "1", "opening_hours": "24/7", "operator": "AC Alfen Charging Equipment", "socket:type2": "1", "socket:type2:output": "22kW"}}, {"type": "node", "id": 10688323066, "lat": 46.9843913, "lon": 11.9480557, "tags": {"access": "customers", "amenity": "charging_station", "capacity": "2", "operator": "Hotel Adler"}}, {"type": "node", "id": 10757491068, "lat": 46.946675, "lon": 11.8595375, "tags": {"amenity": "charging_station", "covered": "no", "fee": "yes", "socket:type2": "2", "socket:type2:output": "22"}}, {"type": "node", "id": 10815766034, "lat": 46.7952771, "lon": 11.9407634, "tags": {"access": "yes", "amenity": "charging_station", "bicycle": "yes", "description": "3x Bosch, 1x Shimano, 1x Yamaha, 2x 230V Schuko, 2x USB", "fee": "no", "motorcar": "no", "motorcycle": "no", "name": "eBike Box", "opening_hours": "24/7", "operator": "econec / leitner energy"}}, {"type": "node", "id": 10997424205, "lat": 46.6537102, "lon": 12.0595564, "tags": {"access": "customers", "amenity": "charging_station", "bicycle": "yes", "fee": "no", "vehicle": "no"}}, {"type": "node", "id": 11027910413, "lat": 46.7603254, "lon": 11.5817901, "tags": {"amenity": "charging_station", "bicycle": "yes"}}, {"type": "node", "id": 11049047273, "lat": 46.772953, "lon": 11.942635, "tags": {"amenity": "charging_station", "capacity": "2", "operator": "Neogy"}}, {"type": "node", "id": 11049047274, "lat": 46.7729731, "lon": 11.9426243, "tags": {"amenity": "charging_station", "capacity": "2", "operator": "Neogy"}}, {"type": "node", "id": 11049814597, "lat": 46.7095768, "lon": 11.6620246, "tags": {"access": "yes", "amenity": "charging_station", "bicycle": "no", "capacity": "2", "fee": "yes", "motorcar": "yes", "operator": "Alperia", "socket:chademo": "1", "socket:chademo:output": "63 kW", "socket:type2_combo": "2", "socket:type2_combo:output": "150 kW"}}, {"type": "node", "id": 11075158514, "lat": 46.7611621, "lon": 12.0300071, "tags": {"amenity": "charging_station", "covered": "no", "description": "E-Bike charging station, 4 slots", "fee": "no", "opening_hours": "24/7"}}, {"type": "node", "id": 11171322539, "lat": 46.7161704, "lon": 11.6811696, "tags": {"access": "customers", "amenity": "charging_station", "capacity": "1", "covered": "no", "fee": "yes", "socket:type2:output": "8kw"}}, {"type": "node", "id": 11171322565, "lat": 46.7161828, "lon": 11.6811966, "tags": {"access": "customers", "amenity": "charging_station", "capacity": "1", "covered": "no", "fee": "yes", "socket:type2:output": "8kw"}}, {"type": "node", "id": 11423613565, "lat": 47.0515218, "lon": 12.1291084, "tags": {"access": "yes", "amenity": "charging_station", "brand": "Alperia", "capacity": "2", "name": "Alperia", "operator": "Neogy srl", "socket:type2": "2", "socket:type2:output": "22 kW"}}, {"type": "node", "id": 11638177942, "lat": 46.7462834, "lon": 12.0107024, "tags": {"amenity": "charging_station", "capacity": "1"}}, {"type": "node", "id": 11921437322, "lat": 46.8078641, "lon": 11.8818226, "tags": {"amenity": "charging_station", "capacity": "2"}}, {"type": "node", "id": 11948521495, "lat": 46.758981, "lon": 11.6378344, "tags": {"access": "yes", "amenity": "charging_station", "bicycle": "no", "brand:wikidata": "Q478214", "capacity": "6", "fee": "yes", "motorcar": "yes", "network": "Tesla", "opening_hours": "24/7", "parking:fee": "no", "socket:tesla_supercharger_ccs": "6", "socket:tesla_supercharger_ccs:output": "250kW"}}, {"type": "node", "id": 11948537156, "lat": 46.7202353, "lon": 11.6552569, "tags": {"access": "yes", "amenity": "charging_station", "bicycle": "no", "capacity": "2", "fee": "yes", "motorcar": "yes", "opening_hours": "24/7", "parking:fee": "no", "socket:type2_cable": "1", "socket:type2_cable:output": "22 kW", "socket:type2_combo": "2", "socket:type2_combo:output": "150kW"}}, {"type": "node", "id": 11948565447, "lat": 46.7228052, "lon": 11.6550165, "tags": {"access": "yes", "amenity": "charging_station", "bicycle": "no", "capacity": "2", "fee": "yes", "motorcar": "yes", "opening_hours": "24/7", "parking:fee": "no", "socket:chademo": "1", "socket:chademo:output": "60kW", "socket:type2_combo": "1", "socket:type2_combo:output": "75kW"}}, {"type": "node", "id": 11994313005, "lat": 46.9953539, "lon": 11.5022569, "tags": {"access": "yes", "amenity": "charging_station", "capacity": "6", "charging_station:output": "150 kW", "fee": "yes", "opening_hours": "24/7", "parking:fee": "no", "socket:chademo": "2", "socket:chademo:output": "50 kW", "socket:type2": "2", "socket:type2:output": "22 kW", "socket:type2_combo": "4", "socket:type2_combo:output": "150 kW"}}, {"type": "node", "id": 11999194310, "lat": 46.6615757, "lon": 11.9564074, "tags": {"amenity": "charging_station", "bicycle": "yes"}}, {"type": "node", "id": 12000712407, "lat": 46.6459703, "lon": 11.5769602, "tags": {"access": "yes", "amenity": "charging_station", "capacity": "2", "fee": "yes", "operator": "Alperia", "operator:wikidata": "Q25387077", "socket:chademo": "1", "socket:chademo:output": "63 kW", "socket:type2_combo": "2", "socket:type2_combo:output": "100 kW"}}, {"type": "node", "id": 12000743549, "lat": 46.6944662, "lon": 11.643827, "tags": {"amenity": "charging_station", "brand": "Enel", "brand:wikidata": "Q651222", "fixme": "exact position", "name": "Enel", "operator": "Enel", "operator:wikidata": "Q651222", "socket:chademo": "1", "socket:chademo:output": "50 kW", "socket:type2": "1", "socket:type2:output": "41 kW", "socket:type2_combo": "1", "socket:type2_combo:output": "50 kW"}}, {"type": "node", "id": 12000777399, "lat": 46.7285683, "lon": 11.6519172, "tags": {"amenity": "charging_station", "brand": "Enel", "brand:wikidata": "Q651222", "fixme": "exact position", "name": "Enel", "operator": "Enel", "operator:wikidata": "Q651222", "socket:chademo": "1", "socket:chademo:output": "50 kW", "socket:type2": "1", "socket:type2:output": "41 kW", "socket:type2_combo": "1", "socket:type2_combo:output": "50 kW"}}]}