{"version": 0.6, "generator": "Overpass API 0.7.62.1 084b4234", "osm3s": {"timestamp_osm_base": "2024-11-06T19:37:16Z", "copyright": "The data included in this document is from www.openstreetmap.org. The data is made available under ODbL."}, "elements": [{"type": "node", "id": 7897236597, "lat": 38.1507954, "lon": 13.0815031, "tags": {"access": "yes", "amenity": "charging_station", "authentication:app": "yes", "authentication:membership_card": "yes", "authentication:nfc": "yes", "brand": "Enel X", "brand:wikidata": "Q5376815", "brand:wikipedia": "en:Enel", "charge": "0,40\u20ac/kWh", "fee": "yes", "motorcar": "yes", "name": "Enel X Via Carlo Alberto della Chiesa", "opening_hours": "24/7", "operator": "Enel X", "operator:wikidata": "Q5376815", "socket:type2": "2", "socket:type2:output": "20 kW"}}, {"type": "node", "id": 9836652608, "lat": 38.0098793, "lon": 12.5660308, "tags": {"amenity": "charging_station", "brand": "Enel X", "brand:wikidata": "Q5376815", "motorcar": "yes", "name": "Enel X", "opening_hours": "24/7", "operator": "Enel X", "operator:wikidata": "Q5376815", "operator:wikipedia": "en:Enel X"}}, {"type": "node", "id": 10926456252, "lat": 38.0356349, "lon": 12.5882772, "tags": {"amenity": "charging_station", "capacity": "2", "motorcar": "yes", "operator": "Enel X Way", "socket:type2": "2"}}, {"type": "node", "id": 10926473909, "lat": 38.0358009, "lon": 12.5837613, "tags": {"amenity": "charging_station", "capacity": "2", "motorcar": "yes", "operator": "Enel X Way", "socket:type2": "2"}}, {"type": "node", "id": 10957053429, "lat": 38.0242343, "lon": 12.8876795, "tags": {"amenity": "charging_station", "brand": "Seed", "capacity": "4", "fee": "yes", "opening_hours": "24/7"}}, {"type": "node", "id": 10960254043, "lat": 38.0189958, "lon": 12.8887975, "tags": {"amenity": "charging_station", "brand": "Enel X", "brand:wikidata": "Q5376815", "capacity": "2", "name": "Enel X", "operator": "Enel X", "operator:wikidata": "Q5376815"}}, {"type": "node", "id": 11554029565, "lat": 38.0518026, "lon": 13.0095389, "tags": {"amenity": "charging_station", "capacity": "2", "fee": "yes", "motorcar": "yes", "name": "Be Charge", "opening_hours": "24/7", "operator": "Be Charge", "operator:wikidata": "Q113289535"}}, {"type": "node", "id": 11554056569, "lat": 38.0518275, "lon": 13.0096248, "tags": {"amenity": "charging_station", "capacity": "2", "fee": "yes", "motorcar": "yes", "name": "Be Charge", "opening_hours": "24/7", "operator": "Be Charge", "operator:wikidata": "Q113289535"}}, {"type": "node", "id": 11556484192, "lat": 38.0004401, "lon": 12.5355188, "tags": {"amenity": "charging_station", "capacity": "2", "fee": "yes", "motorcar": "yes", "operator": "Enel X Way"}}, {"type": "node", "id": 11637479366, "lat": 38.017307, "lon": 12.536741, "tags": {"amenity": "charging_station", "capacity": "2", "fee": "yes", "motorcar": "yes", "name": "Enel X Way", "opening_hours": "24/7", "operator": "Enel X Way"}}, {"type": "node", "id": 11637494281, "lat": 38.0198117, "lon": 12.5377425, "tags": {"amenity": "charging_station", "capacity": "2", "fee": "yes", "motorcar": "yes", "name": "Enel X Way", "opening_hours": "24/7", "operator": "Enel X Way", "survey:date": "2024-02-18"}}, {"type": "node", "id": 11637697335, "lat": 38.0375116, "lon": 12.5899559, "tags": {"amenity": "charging_station", "capacity": "2", "fee": "yes", "motorcar": "yes", "name": "Enel X Way", "opening_hours": "24/7", "operator": "Enel X Way"}}, {"type": "node", "id": 11637908754, "lat": 38.0400658, "lon": 12.587091, "tags": {"amenity": "charging_station", "capacity": "2", "fee": "yes", "motorcar": "yes", "name": "Enel X Way", "opening_hours": "24/7", "operator": "Enel X Way"}}]}