{"version": 0.6, "generator": "Overpass API 0.7.62.1 084b4234", "osm3s": {"timestamp_osm_base": "2024-11-06T19:41:29Z", "copyright": "The data included in this document is from www.openstreetmap.org. The data is made available under ODbL."}, "elements": [{"type": "node", "id": 1761440608, "lat": 45.6028945, "lon": 7.7749763, "tags": {"access": "yes", "amenity": "charging_station", "bicycle": "yes", "fixme": "verificare la posizione", "network": "DINAclub", "operator": "Repower", "operator:wikidata": "Q674712", "operator:wikipedia": "it:Repower", "website": "https://www.repower.com/it/dina/"}}, {"type": "node", "id": 3326629473, "lat": 45.5921587, "lon": 7.20891, "tags": {"amenity": "charging_station", "authentication:membership_card": "yes", "capacity": "2", "charging_station:output": "25 kW", "name": "D\u00e9gioz", "network": "Enel X", "opening_hours": "24/7", "operator": "Deval SpA", "ref": "13ZP21T2B01H000085", "socket:type2": "1", "socket:type2:output": "22", "socket:type3": "1", "socket:type3:output": "3"}}, {"type": "node", "id": 4277997934, "lat": 45.7372703, "lon": 7.3724072, "tags": {"access": "customers", "amenity": "charging_station", "brand": "Tesla, Inc.", "brand:wikidata": "Q478214", "capacity": "14", "fee": "yes", "motorcar": "yes", "name": "Aosta Supercharger", "opening_hours": "24/7", "operator": "Tesla, Inc.", "operator:wikidata": "Q478214", "short_name": "Tesla", "socket:tesla_supercharger": "14", "socket:tesla_supercharger:output": "150 kW", "socket:tesla_supercharger_ccs": "14", "socket:tesla_supercharger_ccs:output": "150 kW", "website": "https://www.tesla.com/findus/location/supercharger/aostasupercharger"}}, {"type": "node", "id": 5367252021, "lat": 45.7490343, "lon": 7.6229259, "tags": {"amenity": "charging_station"}}, {"type": "node", "id": 5787587898, "lat": 45.5938896, "lon": 7.7904184, "tags": {"amenity": "charging_station", "charge": "0.79\u20ac/kWh", "fee": "yes", "operator": "Duferco", "operator:wikidata": "Q1263955", "socket:type2": "2", "socket:type2:output": "22kW"}}, {"type": "node", "id": 5787671053, "lat": 45.6032608, "lon": 7.7680561, "tags": {"amenity": "charging_station", "charge": "0.79\u20ac/kWh", "fee": "yes", "operator": "Duferco", "operator:wikidata": "Q1263955", "socket:type2": "2", "socket:type2:output": "22kW"}}, {"type": "node", "id": 5787674493, "lat": 45.6117612, "lon": 7.7436392, "tags": {"amenity": "charging_station", "capacity": "1", "mapillary": "314202353517006", "operator": "E-chanoux", "socket:type2": "2", "socket:type2:output": "22kW", "survey:date": "2019-06-23"}}, {"type": "node", "id": 5787675052, "lat": 45.7490677, "lon": 7.647851, "tags": {"amenity": "charging_station", "charge": "0.79\u20ac/kWh", "fee": "yes", "operator": "Duferco", "operator:wikidata": "Q1263955", "socket:type2": "2", "socket:type2:output": "22kW"}}, {"type": "node", "id": 5787679694, "lat": 45.7392407, "lon": 7.4657719, "tags": {"amenity": "charging_station", "charge": "0.79\u20ac/kWh", "fee": "yes", "operator": "Duferco", "operator:wikidata": "Q1263955", "socket:type2": "2", "socket:type2:output": "22kW"}}, {"type": "node", "id": 5787684567, "lat": 45.8208008, "lon": 7.2294893, "tags": {"amenity": "charging_station", "socket:type2": "2", "socket:type2:output": "22kw"}}, {"type": "node", "id": 6267920631, "lat": 45.7314785, "lon": 7.4442069, "tags": {"amenity": "charging_station", "brand": "Enel", "brand:wikidata": "Q651222", "fee": "yes", "name": "Enel", "opening_hours": "24/7", "operator": "Enel", "operator:wikidata": "Q651222", "socket:type2": "2"}}, {"type": "node", "id": 6790881763, "lat": 45.7880369, "lon": 7.5532132, "tags": {"amenity": "charging_station", "bicycle": "yes", "capacity": "4", "fee": "no", "operator": "Byro"}}, {"type": "node", "id": 7359873234, "lat": 45.728214, "lon": 7.3561114, "tags": {"amenity": "charging_station", "brand": "Enel", "brand:wikidata": "Q651222", "name": "Enel", "operator": "Enel", "operator:wikidata": "Q651222"}}, {"type": "node", "id": 7652688923, "lat": 45.7175734, "lon": 7.2589781, "tags": {"amenity": "charging_station", "charge": "0.79\u20ac/kWh", "fee": "yes", "operator": "Duferco", "operator:wikidata": "Q1263955", "socket:type2": "2", "socket:type2:output": "22kW"}}, {"type": "node", "id": 7742125396, "lat": 45.6087231, "lon": 7.3545039, "tags": {"amenity": "charging_station", "brand": "Enel", "brand:wikidata": "Q651222", "capacity": "2", "name": "Enel", "operator": "Enel", "operator:wikidata": "Q651222", "socket:type2": "1", "socket:type2:output": "22 kW"}}, {"type": "node", "id": 7784452336, "lat": 45.6119709, "lon": 7.5516655, "tags": {"amenity": "charging_station", "bicycle": "yes", "voltage": "230"}}, {"type": "node", "id": 9019030017, "lat": 45.8495753, "lon": 7.3099418, "tags": {"amenity": "charging_station"}}, {"type": "node", "id": 9088160652, "lat": 45.8995162, "lon": 7.1933366, "tags": {"amenity": "charging_station", "authentication:app": "yes", "authentication:contactless": "yes", "bicycle": "no", "capacity": "1", "cover": "yes", "description": "Charging station inside tunnel at toll booth parking", "fee": "yes", "motorcar": "yes", "network": "evpass", "opening_hours": "24/7", "parking:fee": "no", "socket:chademo": "1", "socket:chademo:output": "66 kW", "socket:type2_combo": "1", "socket:type2_combo:output": "66 kW"}}, {"type": "node", "id": 9462572536, "lat": 45.7373969, "lon": 7.4052903, "tags": {"access": "yes", "amenity": "charging_station", "brand": "Ionity", "brand:wikidata": "Q42717773", "capacity": "6", "fee": "yes", "name": "IONITY Les Iles de Brissogne Nord", "opening_hours": "24/7", "operator": "Ionity", "payment:app": "yes", "payment:contactless": "yes", "socket:type2_combo": "1", "socket:type2_combo:output": "350 kW", "website": "https://ionity.eu/"}}, {"type": "node", "id": 9537857389, "lat": 45.6133399, "lon": 7.8083148, "tags": {"amenity": "charging_station", "brand": "becharge", "operator": "Be Charge", "operator:wikidata": "Q113289535"}}, {"type": "node", "id": 9661750841, "lat": 45.86815, "lon": 7.16553, "tags": {"amenity": "charging_station", "bicycle": "yes", "network": "DINAclub", "operator": "Repower", "operator:wikidata": "Q674712", "operator:wikipedia": "it:Repower", "website": "https://www.repower.com/it/dina/"}}, {"type": "node", "id": 9910969668, "lat": 45.779095, "lon": 7.2962415, "tags": {"amenity": "charging_station"}}, {"type": "node", "id": 9916960342, "lat": 45.7387244, "lon": 7.328743, "tags": {"amenity": "charging_station", "capacity": "4", "name": "Place de l'Ancien Abattoir", "name:fr": "Place de l'Ancien Abattoir", "operator": "Duferco", "operator:wikidata": "Q1263955"}}, {"type": "node", "id": 9916960344, "lat": 45.7354916, "lon": 7.3143929, "tags": {"amenity": "charging_station", "capacity": "4", "operator": "Duferco", "operator:wikidata": "Q1263955"}}, {"type": "node", "id": 9916961153, "lat": 45.7035765, "lon": 7.1702306, "tags": {"access": "yes", "amenity": "charging_station", "capacity": "2", "operator": "Be Charge", "operator:wikidata": "Q113289535", "socket:type2": "2", "socket:type2:output": "22 kW"}}, {"type": "node", "id": 9916961362, "lat": 45.7413545, "lon": 7.3581402, "tags": {"access": "yes", "amenity": "charging_station", "capacity": "2", "operator": "Duferco", "operator:wikidata": "Q1263955"}}, {"type": "node", "id": 9916961363, "lat": 45.7419941, "lon": 7.3465547, "tags": {"access": "yes", "amenity": "charging_station", "capacity": "2", "operator": "Duferco", "operator:wikidata": "Q1263955"}}, {"type": "node", "id": 9970895099, "lat": 45.8681596, "lon": 7.1654726, "tags": {"access": "yes", "amenity": "charging_station", "bicycle": "yes", "description": "Komoot App for e-bike charging station in Italy https://www.komoot.com/collection/1840155", "motorcar": "no", "network": "DINAclub", "operator": "Repower", "operator:wikidata": "Q674712", "operator:wikipedia": "it:Repower", "website": "https://www.repower.com/it/dina/"}}, {"type": "node", "id": 9970898910, "lat": 45.7413549, "lon": 7.3167401, "tags": {"amenity": "charging_station", "bicycle": "yes", "network": "DINAclub", "operator": "Repower", "operator:wikidata": "Q674712", "operator:wikipedia": "it:Repower", "website": "https://www.repower.com/it/dina/"}}, {"type": "node", "id": 10006123037, "lat": 45.7233608, "lon": 7.2727032, "tags": {"amenity": "charging_station", "name": "Be Charge", "operator": "Be Charge", "operator:wikidata": "Q113289535"}}, {"type": "node", "id": 10011709486, "lat": 45.6991043, "lon": 7.1975245, "tags": {"access": "yes", "amenity": "charging_station", "capacity": "2", "name": "Duferco", "operator": "Duferco", "operator:wikidata": "Q1263955", "socket:type2": "2", "socket:type2:output": "22 kW"}}, {"type": "node", "id": 10045714769, "lat": 45.9392419, "lon": 7.38123, "tags": {"amenity": "charging_station", "bicycle": "yes", "capacity": "12", "fee": "no", "motorcar": "no", "name": "Borne de Cabane de Chanrion", "name:en": "Charging station of Cabane de Chanrion", "operator": "Altis", "seasonal": "spring;summer;autumn"}}, {"type": "node", "id": 10571434281, "lat": 45.7373996, "lon": 7.4053242, "tags": {"access": "yes", "amenity": "charging_station", "brand": "Ionity", "brand:wikidata": "Q42717773", "capacity": "6", "fee": "yes", "name": "IONITY Les Iles de Brissogne Nord", "opening_hours": "24/7", "operator": "Ionity", "payment:app": "yes", "payment:contactless": "yes", "socket:type2_combo": "1", "socket:type2_combo:output": "350 kW", "website": "https://ionity.eu/"}}, {"type": "node", "id": 10571434282, "lat": 45.7374005, "lon": 7.405357, "tags": {"access": "yes", "amenity": "charging_station", "brand": "Ionity", "brand:wikidata": "Q42717773", "capacity": "6", "fee": "yes", "name": "IONITY Les Iles de Brissogne Nord", "opening_hours": "24/7", "operator": "Ionity", "payment:app": "yes", "payment:contactless": "yes", "socket:type2_combo": "1", "socket:type2_combo:output": "350 kW", "website": "https://ionity.eu/"}}, {"type": "node", "id": 10571434283, "lat": 45.7374029, "lon": 7.4053901, "tags": {"access": "yes", "amenity": "charging_station", "brand": "Ionity", "brand:wikidata": "Q42717773", "capacity": "6", "fee": "yes", "name": "IONITY Les Iles de Brissogne Nord", "opening_hours": "24/7", "operator": "Ionity", "payment:app": "yes", "payment:contactless": "yes", "socket:type2_combo": "1", "socket:type2_combo:output": "350 kW", "website": "https://ionity.eu/"}}, {"type": "node", "id": 10571434284, "lat": 45.7374062, "lon": 7.4054202, "tags": {"access": "yes", "amenity": "charging_station", "brand": "Ionity", "brand:wikidata": "Q42717773", "capacity": "6", "fee": "yes", "name": "IONITY Les Iles de Brissogne Nord", "opening_hours": "24/7", "operator": "Ionity", "payment:app": "yes", "payment:contactless": "yes", "socket:type2_combo": "1", "socket:type2_combo:output": "350 kW", "website": "https://ionity.eu/"}}, {"type": "node", "id": 10571434285, "lat": 45.7373957, "lon": 7.4052584, "tags": {"access": "yes", "amenity": "charging_station", "brand": "Ionity", "brand:wikidata": "Q42717773", "capacity": "6", "fee": "yes", "name": "IONITY Les Iles de Brissogne Nord", "opening_hours": "24/7", "operator": "Ionity", "payment:app": "yes", "payment:contactless": "yes", "socket:type2_combo": "1", "socket:type2_combo:output": "350 kW", "website": "https://ionity.eu/"}}, {"type": "node", "id": 10862580326, "lat": 45.8933106, "lon": 7.6473641, "tags": {"access": "yes", "amenity": "charging_station", "brand": "Pradella Sistemi srl", "fee": "no", "name": "Stazione di ricarica ebike - PradellaSistemi", "operator": "Pradella Sistemi srl"}}, {"type": "node", "id": 10862580327, "lat": 45.9413109, "lon": 7.6551704, "tags": {"access": "yes", "amenity": "charging_station", "brand": "Pradella Sistemi srl", "fee": "no", "name": "Stazione di ricarica ebike - Pradella Sistemi", "operator": "Pradella Sistemi srl"}}, {"type": "node", "id": 10862580328, "lat": 45.867406, "lon": 7.643633, "tags": {"access": "yes", "amenity": "charging_station", "brand": "Pradella Sistemi srl", "fee": "no", "name": "Charge Point - PradellaSistemi", "operator": "Pradella Sistemi srl"}}, {"type": "node", "id": 10862580410, "lat": 45.9298973, "lon": 7.680583, "tags": {"access": "yes", "amenity": "charging_station", "brand": "Pradella Sistemi srl", "fee": "no", "name": "Charge Point - Pradella Sistemi", "operator": "Pradella Sistemi srl"}}, {"type": "node", "id": 10996620494, "lat": 45.750428, "lon": 7.6209369, "tags": {"access": "yes", "amenity": "charging_station", "bicycle": "yes", "network": "DINAclub", "operator": "Repower", "operator:wikidata": "Q674712", "operator:wikipedia": "it:Repower", "website": "https://www.repower.com/it/dina/"}}, {"type": "node", "id": 11013724601, "lat": 45.7354065, "lon": 7.3707132, "tags": {"amenity": "charging_station", "capacity": "3", "opening_hours": "24/7", "operator": "Be Charge", "operator:wikidata": "Q113289535"}}, {"type": "node", "id": 11013724922, "lat": 45.7288332, "lon": 7.3225273, "tags": {"amenity": "charging_station", "charge": "0.79\u20ac/kWh", "fee": "yes", "name": "Le Pont-Suaz", "name:fr": "Le Pont-Suaz", "operator": "Duferco", "operator:fr": "Duferco", "operator:wikidata": "Q1263955", "socket:type2": "2", "socket:type2:output": "22kW"}}, {"type": "node", "id": 11013725120, "lat": 45.7490378, "lon": 7.6229239, "tags": {"amenity": "charging_station", "capacity": "2", "charge": "0.79\u20ac/kWh", "fee": "yes", "operator": "Duferco", "operator:wikidata": "Q1263955"}}, {"type": "node", "id": 11013741410, "lat": 45.7503238, "lon": 7.6212666, "tags": {"access": "customers", "amenity": "charging_station", "name": "Rendez Vous"}}, {"type": "node", "id": 11013743790, "lat": 45.7324164, "lon": 7.5075812, "tags": {"amenity": "charging_station", "authentication:none": "yes", "fee": "no", "name": "La Bottega", "socket:type2": "1"}}, {"type": "node", "id": 11064635025, "lat": 45.686406, "lon": 7.1878506, "tags": {"access": "yes", "amenity": "charging_station", "brand": "BeCharge", "capacity": "2", "operator": "Be Charge", "operator:wikidata": "Q113289535", "socket:type2": "2", "socket:type2:output": "22 kW"}}, {"type": "node", "id": 11064635026, "lat": 45.7011093, "lon": 7.2055875, "tags": {"amenity": "charging_station", "brand": "BeCharge", "operator": "Be Charge", "operator:wikidata": "Q113289535", "socket:type2": "2", "socket:type2:output": "22 kW"}}, {"type": "node", "id": 11064635033, "lat": 45.7030642, "lon": 7.2097277, "tags": {"amenity": "charging_station", "brand": "Be Charge", "operator": "Be Charge", "operator:wikidata": "Q113289535", "socket:type2": "2", "socket:type2:output": "22 kW"}}, {"type": "node", "id": 11067613642, "lat": 45.6108195, "lon": 7.3525765, "tags": {"access": "yes", "amenity": "charging_station", "brand": "Enel X", "brand:wikidata": "Q5376815", "capacity": "2", "name": "Enel X", "operator": "Enel X", "operator:wikidata": "Q5376815", "socket:type2": "2", "socket:type2:output": "22 kW"}}, {"type": "node", "id": 11067613644, "lat": 45.6086407, "lon": 7.3577242, "tags": {"access": "yes", "amenity": "charging_station", "brand": "Enel X", "brand:wikidata": "Q5376815", "capacity": "1", "name": "Enel X", "operator": "Enel X", "operator:wikidata": "Q5376815", "socket:ccs": "1", "socket:chademo": "1", "socket:type2": "1", "socket:type2:output": "22 kW"}}, {"type": "node", "id": 11067613645, "lat": 45.610385, "lon": 7.36224, "tags": {"access": "yes", "amenity": "charging_station", "brand": "Enel X", "brand:wikidata": "Q5376815", "capacity": "1", "name": "Enel X", "operator": "Enel X", "operator:wikidata": "Q5376815", "socket:type2": "1", "socket:type2:output": "22 kW"}}, {"type": "node", "id": 11067613650, "lat": 45.6157044, "lon": 7.3592229, "tags": {"amenity": "charging_station", "brand": "Enel X", "brand:wikidata": "Q5376815", "capacity": "2", "name": "Enel X", "operator": "Enel X", "operator:wikidata": "Q5376815", "socket:type2": "2", "socket:type2:output": "22 kW"}}, {"type": "node", "id": 11067613651, "lat": 45.6043276, "lon": 7.3552311, "tags": {"access": "permit", "amenity": "charging_station", "brand": "Enel X", "brand:wikidata": "Q5376815", "capacity": "2", "name": "Enel X", "operator": "Enel X", "operator:wikidata": "Q5376815", "socket:ccs": "2", "socket:type2": "1", "socket:type2:output": "22 kW"}}, {"type": "node", "id": 11202298421, "lat": 45.737221, "lon": 7.4496665, "tags": {"access": "yes", "amenity": "charging_station", "bicycle": "yes", "network": "DINAclub", "operator": "Repower", "operator:wikidata": "Q674712", "operator:wikipedia": "it:Repower", "website": "https://www.repower.com/it/dina/"}}, {"type": "node", "id": 11350961345, "lat": 45.7793756, "lon": 7.2951355, "tags": {"access": "yes", "amenity": "charging_station", "bicycle": "yes", "network": "DINAclub", "operator": "Repower", "operator:wikidata": "Q674712", "operator:wikipedia": "it:Repower", "website": "https://www.repower.com/it/dina/"}}, {"type": "node", "id": 11350982873, "lat": 45.7784297, "lon": 7.2514944, "tags": {"access": "yes", "amenity": "charging_station", "bicycle": "yes", "network": "DINAclub", "operator": "Repower", "operator:wikidata": "Q674712", "operator:wikipedia": "it:Repower", "website": "https://www.repower.com/it/dina/"}}, {"type": "node", "id": 11975430338, "lat": 45.7373174, "lon": 7.4850697, "tags": {"amenity": "charging_station"}}, {"type": "node", "id": 12017194396, "lat": 45.7011771, "lon": 7.2395297, "tags": {"amenity": "charging_station", "brand": "Be Charge", "operator": "Be Charge", "operator:wikidata": "Q113289535", "socket:type2": "1", "socket:type2:output": "22", "socket:type2_combo": "2", "socket:type2_combo:output": "110"}}, {"type": "node", "id": 12072964346, "lat": 45.7329314, "lon": 7.3186951, "tags": {"amenity": "charging_station", "brand": "Duferco Energia", "capacity": "4", "operator": "Duferco Energia", "operator:wikidata": "Q113465226"}}, {"type": "node", "id": 12193376394, "lat": 45.8771548, "lon": 7.4298558, "tags": {"amenity": "charging_station", "fee": "yes", "motorcar": "yes", "motorcycle": "yes"}}, {"type": "node", "id": 12282280002, "lat": 45.7411781, "lon": 7.6277683, "tags": {"amenity": "charging_station", "capacity": "2", "description": "bicycles yes cars no"}}, {"type": "node", "id": 12282306873, "lat": 45.7292417, "lon": 7.6742372, "tags": {"amenity": "charging_station", "capacity": "4", "description": "l'echarge CVA energie", "name": "Plenitude"}}, {"type": "node", "id": 12314231668, "lat": 45.7366125, "lon": 7.3764634, "tags": {"amenity": "charging_station", "brand": "Be Charge", "capacity": "2", "fee": "yes", "name": "Be Charge Charging Station", "not:operator:wikidata": "Q113289535", "operator": "Be Charge Charging Station", "payment:phone_app": "yes", "payment:rfid_card": "yes"}}]}