{"version": 0.6, "generator": "Overpass API 0.7.62.1 084b4234", "osm3s": {"timestamp_osm_base": "2024-11-05T17:34:00Z", "copyright": "The data included in this document is from www.openstreetmap.org. The data is made available under ODbL."}, "elements": [{"type": "node", "id": 1165400895, "lat": 41.8970502, "lon": 12.4744633, "tags": {"amenity": "charging_station", "amperage": "16", "capacity": "3", "operator": "Atac", "voltage": "230"}}, {"type": "node", "id": 1165405085, "lat": 41.908993, "lon": 12.4687954, "tags": {"amenity": "charging_station", "amperage": "16", "operator": "ATAC", "voltage": "230"}}, {"type": "node", "id": 1172676847, "lat": 41.9296153, "lon": 12.4726315, "tags": {"amenity": "charging_station", "amperage": "16", "capacity": "2", "operator": "Atac", "voltage": "230"}}, {"type": "node", "id": 1186372344, "lat": 41.9017817, "lon": 12.5125543, "tags": {"amenity": "charging_station", "amperage": "16", "voltage": "230"}}, {"type": "node", "id": 1189767791, "lat": 41.9231299, "lon": 12.5131029, "tags": {"amenity": "charging_station", "amperage": "16", "operator": "Atac", "voltage": "230"}}, {"type": "node", "id": 1191547157, "lat": 41.9064399, "lon": 12.4776319, "tags": {"amenity": "charging_station", "amperage": "16", "operator": "atac", "voltage": "230"}}, {"type": "node", "id": 1276333919, "lat": 41.90398, "lon": 12.4897469, "tags": {"amenity": "charging_station", "amperage": "32", "brand": "Enel", "brand:wikidata": "Q651222", "brand:wikipedia": "en:Enel", "capacity": "2", "name": "Enel", "operator": "Enel", "operator:wikidata": "Q651222", "operator:wikipedia": "en:Enel", "voltage": "380"}}, {"type": "node", "id": 1276345391, "lat": 41.9086583, "lon": 12.4948062, "tags": {"amenity": "charging_station", "amperage": "32", "brand": "Enel", "brand:wikidata": "Q651222", "capacity": "2", "name": "Enel", "operator": "Enel", "operator:wikidata": "Q651222", "voltage": "380"}}, {"type": "node", "id": 1322039447, "lat": 41.9233382, "lon": 12.5075112, "tags": {"amenity": "charging_station", "amperage": "32", "capacity": "1", "fee": "yes", "opening_hours": "24/7", "operator": "Enel", "voltage": "380"}}, {"type": "node", "id": 1336742551, "lat": 41.8368812, "lon": 12.4632242, "tags": {"amenity": "charging_station", "amperage": "32", "capacity": "4", "operator": "Enel", "voltage": "380"}}, {"type": "node", "id": 1391602819, "lat": 41.8844682, "lon": 12.5094389, "tags": {"amenity": "charging_station", "amperage": "32", "operator": "Enel", "voltage": "380"}}, {"type": "node", "id": 1512692724, "lat": 41.8659467, "lon": 12.479834, "tags": {"access": "private", "amenity": "charging_station", "brand": "Enel", "brand:wikidata": "Q651222", "capacity": "12", "name": "Enel - stazione di ricarica", "operator": "Enel", "operator:wikidata": "Q651222", "ref:enel:code": "ENEL_00000311", "ref:enel:serial_number": "N.11CP21T2B01C000011"}}, {"type": "node", "id": 1521096836, "lat": 41.9101287, "lon": 12.4485928, "tags": {"access": "private", "amenity": "charging_station", "capacity": "10", "covered": "yes", "note": "used to recharge the electric bikes of the bikesharing Carica!"}}, {"type": "node", "id": 1528788874, "lat": 41.889732, "lon": 12.4744727, "tags": {"amenity": "charging_station", "amperage": "32", "brand": "Enel", "brand:wikidata": "Q651222", "brand:wikipedia": "en:Enel", "name": "Enel", "operator": "Enel", "operator:wikidata": "Q651222", "operator:wikipedia": "en:Enel", "voltage": "380"}}, {"type": "node", "id": 1537444862, "lat": 41.8968537, "lon": 12.4744178, "tags": {"amenity": "charging_station", "amperage": "32", "brand": "Enel", "brand:wikidata": "Q651222", "brand:wikipedia": "en:Enel", "capacity": "1", "name": "Enel", "operator": "Enel", "operator:wikidata": "Q651222", "operator:wikipedia": "en:Enel", "voltage": "380"}}, {"type": "node", "id": 1569761385, "lat": 41.7293762, "lon": 12.2777778, "tags": {"amenity": "charging_station", "amperage": "32", "brand": "Enel X", "brand:wikidata": "Q5376815", "name": "Enel X", "operator": "Enel X", "operator:wikidata": "Q5376815", "plug": "Type2", "voltage": "380"}}, {"type": "node", "id": 1697631891, "lat": 41.9157991, "lon": 12.4534935, "tags": {"amenity": "charging_station", "amperage": "32", "brand": "Enel", "brand:wikidata": "Q651222", "brand:wikipedia": "en:Enel", "capacity": "2", "name": "Enel", "operator": "Enel", "operator:wikidata": "Q651222", "operator:wikipedia": "en:Enel", "voltage": "380"}}, {"type": "node", "id": 1701110513, "lat": 41.9064433, "lon": 12.4566358, "tags": {"amenity": "charging_station", "amperage": "32", "brand": "Enel", "brand:wikidata": "Q651222", "brand:wikipedia": "en:Enel", "capacity": "2", "name": "Enel", "operator": "Enel", "operator:wikidata": "Q651222", "operator:wikipedia": "en:Enel", "voltage": "380"}}, {"type": "node", "id": 1732962123, "lat": 41.915802, "lon": 12.4643684, "tags": {"amenity": "charging_station", "amperage": "32", "brand": "Enel", "brand:wikidata": "Q651222", "brand:wikipedia": "en:Enel", "capacity": "2", "name": "Enel", "operator": "Enel", "operator:wikidata": "Q651222", "operator:wikipedia": "en:Enel", "voltage": "380"}}, {"type": "node", "id": 1995440068, "lat": 41.8970159, "lon": 12.4831735, "tags": {"amenity": "charging_station", "amperage": "32", "brand": "Enel", "brand:wikidata": "Q651222", "brand:wikipedia": "en:Enel", "capacity": "2", "name": "Enel", "operator": "Enel", "operator:wikidata": "Q651222", "operator:wikipedia": "en:Enel", "voltage": "380"}}, {"type": "node", "id": 2401540244, "lat": 41.806927, "lon": 12.432505, "tags": {"amenity": "charging_station", "brand": "Enel", "name": "Enel - stazione di ricarica", "ref:enel:code": "ENEL_00000058", "ref:enel:serial_number": "N.10CP21T2B02A000049"}}, {"type": "node", "id": 2401540436, "lat": 41.8262984, "lon": 12.4783688, "tags": {"amenity": "charging_station", "brand": "Enel", "name": "Enel - stazione di ricarica", "ref:enel:code": "ENEL_00000107", "ref:enel:serial_number": "N.10CP21T2B02A000055"}}, {"type": "node", "id": 2401540457, "lat": 41.91016, "lon": 12.475154, "tags": {"amenity": "charging_station", "brand": "Enel", "name": "Enel - stazione di ricarica", "ref:enel:code": "ENEL_00000153", "ref:enel:serial_number": "N.11CP21T2B02C000083"}}, {"type": "node", "id": 2401540494, "lat": 41.80673, "lon": 12.324249, "tags": {"amenity": "charging_station", "brand": "Enel", "brand:wikidata": "Q651222", "name": "Enel - stazione di ricarica", "operator": "Enel", "operator:wikidata": "Q651222", "ref:enel:code": "ENEL_00000165", "ref:enel:serial_number": "N.11CP21T2B02C000101"}}, {"type": "node", "id": 2401540499, "lat": 41.9333813, "lon": 12.5119928, "tags": {"amenity": "charging_station", "brand": "Enel", "name": "Enel - stazione di ricarica", "ref:enel:code": "ENEL_00000226", "ref:enel:serial_number": "N.11CP21T2B02C000114"}}, {"type": "node", "id": 2401540504, "lat": 41.85371, "lon": 12.568502, "tags": {"amenity": "charging_station", "brand": "Enel", "brand:wikidata": "Q651222", "name": "Enel - stazione di ricarica", "operator": "Enel", "operator:wikidata": "Q651222", "ref:enel:code": "ENEL_00000235", "ref:enel:serial_number": "N.11CP21T2B02C000094"}}, {"type": "node", "id": 2401540508, "lat": 41.8487573, "lon": 12.59761, "tags": {"amenity": "charging_station", "brand": "Enel", "brand:wikidata": "Q651222", "brand:wikipedia": "en:Enel", "capacity": "1", "name": "Enel", "operator": "Enel", "operator:wikidata": "Q651222", "operator:wikipedia": "en:Enel", "ref:enel:code": "ENEL_00000287;ENEL_00000164", "ref:enel:serial_number": "N.11CP21T2B02C000104;N.11CP21T2B02C000102"}}, {"type": "node", "id": 2401540591, "lat": 41.904163, "lon": 12.485597, "tags": {"amenity": "charging_station", "brand": "Enel", "brand:wikidata": "Q651222", "brand:wikipedia": "en:Enel", "capacity": "2", "name": "Enel", "operator": "Enel", "operator:wikidata": "Q651222", "operator:wikipedia": "en:Enel", "ref:enel:code": "ENEL_00000293", "ref:enel:serial_number": "N.11CP21T2B02C000109"}}, {"type": "node", "id": 2401540592, "lat": 41.85751, "lon": 12.49703, "tags": {"amenity": "charging_station", "brand": "Enel", "name": "Enel - stazione di ricarica", "ref:enel:code": "ENEL_00000294", "ref:enel:serial_number": "N.11CP21T2B02C000115"}}, {"type": "node", "id": 2401540593, "lat": 41.881905, "lon": 12.494602, "tags": {"amenity": "charging_station", "brand": "Enel", "brand:wikidata": "Q651222", "brand:wikipedia": "en:Enel", "name": "Enel - stazione di ricarica", "operator": "Enel", "operator:wikidata": "Q651222", "operator:wikipedia": "en:Enel", "ref:enel:code": "ENEL_00000299", "ref:enel:serial_number": "N.11CP21T2B02C000129"}}, {"type": "node", "id": 2401540594, "lat": 41.8819, "lon": 12.494709, "tags": {"amenity": "charging_station", "brand": "Enel", "brand:wikidata": "Q651222", "brand:wikipedia": "en:Enel", "name": "Enel - stazione di ricarica", "operator": "Enel", "operator:wikidata": "Q651222", "operator:wikipedia": "en:Enel", "ref:enel:code": "ENEL_00000300", "ref:enel:serial_number": "N.10CP21T2B02A000056"}}, {"type": "node", "id": 2401540595, "lat": 41.868732, "lon": 12.491937, "tags": {"amenity": "charging_station", "brand": "Enel", "brand:wikidata": "Q651222", "name": "Enel \u2013 stazione di ricarica", "operator": "Enel", "operator:wikidata": "Q651222", "ref:enel:code": "ENEL_00000304", "ref:enel:serial_number": "N.11CP21T2B01C000005"}}, {"type": "node", "id": 2401540596, "lat": 41.81606, "lon": 12.41205, "tags": {"amenity": "charging_station", "brand": "Enel", "name": "Enel - stazione di ricarica", "ref:enel:code": "ENEL_00000306", "ref:enel:serial_number": "N.11CP21T2B01C000007"}}, {"type": "node", "id": 2401540607, "lat": 41.8594877, "lon": 12.4951132, "tags": {"amenity": "charging_station", "brand": "Enel", "brand:wikidata": "Q651222", "brand:wikipedia": "en:Enel", "name": "Enel - stazione di ricarica", "operator": "Enel", "operator:wikidata": "Q651222", "operator:wikipedia": "en:Enel", "ref:enel:code": "ENEL_00000316", "ref:enel:serial_number": "N.11CP21T2B02C000123"}}, {"type": "node", "id": 2401540691, "lat": 41.85953, "lon": 12.495063, "tags": {"amenity": "charging_station", "brand": "Enel", "brand:wikidata": "Q651222", "brand:wikipedia": "en:Enel", "name": "Enel - stazione di ricarica", "operator": "Enel", "operator:wikidata": "Q651222", "operator:wikipedia": "en:Enel", "ref:enel:code": "ENEL_00000374", "ref:enel:serial_number": "N.11CP21T2B02C000122"}}, {"type": "node", "id": 2401540707, "lat": 41.9062714, "lon": 12.4144993, "tags": {"amenity": "charging_station", "brand": "Enel", "name": "Enel - stazione di ricarica", "ref:enel:code": "ENEL_00000381", "ref:enel:serial_number": "N.11CP21T2B02C000117"}}, {"type": "node", "id": 2401540720, "lat": 41.9063323, "lon": 12.4146486, "tags": {"amenity": "charging_station", "brand": "Enel", "brand:wikidata": "Q651222", "name": "Enel - stazione di ricarica", "operator": "Enel", "operator:wikidata": "Q651222", "ref:enel:code": "ENEL_00000382", "ref:enel:serial_number": "N.11CP21T2B02C000118"}}, {"type": "node", "id": 2401540774, "lat": 41.97523, "lon": 12.49503, "tags": {"amenity": "charging_station", "brand": "Enel", "name": "Enel - stazione di ricarica", "ref:enel:code": "ENEL_00000383", "ref:enel:serial_number": "N.11CP21T2B02C000120"}}, {"type": "node", "id": 2401540775, "lat": 41.97517, "lon": 12.49503, "tags": {"amenity": "charging_station", "brand": "Enel", "name": "Enel - stazione di ricarica", "ref:enel:code": "ENEL_00000384", "ref:enel:serial_number": "N.11CP21T2B02C000121"}}, {"type": "node", "id": 2401540782, "lat": 41.857567, "lon": 12.497149, "tags": {"amenity": "charging_station", "brand": "Enel", "name": "Enel - stazione di ricarica", "ref:enel:code": "ENEL_00000390", "ref:enel:serial_number": "N.11CP21T2B02C000124"}}, {"type": "node", "id": 2401540929, "lat": 41.910828, "lon": 12.499169, "tags": {"amenity": "charging_station", "brand": "Enel", "capacity": "4", "name": "Enel - stazione di ricarica", "ref:enel:code": "ENEL_00000405", "ref:enel:serial_number": "N.10CP21T2B02B000070"}}, {"type": "node", "id": 2401541010, "lat": 41.894344, "lon": 12.438158, "tags": {"amenity": "charging_station", "brand": "Enel", "name": "Enel - stazione di ricarica", "ref:enel:code": "ENEL_00000409", "ref:enel:serial_number": "N.11CP21T2B01C000001"}}, {"type": "node", "id": 2401541040, "lat": 41.894337, "lon": 12.438114, "tags": {"amenity": "charging_station", "brand": "Enel", "name": "Enel - stazione di ricarica", "ref:enel:code": "ENEL_00000410", "ref:enel:serial_number": "N.11CP21T2B01C000002"}}, {"type": "node", "id": 2401541111, "lat": 41.9032828, "lon": 12.4944108, "tags": {"amenity": "charging_station", "brand": "Enel X", "brand:wikidata": "Q5376815", "brand:wikipedia": "en:Enel X", "name": "Enel X", "operator": "Enel X", "operator:wikidata": "Q5376815", "operator:wikipedia": "en:Enel X", "ref:enel:code": "ENEL_00000417", "ref:enel:serial_number": "N.11CP21T2B01C000020"}}, {"type": "node", "id": 2401541249, "lat": 41.945564, "lon": 12.553284, "tags": {"amenity": "charging_station", "brand": "Enel", "name": "Enel - stazione di ricarica", "ref:enel:code": "ENEL_00000474", "ref:enel:serial_number": "N.10CP21T2B02B000067"}}, {"type": "node", "id": 2401541277, "lat": 41.8676, "lon": 12.494545, "tags": {"amenity": "charging_station", "brand": "Enel", "capacity": "2", "name": "Enel - stazione di ricarica", "ref:enel:code": "ENEL_00000475", "ref:enel:serial_number": "N.11CP21T2B01C000023"}}, {"type": "node", "id": 2401541299, "lat": 41.869125, "lon": 12.495768, "tags": {"amenity": "charging_station", "brand": "Enel", "brand:wikidata": "Q651222", "name": "Enel - stazione di ricarica", "operator": "Enel", "operator:wikidata": "Q651222", "ref:enel:code": "ENEL_00000476", "ref:enel:serial_number": "N.11CP21T2B01C000024"}}, {"type": "node", "id": 2401541358, "lat": 41.8691235, "lon": 12.4957771, "tags": {"amenity": "charging_station", "brand": "Enel", "brand:wikidata": "Q651222", "name": "Enel - stazione di ricarica", "operator": "Enel", "operator:wikidata": "Q651222", "ref:enel:code": "ENEL_00000482", "ref:enel:serial_number": "N.11CP21T2B01C000025"}}, {"type": "node", "id": 2401541359, "lat": 41.94563, "lon": 12.553344, "tags": {"amenity": "charging_station", "brand": "Enel", "name": "Enel - stazione di ricarica", "ref:enel:code": "ENEL_00000483", "ref:enel:serial_number": "N.11CP21T2B02C000107"}}, {"type": "node", "id": 2401541363, "lat": 41.832607, "lon": 12.462608, "tags": {"amenity": "charging_station", "brand": "Enel", "capacity": "2", "name": "Enel - stazione di ricarica", "ref:enel:code": "ENEL_00000489", "ref:enel:serial_number": "N.11CP21T2B01C000028"}}, {"type": "node", "id": 2401541369, "lat": 41.90249, "lon": 12.477124, "tags": {"amenity": "charging_station", "brand": "Enel", "brand:wikidata": "Q651222", "brand:wikipedia": "en:Enel", "name": "Enel", "operator": "Enel", "operator:wikidata": "Q651222", "operator:wikipedia": "en:Enel", "ref:enel:code": "ENEL_00000496", "ref:enel:serial_number": "N.11CP21T2B01C000031"}}, {"type": "node", "id": 2401541372, "lat": 41.895752, "lon": 12.455734, "tags": {"amenity": "charging_station", "brand": "Enel", "brand:wikidata": "Q651222", "name": "Enel - stazione di ricarica", "operator": "Enel", "operator:wikidata": "Q651222", "ref:enel:code": "ENEL_00000499", "ref:enel:serial_number": "N.11CP21T2B01C000029"}}, {"type": "node", "id": 2401541373, "lat": 41.89573, "lon": 12.455774, "tags": {"amenity": "charging_station", "brand": "Enel", "brand:wikidata": "Q651222", "name": "Enel - stazione di ricarica", "operator": "Enel", "operator:wikidata": "Q651222", "ref:enel:code": "ENEL_00000500", "ref:enel:serial_number": "N.11CP21T2B01C000030"}}, {"type": "node", "id": 2401541491, "lat": 41.881386, "lon": 12.561578, "tags": {"amenity": "charging_station", "brand": "Enel", "brand:wikidata": "Q651222", "name": "Enel", "operator": "Enel", "operator:wikidata": "Q651222", "ref:enel:code": "EnEnergia_00000001", "ref:enel:serial_number": "N.12ZP21T2B01C000005"}}, {"type": "node", "id": 2401541492, "lat": 41.8813, "lon": 12.5615, "tags": {"amenity": "charging_station", "brand": "Enel", "brand:wikidata": "Q651222", "name": "Enel", "operator": "Enel", "operator:wikidata": "Q651222", "ref:enel:code": "EnEnergia_00000002", "ref:enel:serial_number": "N.12ZP21T2B01C000006"}}, {"type": "node", "id": 2401541502, "lat": 41.822056, "lon": 12.47155, "tags": {"amenity": "charging_station", "brand": "Enel", "brand:wikidata": "Q651222", "brand:wikipedia": "en:Enel", "name": "Enel", "operator": "Enel", "operator:wikidata": "Q651222", "operator:wikipedia": "en:Enel", "ref:enel:code": "EnEnergia_00000007", "ref:enel:serial_number": "N.13CP21T2B01H000008"}}, {"type": "node", "id": 2401541548, "lat": 41.86656, "lon": 12.479656, "tags": {"amenity": "charging_station", "brand": "Enel", "brand:wikidata": "Q651222", "name": "Enel - stazione di ricarica", "operator": "Enel", "operator:wikidata": "Q651222", "ref:enel:code": "EnEnergia_00000014", "ref:enel:serial_number": "N.11CP21T2B02C000128"}}, {"type": "node", "id": 2418074324, "lat": 41.9165781, "lon": 12.5022528, "tags": {"amenity": "charging_station", "amperage": "32", "capacity": "2", "operator": "Enel", "voltage": "380"}}, {"type": "node", "id": 3094344196, "lat": 41.9185405, "lon": 12.4803522, "tags": {"amenity": "charging_station"}}, {"type": "node", "id": 4319599457, "lat": 41.9127082, "lon": 12.5208716, "tags": {"amenity": "charging_station"}}, {"type": "node", "id": 4714319765, "lat": 41.7309823, "lon": 12.2801525, "tags": {"amenity": "charging_station", "capacity": "2", "name": "Charging Station - Circoscrizione", "operator": "Enel", "wheelchair": "yes"}}, {"type": "node", "id": 4714321305, "lat": 41.7546192, "lon": 12.3716444, "tags": {"amenity": "charging_station", "capacity": "2", "name": "Charging Station - ESSO via Wolf Ferrari", "note": "FAST Charging Chademo, CCS, Type 2", "operator": "ESSO"}}, {"type": "node", "id": 5383621824, "lat": 41.9127457, "lon": 12.5208662, "tags": {"amenity": "charging_station"}}, {"type": "node", "id": 5435192240, "lat": 41.9050164, "lon": 12.5137207, "tags": {"amenity": "charging_station", "brand": "Enel X", "brand:wikidata": "Q5376815", "fee": "yes", "level": "0", "name": "Enel X", "opening_hours": "24/7", "operator": "Enel X", "operator:wikidata": "Q5376815"}}, {"type": "node", "id": 5435192253, "lat": 41.9038594, "lon": 12.5022915, "tags": {"amenity": "charging_station", "brand": "Enel", "brand:wikidata": "Q651222", "brand:wikipedia": "en:Enel", "capacity": "4", "name": "Enel", "operator": "Enel", "operator:wikidata": "Q651222", "operator:wikipedia": "en:Enel"}}, {"type": "node", "id": 5898474985, "lat": 41.9373767, "lon": 12.4743845, "tags": {"amenity": "charging_station", "brand": "Enel X", "brand:wikidata": "Q5376815", "name": "Enel X", "operator": "Enel X", "operator:wikidata": "Q5376815"}}, {"type": "node", "id": 6154041954, "lat": 41.9205603, "lon": 12.2400733, "tags": {"amenity": "charging_station"}}, {"type": "node", "id": 7106609620, "lat": 41.8267992, "lon": 12.45463, "tags": {"amenity": "charging_station", "capacity": "2", "motorcar": "yes", "operator": "Enel"}}, {"type": "node", "id": 7106609621, "lat": 41.8268584, "lon": 12.454565, "tags": {"amenity": "charging_station", "capacity": "2", "motorcar": "yes", "operator": "Enel"}}, {"type": "node", "id": 7116551797, "lat": 41.8305529, "lon": 12.4649386, "tags": {"amenity": "charging_station", "capacity": "2", "motorcar": "yes", "operator": "Enel"}}, {"type": "node", "id": 7124091330, "lat": 41.8305071, "lon": 12.4650809, "tags": {"amenity": "charging_station", "capacity": "2", "motorcar": "yes", "operator": "Enel"}}, {"type": "node", "id": 8048815082, "lat": 41.9182171, "lon": 12.5118381, "tags": {"access": "yes", "amenity": "charging_station", "capacity": "2", "charge": "0,40 EUR/kWh", "fee": "yes", "name": "Colonnina Enel-X 22+3kW", "operator": "Enel-X"}}, {"type": "node", "id": 8048815083, "lat": 41.9182061, "lon": 12.5118596, "tags": {"access": "yes", "amenity": "charging_station", "capacity": "2", "charge": "0,40 EUR/kWh", "fee": "yes", "name": "Colonnina Enel-X 3+3kW", "operator": "Enel-X"}}, {"type": "node", "id": 8510145874, "lat": 41.9450374, "lon": 12.4695545, "tags": {"access": "yes", "amenity": "charging_station", "brand": "Enel", "brand:wikidata": "Q651222", "brand:wikipedia": "en:Enel", "name": "Enel X Store", "operator": "Enel", "source": "https://www.alvolante.it/news/apre-roma-il-primo-enel-x-store-ricarica-ultraveloce-372497"}}, {"type": "node", "id": 8794679348, "lat": 41.8487652, "lon": 12.5975401, "tags": {"amenity": "charging_station", "brand": "Enel", "brand:wikidata": "Q651222", "brand:wikipedia": "en:Enel", "capacity": "2", "name": "Enel", "operator": "Enel", "operator:wikidata": "Q651222", "operator:wikipedia": "en:Enel", "ref:enel:code": "ENEL_00000287;ENEL_00000164", "ref:enel:serial_number": "N.11CP21T2B02C000104;N.11CP21T2B02C000102"}}, {"type": "node", "id": 8794679350, "lat": 41.8511915, "lon": 12.5908541, "tags": {"access": "yes", "amenity": "charging_station", "brand": "Enel", "brand:wikidata": "Q651222", "brand:wikipedia": "en:Enel", "capacity": "2", "name": "Enel", "operator": "Enel", "operator:wikidata": "Q651222", "operator:wikipedia": "en:Enel", "ref:enel:code": "ENEL_00000287;ENEL_00000164", "ref:enel:serial_number": "N.11CP21T2B02C000104;N.11CP21T2B02C000102"}}, {"type": "node", "id": 8794679351, "lat": 41.8512991, "lon": 12.5908311, "tags": {"access": "yes", "amenity": "charging_station", "brand": "Enel", "brand:wikidata": "Q651222", "brand:wikipedia": "en:Enel", "capacity": "2", "name": "Enel", "operator": "Enel", "operator:wikidata": "Q651222", "operator:wikipedia": "en:Enel", "ref:enel:code": "ENEL_00000287;ENEL_00000164", "ref:enel:serial_number": "N.11CP21T2B02C000104;N.11CP21T2B02C000102"}}, {"type": "node", "id": 8824016122, "lat": 41.8749163, "lon": 12.5235017, "tags": {"amenity": "charging_station", "brand": "Enel", "brand:wikidata": "Q651222", "brand:wikipedia": "en:Enel", "capacity": "1", "name": "Enel", "operator": "Enel", "operator:wikidata": "Q651222", "operator:wikipedia": "en:Enel", "ref:enel:code": "ENEL_00000287;ENEL_00000164", "ref:enel:serial_number": "N.11CP21T2B02C000104;N.11CP21T2B02C000102"}}, {"type": "node", "id": 8824016123, "lat": 41.874945, "lon": 12.5235468, "tags": {"amenity": "charging_station", "brand": "Enel", "brand:wikidata": "Q651222", "brand:wikipedia": "en:Enel", "capacity": "1", "name": "Enel", "operator": "Enel", "operator:wikidata": "Q651222", "operator:wikipedia": "en:Enel", "ref:enel:code": "ENEL_00000287;ENEL_00000164", "ref:enel:serial_number": "N.11CP21T2B02C000104;N.11CP21T2B02C000102"}}, {"type": "node", "id": 8882192024, "lat": 41.8159994, "lon": 12.4009774, "tags": {"amenity": "charging_station", "brand": "Tesla Supercharger", "brand:wikidata": "Q17089620", "capacity": "8", "covered": "yes", "fee": "yes", "name": "Roma West Supercharger", "opening_hours": "24/7", "operator": "Tesla, Inc.", "socket:tesla_supercharger_ccs": "8", "socket:tesla_supercharger_ccs:output": "250 kW", "website": "https://www.tesla.com/findus/location/supercharger/romewestsupercharger"}}, {"type": "node", "id": 8909099302, "lat": 41.9584805, "lon": 12.545943, "tags": {"amenity": "charging_station", "brand": "EnelX", "covered": "no", "level": "1", "name": "EnelX Via della Buffalotta 451"}}, {"type": "node", "id": 9024339155, "lat": 41.8680104, "lon": 12.5974354, "tags": {"amenity": "charging_station", "brand": "Enel", "brand:wikidata": "Q651222", "brand:wikipedia": "en:Enel", "capacity": "2", "name": "Enel", "operator": "Enel", "operator:wikidata": "Q651222", "operator:wikipedia": "en:Enel"}}, {"type": "node", "id": 9024339156, "lat": 41.8679938, "lon": 12.5974751, "tags": {"amenity": "charging_station", "brand": "Enel", "brand:wikidata": "Q651222", "brand:wikipedia": "en:Enel", "capacity": "2", "name": "Enel", "operator": "Enel", "operator:wikidata": "Q651222", "operator:wikipedia": "en:Enel"}}, {"type": "node", "id": 9024339157, "lat": 41.8487727, "lon": 12.5974763, "tags": {"amenity": "charging_station", "brand": "Enel", "brand:wikidata": "Q651222", "brand:wikipedia": "en:Enel", "capacity": "2", "name": "Enel", "operator": "Enel", "operator:wikidata": "Q651222", "operator:wikipedia": "en:Enel", "ref:enel:code": "ENEL_00000287;ENEL_00000164", "ref:enel:serial_number": "N.11CP21T2B02C000104;N.11CP21T2B02C000102"}}, {"type": "node", "id": 9082053145, "lat": 41.8170284, "lon": 12.453521, "tags": {"amenity": "charging_station", "motorcar": "yes", "operator": "Enel X"}}, {"type": "node", "id": 9171087900, "lat": 41.8507617, "lon": 12.4774245, "tags": {"amenity": "charging_station", "brand": "enelx", "note": "400Vac 50Hz 48A 3P+N+PE", "operator": "Enel"}}, {"type": "node", "id": 9186765123, "lat": 41.7997956, "lon": 12.4311033, "tags": {"access": "yes", "amenity": "charging_station", "brand": "Enel X", "brand:wikidata": "Q5376815", "brand:wikipedia": "en:Enel X", "capacity": "4", "charge": "0", "description": "Due colonnine EnelX ognuna con 2 prese di ricarica di tipo 2 (Type 2) Funzionano bene", "fee": "yes", "name": "Enel X", "operator": "Enel X", "operator:wikidata": "Q5376815", "operator:wikipedia": "en:Enel X"}}, {"type": "node", "id": 9207236270, "lat": 41.8519817, "lon": 12.4747651, "tags": {"access": "private", "amenity": "charging_station"}}, {"type": "node", "id": 9207236271, "lat": 41.8520015, "lon": 12.474782, "tags": {"access": "private", "amenity": "charging_station"}}, {"type": "node", "id": 9207236272, "lat": 41.8520232, "lon": 12.4747961, "tags": {"access": "private", "amenity": "charging_station"}}, {"type": "node", "id": 9207236273, "lat": 41.8520417, "lon": 12.4748147, "tags": {"access": "private", "amenity": "charging_station"}}, {"type": "node", "id": 9207236274, "lat": 41.8520582, "lon": 12.4748297, "tags": {"access": "private", "amenity": "charging_station"}}, {"type": "node", "id": 9207236275, "lat": 41.8520971, "lon": 12.4748589, "tags": {"access": "private", "amenity": "charging_station"}}, {"type": "node", "id": 9207236276, "lat": 41.8521168, "lon": 12.4748775, "tags": {"access": "private", "amenity": "charging_station"}}, {"type": "node", "id": 9404372557, "lat": 41.8520462, "lon": 12.4780278, "tags": {"amenity": "charging_station", "capacity": "3", "fee": "yes", "operator": "Acea energia"}}, {"type": "node", "id": 9667481039, "lat": 41.7162261, "lon": 12.315823, "tags": {"amenity": "charging_station", "brand": "Enel X", "capacity": "2", "fee": "yes", "motorcar": "yes", "name": "Enel X", "opening_hours": "24/7", "operator": "Enel X", "operator:wikidata": "Q5376815", "operator:wikipedia": "en:Enel X"}}, {"type": "node", "id": 9700666712, "lat": 41.9569415, "lon": 12.5602808, "tags": {"amenity": "charging_station"}}, {"type": "node", "id": 9700666713, "lat": 41.956991, "lon": 12.5602652}, {"type": "node", "id": 9700666714, "lat": 41.9569847, "lon": 12.56029}, {"type": "node", "id": 9700666715, "lat": 41.956896, "lon": 12.5602626}, {"type": "node", "id": 9700666716, "lat": 41.9569008, "lon": 12.5602352}, {"type": "node", "id": 9700672455, "lat": 41.9579377, "lon": 12.5605796, "tags": {"access": "permit", "amenity": "charging_station", "capacity": "1"}}, {"type": "node", "id": 9784529389, "lat": 41.9015169, "lon": 12.5034303, "tags": {"amenity": "charging_station", "brand": "Enel X", "brand:wikidata": "Q5376815", "fee": "yes", "level": "0", "name": "Enel X", "opening_hours": "24/7", "operator": "Enel X", "operator:wikidata": "Q5376815", "socket:type2": "2"}}, {"type": "node", "id": 9796558183, "lat": 41.8592726, "lon": 12.4935694, "tags": {"amenity": "charging_station"}}, {"type": "node", "id": 9831264733, "lat": 41.8507124, "lon": 12.5928228, "tags": {"amenity": "charging_station", "capacity": "2", "operator": "Acea"}}, {"type": "node", "id": 9831264734, "lat": 41.8506986, "lon": 12.5927251, "tags": {"amenity": "charging_station", "capacity": "2", "operator": "Acea"}}, {"type": "node", "id": 9839468043, "lat": 41.8246596, "lon": 12.4793892, "tags": {"amenity": "charging_station", "operator": "Enel X"}}, {"type": "node", "id": 9857151174, "lat": 41.8345031, "lon": 12.5959193, "tags": {"amenity": "charging_station"}}, {"type": "node", "id": 9857151175, "lat": 41.8344818, "lon": 12.595967, "tags": {"amenity": "charging_station"}}, {"type": "node", "id": 9857215733, "lat": 41.8508423, "lon": 12.5909145, "tags": {"amenity": "charging_station", "capacity": "2"}}, {"type": "node", "id": 9857215734, "lat": 41.8508079, "lon": 12.5909222, "tags": {"amenity": "charging_station", "capacity": "2"}}, {"type": "node", "id": 9964752720, "lat": 41.8174648, "lon": 12.3450166, "tags": {"amenity": "charging_station", "bicycle": "yes", "description": "Komoot App e-bike Station de charge https://www.komoot.com/collection/1840155", "network": "DINAclub", "operator": "Repower", "operator:wikidata": "Q674712", "operator:wikipedia": "it:Repower", "website": "https://www.repower.com/it/dina/"}}, {"type": "node", "id": 10042607697, "lat": 41.8598269, "lon": 12.4916157, "tags": {"amenity": "charging_station"}}, {"type": "node", "id": 10050981574, "lat": 41.8284276, "lon": 12.4738685, "tags": {"amenity": "charging_station"}}, {"type": "node", "id": 10050981575, "lat": 41.8294447, "lon": 12.4734199, "tags": {"amenity": "charging_station"}}, {"type": "node", "id": 10094542733, "lat": 41.8462646, "lon": 12.6141723, "tags": {"amenity": "charging_station", "brand": "Enel X", "capacity": "2", "fee": "yes", "motorcar": "yes", "name": "Enel X", "opening_hours": "24/7", "operator": "Enel X", "operator:wikidata": "Q5376815"}}, {"type": "node", "id": 10094542736, "lat": 41.846299, "lon": 12.6140754, "tags": {"amenity": "charging_station", "brand": "Enel X", "capacity": "2", "fee": "yes", "motorcar": "yes", "name": "Enel X", "opening_hours": "24/7", "operator": "Enel X", "operator:wikidata": "Q5376815"}}, {"type": "node", "id": 10131046703, "lat": 41.903738, "lon": 12.5097124, "tags": {"amenity": "charging_station", "brand": "Enel X", "fee": "yes", "level": "0", "motorcar": "yes", "name": "Enel X", "opening_hours": "24/7", "operator": "Enel X", "operator:wikidata": "Q5376815"}}, {"type": "node", "id": 10131046706, "lat": 41.9036781, "lon": 12.5095079, "tags": {"amenity": "charging_station", "brand": "Enel X", "fee": "yes", "level": "0", "motorcar": "yes", "name": "Enel X", "opening_hours": "24/7", "operator": "Enel X", "operator:wikidata": "Q5376815"}}, {"type": "node", "id": 10131098054, "lat": 41.9050307, "lon": 12.5137886, "tags": {"amenity": "charging_station", "brand": "Enel X", "brand:wikidata": "Q5376815", "fee": "yes", "level": "0", "name": "Enel X", "opening_hours": "24/7", "operator": "Enel X", "operator:wikidata": "Q5376815"}}, {"type": "node", "id": 10131105455, "lat": 41.9051492, "lon": 12.5140548, "tags": {"amenity": "charging_station", "fee": "yes", "level": "0", "name": "Be Charge", "opening_hours": "24/7", "operator": "Be Charge", "operator:wikidata": "Q113289535"}}, {"type": "node", "id": 10131129031, "lat": 41.9048423, "lon": 12.5130413, "tags": {"amenity": "charging_station", "fee": "yes", "level": "0", "name": "Acea", "opening_hours": "24/7", "operator": "Acea"}}, {"type": "node", "id": 10131129033, "lat": 41.9048484, "lon": 12.513097, "tags": {"amenity": "charging_station", "fee": "yes", "level": "0", "name": "Acea", "opening_hours": "24/7", "operator": "Acea"}}, {"type": "node", "id": 10217113117, "lat": 41.9950396, "lon": 12.4821971, "tags": {"addr:housenumber": "34", "addr:postcode": "00188", "addr:street": "Via Magnano in Riviera", "amenity": "charging_station", "name": "Enel X Stazione di Ricarica", "website": "https://www.enelx.com/it/it/mappa-stazioni-ricarica"}}, {"type": "node", "id": 10436461635, "lat": 41.8986908, "lon": 12.4477602, "tags": {"access": "customers", "amenity": "charging_station", "capacity": "2", "name": "ABB", "operator": "ABB", "operator:wikidata": "Q52825"}}, {"type": "node", "id": 10436513837, "lat": 41.8986934, "lon": 12.4479026, "tags": {"access": "customers", "amenity": "charging_station", "capacity": "2", "name": "ABB", "operator": "ABB", "operator:wikidata": "Q52825"}}, {"type": "node", "id": 10565011394, "lat": 41.6756651, "lon": 12.4968787, "tags": {"access": "yes", "amenity": "charging_station", "brand": "Enel X", "brand:wikidata": "Q5376815", "capacity": "22.8", "covered": "no", "description": "1x Connettore Tipo 2: 22.8 kW\n1x Connettore sconosciuto:\u00b7 4.1 kW\n\nTelefono: +39800069850", "name": "Enel X", "operator": "Enel X", "operator:wikidata": "Q5376815", "website": "https://www.enelx.com/", "wikidata": "Q2140665", "wikipedia": "it:Stazione di ricarica per veicoli elettrici"}}, {"type": "node", "id": 10565047983, "lat": 41.6722446, "lon": 12.4979704, "tags": {"access": "yes", "amenity": "charging_station", "brand": "Enel X", "brand:wikidata": "Q5376815", "capacity": "22.8", "covered": "no", "description": "1x Connettore Tipo 2: 22.8 kW\n1x Connettore sconosciuto:\u00b7 4.1 kW\n\nTelefono: +39800069850", "name": "Enel X", "operator": "Enel X", "operator:wikidata": "Q5376815", "website": "https://www.enelx.com/", "wikidata": "Q2140665", "wikipedia": "it:Stazione di ricarica per veicoli elettrici"}}, {"type": "node", "id": 10565069070, "lat": 41.6789943, "lon": 12.5014821, "tags": {"access": "yes", "amenity": "charging_station", "brand": "Enel X", "brand:wikidata": "Q5376815", "capacity": "22.8", "covered": "no", "description": "1x Connettore Tipo 2: 22.8 kW\n1x Connettore sconosciuto:\u00b7 4.1 kW\n\nTelefono: +39800069850", "name": "Enel X", "operator": "Enel X", "operator:wikidata": "Q5376815", "website": "https://www.enelx.com/", "wikidata": "Q2140665", "wikipedia": "it:Stazione di ricarica per veicoli elettrici"}}, {"type": "node", "id": 10565103783, "lat": 41.6749792, "lon": 12.49975, "tags": {"access": "yes", "amenity": "charging_station", "brand": "Enel X", "brand:wikidata": "Q5376815", "capacity": "22.8", "covered": "no", "description": "1x Connettore Tipo 2: 22.8 kW\n1x Connettore sconosciuto:\u00b7 4.1 kW\n\nTelefono: +39800069850", "name": "Enel X", "operator": "Enel X", "operator:wikidata": "Q5376815", "website": "https://www.enelx.com/", "wikidata": "Q2140665", "wikipedia": "it:Stazione di ricarica per veicoli elettrici"}}, {"type": "node", "id": 10565113080, "lat": 41.6731096, "lon": 12.4993489, "tags": {"access": "yes", "amenity": "charging_station", "brand": "Enel X", "brand:wikidata": "Q5376815", "capacity": "22.8", "covered": "no", "description": "1x Connettore Tipo 2: 22.8 kW\n1x Connettore sconosciuto:\u00b7 4.1 kW\n\nTelefono: +39800069850", "name": "Enel X", "operator": "Enel X", "operator:wikidata": "Q5376815", "website": "https://www.enelx.com/", "wikidata": "Q2140665", "wikipedia": "it:Stazione di ricarica per veicoli elettrici"}}, {"type": "node", "id": 10565123433, "lat": 41.6819566, "lon": 12.5073599, "tags": {"access": "yes", "amenity": "charging_station", "brand": "Enel X", "brand:wikidata": "Q5376815", "capacity": "22.8", "covered": "no", "description": "1x Connettore Tipo 2: 22.8 kW\n1x Connettore sconosciuto:\u00b7 4.1 kW\n\nTelefono: +39800069850", "name": "Enel X", "operator": "Enel X", "operator:wikidata": "Q5376815", "website": "https://www.enelx.com/", "wikidata": "Q2140665", "wikipedia": "it:Stazione di ricarica per veicoli elettrici"}}, {"type": "node", "id": 10565130744, "lat": 41.6811404, "lon": 12.5035099, "tags": {"access": "yes", "amenity": "charging_station", "brand": "Enel X", "brand:wikidata": "Q5376815", "capacity": "22.8", "covered": "no", "description": "1x Connettore Tipo 2: 22.8 kW\n1x Connettore sconosciuto:\u00b7 4.1 kW\n\nTelefono: +39800069850", "name": "Enel X", "operator": "Enel X", "operator:wikidata": "Q5376815", "website": "https://www.enelx.com/", "wikidata": "Q2140665", "wikipedia": "it:Stazione di ricarica per veicoli elettrici"}}, {"type": "node", "id": 10565131630, "lat": 41.7073376, "lon": 12.5687872, "tags": {"access": "yes", "amenity": "charging_station", "brand": "Enel X", "brand:wikidata": "Q5376815", "capacity": "22.8", "covered": "no", "description": "1x Connettore Tipo 2: 22.8 kW\n1x Connettore sconosciuto:\u00b7 4.1 kW\n\nTelefono: +39800069850", "name": "Enel X", "operator": "Enel X", "operator:wikidata": "Q5376815", "website": "https://www.enelx.com/", "wikidata": "Q2140665", "wikipedia": "it:Stazione di ricarica per veicoli elettrici"}}, {"type": "node", "id": 10565253875, "lat": 41.7100608, "lon": 12.5669383, "tags": {"access": "yes", "amenity": "charging_station", "brand": "Enel X", "brand:wikidata": "Q5376815", "capacity": "22.8", "covered": "no", "description": "1x Connettore Tipo 2: 22.8 kW\n1x Connettore sconosciuto:\u00b7 4.1 kW\n\nTelefono: +39800069850", "name": "Enel X", "operator": "Enel X", "operator:wikidata": "Q5376815", "website": "https://www.enelx.com/", "wikidata": "Q2140665", "wikipedia": "it:Stazione di ricarica per veicoli elettrici"}}, {"type": "node", "id": 10574184891, "lat": 41.8628031, "lon": 12.4658249, "tags": {"access": "yes", "amenity": "charging_station", "brand": "Enel X", "brand:wikidata": "Q5376815", "description": "it_IT: referenze https://it.wikipedia.org/wiki/Stazione_di_ricarica_per_veicoli_elettrici , tipologie di presa Type 3A e Type 2", "name": "Enel X", "operator": "Enel X", "operator:wikidata": "Q5376815", "socket:type2_cable": "1", "socket:type2_cable:output": "22.8 kW", "socket:type3a_cable": "1", "socket:type3a_cable:output": "4.1 kW"}}, {"type": "node", "id": 10574184892, "lat": 41.8628185, "lon": 12.4658777, "tags": {"access": "yes", "amenity": "charging_station", "brand": "Enel X", "brand:wikidata": "Q5376815", "description": "it_IT: referenze https://it.wikipedia.org/wiki/Stazione_di_ricarica_per_veicoli_elettrici , tipologie di presa Type 3A e Type 2", "name": "Enel X", "operator": "Enel X", "operator:wikidata": "Q5376815", "socket:type2_cable": "1", "socket:type2_cable:output": "22.8 kW", "socket:type3a_cable": "1", "socket:type3a_cable:output": "4.1 kW"}}, {"type": "node", "id": 10678766425, "lat": 41.8896084, "lon": 12.7584497, "tags": {"access": "yes", "amenity": "charging_station", "brand": "Free to X", "fee": "yes", "operator": "Free to X", "source": "https://www.facebook.com/FreeToX", "start_date": "2023-02-17"}}, {"type": "node", "id": 10862580319, "lat": 41.8939552, "lon": 12.5301952, "tags": {"access": "yes", "amenity": "charging_station", "brand": "Pradella Sistemi srl", "fee": "no", "fixme": "sta in mezzo ai binari?", "name": "Charge Point - PradellaSistemi", "operator": "Pradella Sistemi srl"}}, {"type": "node", "id": 10862580356, "lat": 41.8938522, "lon": 12.5224285, "tags": {"access": "yes", "amenity": "charging_station", "brand": "Pradella Sistemi srl", "fee": "no", "name": "Charge Point - PradellaSistemi", "operator": "Pradella Sistemi srl"}}, {"type": "node", "id": 10862580358, "lat": 41.8950771, "lon": 12.5245168, "tags": {"access": "yes", "amenity": "charging_station", "brand": "Pradella Sistemi srl", "fee": "no", "name": "Charge Point - PradellaSistemi", "operator": "Pradella Sistemi srl"}}, {"type": "node", "id": 10862580360, "lat": 41.8941879, "lon": 12.5237436, "tags": {"access": "yes", "amenity": "charging_station", "brand": "Pradella Sistemi srl", "fee": "no", "name": "Charge Point - PradellaSistemi", "operator": "Pradella Sistemi srl"}}, {"type": "node", "id": 10862580515, "lat": 41.8920975, "lon": 12.5290651, "tags": {"access": "yes", "amenity": "charging_station", "brand": "Pradella Sistemi srl", "fee": "no", "fixme": "sta in mezzo al parco?", "name": "Charge Point - PradellaSistemi", "operator": "Pradella Sistemi srl"}}, {"type": "node", "id": 10862580516, "lat": 41.8940582, "lon": 12.5285749, "tags": {"access": "yes", "amenity": "charging_station", "brand": "Pradella Sistemi srl", "fee": "no", "fixme": "sta in mezzo ai binari?", "name": "Charge Point - PradellaSistemi", "operator": "Pradella Sistemi srl"}}, {"type": "node", "id": 10921332379, "lat": 41.8824712, "lon": 12.5132447, "tags": {"amenity": "charging_station"}}, {"type": "node", "id": 10943834684, "lat": 41.8816694, "lon": 12.3540067, "tags": {"amenity": "charging_station"}}, {"type": "node", "id": 10943834685, "lat": 41.8816211, "lon": 12.3540111, "tags": {"amenity": "charging_station"}}, {"type": "node", "id": 11003067830, "lat": 41.9283707, "lon": 12.4783159, "tags": {"amenity": "charging_station", "brand": "Enel Way"}}, {"type": "node", "id": 11153703735, "lat": 41.8869945, "lon": 12.5427681, "tags": {"amenity": "charging_station"}}, {"type": "node", "id": 11261979873, "lat": 41.9036866, "lon": 12.6618202, "tags": {"access": "yes", "amenity": "charging_station", "bicycle": "no", "brand": "Enel X", "brand:wikidata": "Q5376815", "bus": "no", "capacity": "2", "email": "enelxway.italy.support@enel.com", "fee": "yes", "hgv": "no", "motorcar": "yes", "name": "Enel X", "network": "Enel X", "opening_hours": "24/7", "operator": "Enel X", "operator:wikidata": "Q5376815", "parking:fee": "no", "payment:app": "yes", "payment:cards": "no", "payment:cash": "no", "payment:membership_card": "yes", "payment:qr_code": "no", "phone": "+39 800 069 850", "ref": "20XM32T7KK4AR00081", "scooter": "no", "socket:chademo": "1", "socket:chademo:current": "120 A", "socket:chademo:output": "50 kW", "socket:chademo:voltage": "500 V", "socket:type2": "1", "socket:type2:output": "22 kW", "socket:type2_combo": "1", "socket:type2_combo:output": "50 kW", "source": "local knowledge", "website": "https://plugshare.com/location/518506"}}, {"type": "node", "id": 11262015417, "lat": 41.9123908, "lon": 12.661143, "tags": {"access": "yes", "amenity": "charging_station", "brand": "Acea", "capacity": "2", "fee": "yes", "operator": "Acea Innovation Srl", "source": "local knowledge", "website": "https://plugshare.com/location/518510"}}, {"type": "node", "id": 11262015939, "lat": 41.9091568, "lon": 12.6553871, "tags": {"access": "yes", "amenity": "charging_station", "bicycle": "no", "brand": "Acea - Stazione di Ricarica", "bus": "no", "capacity": "2", "email": "e-mobilitysolutions@aceaspa.it", "fee": "yes", "hgv": "no", "motorcar": "yes", "network": "Acea Energia", "opening_hours": "24/7", "operator": "Acea Innovation Srl", "parking:fee": "no", "payment:app": "yes", "payment:cards": "no", "payment:cash": "no", "payment:membership_card": "yes", "payment:qr_code": "no", "phone": "+39 800 555 333", "ref": "AI_RS_FCCT_21-05_00060", "scooter": "no", "socket:chademo": "1", "socket:chademo:output": "50 kW", "socket:type2": "1", "socket:type2:output": "22 kW", "socket:type2_combo": "1", "socket:type2_combo:output": "50 kW", "source": "local knowledge", "website": "https://plugshare.com/location/518506"}}, {"type": "node", "id": 11381153191, "lat": 41.8905333, "lon": 12.3827281, "tags": {"amenity": "charging_station", "capacity": "2", "operator": "Acea Innovation", "socket:type2": "1", "socket:type2:output": "22 kW", "socket:type3a": "1", "socket:type3a:output": "3 kW"}}, {"type": "node", "id": 11381153192, "lat": 41.8905814, "lon": 12.3827675, "tags": {"amenity": "charging_station", "capacity": "2", "operator": "Acea Innovation", "socket:type2": "1", "socket:type2:output": "22 kW", "socket:type3a": "1", "socket:type3a:output": "3 kW"}}, {"type": "node", "id": 11494569326, "lat": 41.7988722, "lon": 12.591449, "tags": {"access": "customers", "amenity": "charging_station", "covered": "yes", "fee": "no", "level": "0"}}, {"type": "node", "id": 11518333002, "lat": 41.9065741, "lon": 12.5891977, "tags": {"access": "private", "amenity": "charging_station", "brand": "Enel", "fee": "yes", "operator": "Enel"}}, {"type": "node", "id": 11729993589, "lat": 41.8957331, "lon": 12.5054103, "tags": {"amenity": "charging_station", "capacity": "2", "socket:type2": "2"}}, {"type": "node", "id": 11778091672, "lat": 41.798082, "lon": 12.2971151, "tags": {"amenity": "charging_station", "amperage": "16", "authentication:none": "yes", "bicycle": "yes", "capacity": "4", "covered": "yes", "fee": "no", "opening_hours": "24/7", "operator": "The Wow Side Shopping Centre", "voltage": "230"}}, {"type": "node", "id": 11791993493, "lat": 42.07652, "lon": 12.2888482, "tags": {"amenity": "charging_station", "capacity": "2", "operator": "Enel X Way"}}, {"type": "node", "id": 11793678009, "lat": 41.7982928, "lon": 12.3008344, "tags": {"amenity": "charging_station", "capacity": "2", "operator": "Enel X Way"}}, {"type": "node", "id": 11793678010, "lat": 41.7983255, "lon": 12.300912, "tags": {"amenity": "charging_station", "capacity": "2", "operator": "Enel X Way"}}, {"type": "node", "id": 11793944216, "lat": 41.9023349, "lon": 12.4509686, "tags": {"amenity": "charging_station", "capacity": "2", "operator": "Enel X"}}, {"type": "node", "id": 11793954739, "lat": 41.9020821, "lon": 12.4510377, "tags": {"amenity": "charging_station", "capacity": "2", "operator": "Enel X"}}, {"type": "node", "id": 11795126418, "lat": 41.8756159, "lon": 12.4715059, "tags": {"amenity": "charging_station", "capacity": "2"}}, {"type": "node", "id": 11795160961, "lat": 41.8755955, "lon": 12.4714408, "tags": {"amenity": "charging_station", "capacity": "2"}}, {"type": "node", "id": 11795162294, "lat": 41.8754401, "lon": 12.4842371, "tags": {"amenity": "charging_station", "capacity": "2", "operator": "Acea energia"}}, {"type": "node", "id": 11795170487, "lat": 41.8754745, "lon": 12.4841983, "tags": {"amenity": "charging_station", "capacity": "2", "operator": "Acea energia"}}, {"type": "node", "id": 11795176333, "lat": 41.8744322, "lon": 12.4861252, "tags": {"amenity": "charging_station", "capacity": "2", "operator": "Be Charge", "operator:wikidata": "Q113289535"}}, {"type": "node", "id": 11795182149, "lat": 41.8744088, "lon": 12.485611, "tags": {"amenity": "charging_station", "brand": "Enel X", "brand:wikidata": "Q5376815", "capacity": "2", "name": "Enel X", "operator": "Enel X", "operator:wikidata": "Q5376815"}}, {"type": "node", "id": 11795190290, "lat": 41.8743962, "lon": 12.4855964, "tags": {"amenity": "charging_station", "brand": "Enel X", "brand:wikidata": "Q5376815", "capacity": "2", "name": "Enel X", "operator": "Enel X", "operator:wikidata": "Q5376815"}}, {"type": "node", "id": 11795195974, "lat": 41.8743903, "lon": 12.4861981, "tags": {"amenity": "charging_station", "capacity": "2", "operator": "Be Charge", "operator:wikidata": "Q113289535"}}, {"type": "node", "id": 11795198735, "lat": 41.8734195, "lon": 12.524358, "tags": {"amenity": "charging_station", "capacity": "2", "operator": "Enel X Way"}}, {"type": "node", "id": 11795208867, "lat": 41.8760526, "lon": 12.5209931, "tags": {"amenity": "charging_station", "capacity": "2", "operator": "Enel X Way"}}, {"type": "node", "id": 11795230137, "lat": 41.8760171, "lon": 12.5210384, "tags": {"amenity": "charging_station", "capacity": "2", "operator": "Enel X Way"}}, {"type": "node", "id": 11795242106, "lat": 41.8734009, "lon": 12.5243802, "tags": {"amenity": "charging_station", "capacity": "2", "operator": "Enel X Way"}}, {"type": "node", "id": 11795242983, "lat": 41.8734539, "lon": 12.5243118, "tags": {"amenity": "charging_station", "capacity": "2", "operator": "Enel X Way"}}, {"type": "node", "id": 11795342387, "lat": 41.8459797, "lon": 12.61462, "tags": {"amenity": "charging_station", "capacity": "2", "operator": "Acea energia"}}, {"type": "node", "id": 11795352541, "lat": 41.8472381, "lon": 12.6052473, "tags": {"amenity": "charging_station", "capacity": "2"}}, {"type": "node", "id": 11795353216, "lat": 41.8459646, "lon": 12.6146747, "tags": {"amenity": "charging_station", "capacity": "2", "operator": "Acea energia"}}, {"type": "node", "id": 11795396647, "lat": 41.8472834, "lon": 12.6061043, "tags": {"amenity": "charging_station", "capacity": "2", "operator": "Acea energia"}}, {"type": "node", "id": 11795405506, "lat": 41.8473788, "lon": 12.6061576, "tags": {"amenity": "charging_station", "capacity": "2", "operator": "Acea energia"}}, {"type": "node", "id": 11795418671, "lat": 41.8474893, "lon": 12.6062227, "tags": {"amenity": "charging_station", "capacity": "2", "operator": "Enel X Way"}}, {"type": "node", "id": 11909947446, "lat": 41.8698698, "lon": 12.5839999, "tags": {"amenity": "charging_station", "brand": "Ionity", "brand:wikidata": "Q42717773", "capacity": "1", "operator": "Ionity"}}, {"type": "node", "id": 11909965752, "lat": 41.8698881, "lon": 12.5840199, "tags": {"amenity": "charging_station", "brand": "Ionity", "brand:wikidata": "Q42717773", "capacity": "1", "operator": "Ionity"}}, {"type": "node", "id": 11909981039, "lat": 41.8698274, "lon": 12.583984, "tags": {"amenity": "charging_station", "brand": "Ionity", "brand:wikidata": "Q42717773", "capacity": "1", "operator": "Ionity"}}, {"type": "node", "id": 11909982974, "lat": 41.8698514, "lon": 12.5839942, "tags": {"amenity": "charging_station", "brand": "Ionity", "brand:wikidata": "Q42717773", "capacity": "1", "operator": "Ionity"}}, {"type": "node", "id": 11909983854, "lat": 41.8698035, "lon": 12.5840507, "tags": {"amenity": "charging_station", "brand": "Ionity", "brand:wikidata": "Q42717773", "capacity": "1", "operator": "Ionity"}}, {"type": "node", "id": 11910000984, "lat": 41.869844, "lon": 12.5840741, "tags": {"amenity": "charging_station", "brand": "Ionity", "brand:wikidata": "Q42717773", "capacity": "1", "operator": "Ionity"}}, {"type": "node", "id": 11975090332, "lat": 41.8935182, "lon": 12.4884852, "tags": {"amenity": "charging_station"}}, {"type": "node", "id": 12018239254, "lat": 41.9152614, "lon": 12.5072138, "tags": {"amenity": "charging_station"}}, {"type": "node", "id": 12095386176, "lat": 41.8598055, "lon": 12.5854219, "tags": {"amenity": "charging_station", "capacity": "2", "operator": "Be Charge", "operator:wikidata": "Q113289535"}}, {"type": "node", "id": 12096622950, "lat": 41.8081831, "lon": 12.6808488, "tags": {"amenity": "charging_station", "motor_vehicle": "yes", "network": "Ricarica 101", "operator": "Repower", "operator:wikidata": "Q674712", "operator:wikipedia": "it:Repower", "website": "https://www.repower.com/it/la-mobilita-elettrica/"}}, {"type": "node", "id": 12119134582, "lat": 41.8465187, "lon": 12.7368189, "tags": {"amenity": "charging_station"}}, {"type": "node", "id": 12123733557, "lat": 42.0825882, "lon": 12.2790189, "tags": {"access": "yes", "amenity": "charging_station", "brand": "Enel Way", "capacity": "2", "fee": "yes"}}, {"type": "node", "id": 12140230788, "lat": 41.8696898, "lon": 12.5816071, "tags": {"amenity": "charging_station", "capacity": "2", "operator": "Enel X Way"}}, {"type": "node", "id": 12140280818, "lat": 41.8702061, "lon": 12.5835979, "tags": {"amenity": "charging_station", "capacity": "2", "operator": "Enerhub"}}, {"type": "node", "id": 12142261204, "lat": 41.8254835, "lon": 12.5178777}, {"type": "node", "id": 12142261205, "lat": 41.825391, "lon": 12.5178724}, {"type": "node", "id": 12142261206, "lat": 41.825391, "lon": 12.5179327}, {"type": "node", "id": 12142261207, "lat": 41.8254835, "lon": 12.5179388}, {"type": "node", "id": 12142394343, "lat": 41.8816248, "lon": 12.5388764}, {"type": "node", "id": 12142394344, "lat": 41.8816281, "lon": 12.538851}, {"type": "node", "id": 12142394345, "lat": 41.8815612, "lon": 12.5388329}, {"type": "node", "id": 12142394346, "lat": 41.8815578, "lon": 12.5388579}, {"type": "node", "id": 12174506227, "lat": 41.8797241, "lon": 12.4586027, "tags": {"access": "yes", "amenity": "charging_station", "brand": "Enel X", "brand:wikidata": "Q5376815", "capacity": "5", "name": "Enel X", "operator": "Enel X", "operator:wikidata": "Q5376815"}}, {"type": "node", "id": 12174514260, "lat": 41.8729884, "lon": 12.4613362, "tags": {"amenity": "charging_station", "brand": "Acea", "capacity": "3", "operator": "Acea innovations"}}, {"type": "node", "id": 12174514261, "lat": 41.8758795, "lon": 12.4520722, "tags": {"amenity": "charging_station", "brand": "Acea", "capacity": "3", "operator": "Acea Innovations"}}, {"type": "node", "id": 12179807011, "lat": 41.8348163, "lon": 12.5940091, "tags": {"amenity": "charging_station", "capacity": "2", "operator": "Enel X Way"}}, {"type": "node", "id": 12184984496, "lat": 41.8744595, "lon": 12.4864907, "tags": {"access": "customers", "amenity": "charging_station", "brand": "On Charge"}}, {"type": "node", "id": 12230425333, "lat": 41.7305886, "lon": 12.2851721, "tags": {"amenity": "charging_station"}}, {"type": "node", "id": 12247271260, "lat": 41.8904393, "lon": 12.5604583, "tags": {"amenity": "charging_station", "capacity": "2"}}, {"type": "node", "id": 12288538168, "lat": 41.8653637, "lon": 12.4843689, "tags": {"amenity": "charging_station", "capacity": "2", "operator": "Enel X Way"}}, {"type": "node", "id": 12288556669, "lat": 41.8654362, "lon": 12.4843604, "tags": {"amenity": "charging_station", "capacity": "2", "operator": "Enel X Way"}}, {"type": "node", "id": 12314136841, "lat": 41.7153298, "lon": 12.4437037}, {"type": "node", "id": 12314136842, "lat": 41.7152815, "lon": 12.443649}, {"type": "node", "id": 12314136843, "lat": 41.7151936, "lon": 12.4437876}, {"type": "node", "id": 12314136844, "lat": 41.7152441, "lon": 12.4438457}, {"type": "way", "id": 1055723369, "nodes": [9700666713, 9700666714, 9700666715, 9700666716, 9700666713], "tags": {"access": "permit", "amenity": "charging_station", "capacity": "2"}}, {"type": "way", "id": 1311795648, "nodes": [12142261204, 12142261205, 12142261206, 12142261207, 12142261204], "tags": {"access": "yes", "amenity": "charging_station", "brand": "Q8", "operator": "Q8", "surface": "unpaved"}}, {"type": "way", "id": 1311815828, "nodes": [12142394343, 12142394344, 12142394345, 12142394346, 12142394343], "tags": {"access": "yes", "amenity": "charging_station", "brand": "ACEA", "operator": "ACEA"}}, {"type": "way", "id": 1330880664, "nodes": [12314136841, 12314136842, 12314136843, 12314136844, 12314136841], "tags": {"amenity": "charging_station", "capacity": "5"}}]}