{"version": 0.6, "generator": "Overpass API 0.7.62.1 084b4234", "osm3s": {"timestamp_osm_base": "2024-11-06T19:38:22Z", "copyright": "The data included in this document is from www.openstreetmap.org. The data is made available under ODbL."}, "elements": [{"type": "node", "id": 8882234715, "lat": 42.0823417, "lon": 13.0605756, "tags": {"amenity": "charging_station", "brand": "Tesla Supercharger", "brand:wikidata": "Q17089620", "capacity": "8", "fee": "yes", "name": "Carsoli Oricoli Supercharger", "opening_hours": "24/7", "operator": "Tesla, Inc.", "socket:tesla_supercharger": "8", "socket:tesla_supercharger:output": "150 kW", "website": "https://www.tesla.com/findus/location/supercharger/carsolioricolasupercharger"}}, {"type": "node", "id": 9661731785, "lat": 42.084787, "lon": 13.411456, "tags": {"amenity": "charging_station", "bicycle": "yes", "network": "DINAclub", "operator": "Repower", "operator:wikidata": "Q674712", "operator:wikipedia": "it:Repower", "website": "https://www.repower.com/it/dina/"}}, {"type": "node", "id": 9924345945, "lat": 42.0917896, "lon": 13.3649563}, {"type": "node", "id": 9924345946, "lat": 42.0917405, "lon": 13.3650677}, {"type": "node", "id": 9924345947, "lat": 42.0917227, "lon": 13.3650535}, {"type": "node", "id": 9924345948, "lat": 42.0917718, "lon": 13.3649421}, {"type": "node", "id": 9924345949, "lat": 42.0893971, "lon": 13.3682709}, {"type": "node", "id": 9924345950, "lat": 42.0894044, "lon": 13.368293}, {"type": "node", "id": 9924345951, "lat": 42.0893218, "lon": 13.368343}, {"type": "node", "id": 9924345952, "lat": 42.0893144, "lon": 13.3683209}, {"type": "node", "id": 9924345955, "lat": 42.0910963, "lon": 13.3608887}, {"type": "node", "id": 9924345956, "lat": 42.0910825, "lon": 13.3609015}, {"type": "node", "id": 9924345957, "lat": 42.0911218, "lon": 13.3609786}, {"type": "node", "id": 9924345958, "lat": 42.0911357, "lon": 13.3609657}, {"type": "way", "id": 1082901164, "nodes": [9924345945, 9924345946, 9924345947, 9924345948, 9924345945], "tags": {"access": "yes", "amenity": "charging_station", "brand": "Enel X", "brand:wikidata": "Q5376815", "capacity": "2", "capacity:charging": "2", "name": "Enel X", "operator": "Enel X", "operator:wikidata": "Q5376815"}}, {"type": "way", "id": 1082901165, "nodes": [9924345949, 9924345950, 9924345951, 9924345952, 9924345949], "tags": {"access": "yes", "amenity": "charging_station", "capacity:charging": "2", "name": "BeCharge", "operator": "BeCharge"}}, {"type": "way", "id": 1082901166, "nodes": [9924345955, 9924345956, 9924345957, 9924345958, 9924345955], "tags": {"access": "yes", "amenity": "charging_station", "capacity": "2", "capacity:charging": "2", "name": "BeCharge", "operator": "BeCharge"}}]}