{"version": 0.6, "generator": "Overpass API 0.7.62.1 084b4234", "osm3s": {"timestamp_osm_base": "2024-11-06T19:38:22Z", "copyright": "The data included in this document is from www.openstreetmap.org. The data is made available under ODbL."}, "elements": [{"type": "node", "id": 2401541132, "lat": 38.1393, "lon": 13.3495, "tags": {"addr:city": "Palermo", "addr:country": "IT", "addr:postcode": "90143", "addr:street": "Via Marchese di Villabianca", "amenity": "charging_station", "brand": "Enel", "brand:wikidata": "Q651222", "name": "Enel - stazione di ricarica", "operator": "Enel", "operator:wikidata": "Q651222", "ref:enel:code": "ENEL_00000435", "ref:enel:serial_number": "N.11EP21T2301C000049"}}, {"type": "node", "id": 5457347300, "lat": 38.1194998, "lon": 13.357042, "tags": {"amenity": "charging_station", "brand": "Enel", "brand:wikidata": "Q651222", "brand:wikipedia": "en:Enel", "capacity": "2", "name": "Enel", "operator": "Enel", "operator:wikidata": "Q651222", "operator:wikipedia": "en:Enel"}}, {"type": "node", "id": 7988289627, "lat": 38.185377, "lon": 13.101831, "tags": {"amenity": "charging_station", "capacity": "2"}}, {"type": "node", "id": 7988289628, "lat": 38.1853675, "lon": 13.101752, "tags": {"amenity": "charging_station", "capacity": "2"}}, {"type": "node", "id": 7988289629, "lat": 38.1854558, "lon": 13.1017247, "tags": {"amenity": "charging_station", "capacity": "2"}}, {"type": "node", "id": 8051731766, "lat": 38.1587448, "lon": 13.1052598, "tags": {"amenity": "charging_station", "authentication:app": "yes", "authentication:nfc": "yes", "brand": "Enel X", "brand:wikidata": "Q5376815", "capacity": "2", "charge": "0,40\u20ac/kWh", "fee": "yes", "motorcar": "yes", "name": "Enel X Corso Umberto I, 217", "opening_hours": "24/7", "operator": "Enel X", "operator:wikidata": "Q5376815", "socket:type2": "1", "socket:type2:output": "20 kW", "socket:type3A": "1", "socket:type3A:output": "3 kW"}}, {"type": "node", "id": 8051731767, "lat": 38.1606503, "lon": 13.1031905, "tags": {"amenity": "charging_station", "authentication:app": "yes", "authentication:membership_card": "yes", "authentication:nfc": "yes", "brand": "Enel X", "brand:wikidata": "Q5376815", "capacity": "2", "charge": "0,40\u20ac/kWh", "fee": "yes", "motorcar": "yes", "name": "Enel X Corso Umberto I, 356", "opening_hours": "24/7", "operator": "Enel X", "operator:wikidata": "Q5376815", "socket:type2": "1", "socket:type2:output": "20 kW", "socket:type3A": "1", "socket:type3A:output": "3 kW"}}, {"type": "node", "id": 8051731768, "lat": 38.148509, "lon": 13.0851218, "tags": {"amenity": "charging_station", "authentication:app": "yes", "authentication:membership_card": "yes", "authentication:nfc": "yes", "brand": "Enel X", "brand:wikidata": "Q5376815", "capacity": "2", "charge": "0,40\u20ac/kWh", "fee": "yes", "motorcar": "yes", "name": "Enel X Corso Vittorio Emanuele", "opening_hours": "24/7", "operator": "Enel X", "operator:wikidata": "Q5376815", "socket:type2": "1", "socket:type2:output": "20 kW", "socket:type3A": "1", "socket:type3A:output": "3 kW"}}, {"type": "node", "id": 8051752369, "lat": 38.0997777, "lon": 13.3462402, "tags": {"access": "yes", "amenity": "charging_station", "authentication:app": "yes", "authentication:membership_card": "yes", "authentication:nfc": "yes", "brand": "Ionity", "brand:wikidata": "Q42717773", "capacity": "2", "charge": "0,80\u20ac/kWh", "fee": "yes", "motorcar": "yes", "name": "Ionity Ernesto Basile", "opening_hours": "24/7", "operator": "Ionity", "operator:wikidata": "Q42717773", "operator:wikipedia": "en:IONITY", "socket:type2_combo": "2", "socket:type2_combo:output": "350 kW"}}, {"type": "node", "id": 8058830356, "lat": 38.1746725, "lon": 13.2183659, "tags": {"amenity": "charging_station", "authentication:app": "no", "authentication:membership_card": "no", "authentication:nfc": "yes", "brand": "Enel", "capacity": "2", "fee": "no", "motorcar": "yes", "name": "Enel", "operator": "Enel", "operator:wikidata": "Q651222", "socket:type2": "1", "socket:type2:output": "20 kW", "survey:date": "2024-01-24"}}, {"type": "node", "id": 8058859357, "lat": 38.1736246, "lon": 13.1417486, "tags": {"access": "private", "amenity": "charging_station", "brand": "Sicily by car", "capacity": "6", "fee": "no", "motorcar": "yes", "name": "Sicily by Car Sede Amministrativa", "operator": "Enel", "socket:type2": "6", "socket:type2:output": "20 kW"}}, {"type": "node", "id": 8071315907, "lat": 38.1576871, "lon": 13.1973293, "tags": {"amenity": "charging_station", "authentication:app": "yes", "authentication:membership_card": "yes", "authentication:nfc": "yes", "brand": "Enel X", "motorcar": "yes", "name": "Enel X Strada Statale 113", "operator": "enel", "socket:type2": "2", "socket:type2:output": "22 kW"}}, {"type": "node", "id": 8071315908, "lat": 38.1374869, "lon": 13.1836997, "tags": {"amenity": "charging_station", "authentication:app": "yes", "authentication:membership_card": "yes", "authentication:nfc": "yes", "brand": "Enel X", "capacity": "2", "motorcar": "yes", "name": "Enel X Via Sant'Anna", "operator": "enel", "socket:type2": "2", "socket:type2:output": "22 kW"}}, {"type": "node", "id": 8116416982, "lat": 38.1474453, "lon": 13.1863313, "tags": {"amenity": "charging_station", "authentication:app": "yes", "authentication:membership_card": "yes", "authentication:nfc": "yes", "brand": "Enel X", "motorcar": "yes", "name": "Enel X Stazione di Carini", "not:operator:wikidata": "Q5376815", "operator": "enel", "socket:type2": "2", "socket:type2:output": "14 kW"}}, {"type": "node", "id": 8137270364, "lat": 38.1779154, "lon": 13.1127727, "tags": {"amenity": "charging_station", "authentication:app": "yes", "authentication:membership_card": "yes", "authentication:nfc": "yes", "brand": "BeCharge", "motorcar": "yes", "name": "BeCharge Contrada Feudo Orsa", "operator": "Be Charge", "operator:wikidata": "Q113289535", "socket:type2": "2", "socket:type2:output": "22 kW"}}, {"type": "node", "id": 8137270365, "lat": 38.1779523, "lon": 13.1127392, "tags": {"amenity": "charging_station", "authentication:app": "yes", "authentication:membership_card": "yes", "authentication:nfc": "yes", "brand": "BeCharge", "motorcar": "yes", "name": "BeCharge Contrada Feudo Orsa", "operator": "Be Charge", "operator:wikidata": "Q113289535", "socket:type2": "2", "socket:type2:output": "22 kW"}}, {"type": "node", "id": 8667814586, "lat": 38.0758729, "lon": 13.4493861, "tags": {"amenity": "charging_station", "brand": "Enel X", "brand:wikidata": "Q5376815", "capacity": "1", "charging_station:output": "25 kW", "motorcar": "yes", "name": "Enel X", "operator": "Enel X", "operator:wikidata": "Q5376815", "socket:type2": "1", "socket:type2:output": "22 kW", "socket:type3": "1"}}, {"type": "node", "id": 8667814587, "lat": 38.075433, "lon": 13.4428672, "tags": {"amenity": "charging_station", "brand": "Enel X", "brand:wikidata": "Q5376815", "capacity": "2", "charging_station:output": "44 kW", "motorcar": "yes", "name": "Enel X", "operator": "Enel X", "operator:wikidata": "Q5376815", "socket:type2": "2", "socket:type2:output": "22 kW"}}, {"type": "node", "id": 10577662775, "lat": 38.1376335, "lon": 13.3542091, "tags": {"access": "yes", "amenity": "charging_station", "brand": "Enel X", "brand:wikidata": "Q5376815", "capacity": "2", "fee": "yes", "name": "Enel X", "operator": "Enel X", "operator:wikidata": "Q5376815", "payment:credit_cards": "yes"}}, {"type": "node", "id": 10589526538, "lat": 38.0896627, "lon": 13.4098037, "tags": {"access": "customers", "amenity": "charging_station", "brand": "Tesla Supercharger", "brand:wikidata": "Q17089620", "capacity": "8", "fee": "yes", "name": "Palermo East Supercharger", "not:brand:wikidata": "Q478214", "opening_hours": "24/7", "operator": "Tesla, Inc.", "operator:wikidata": "Q478214", "short_name": "Tesla", "socket:tesla_supercharger_ccs": "8", "socket:tesla_supercharger_ccs:output": "250 kW"}}, {"type": "node", "id": 10931545969, "lat": 38.0410058, "lon": 13.1095815, "tags": {"amenity": "charging_station", "fixme": "could be a quick loading station", "motorcar": "yes"}}, {"type": "node", "id": 11546177849, "lat": 38.1935734, "lon": 13.3325681, "tags": {"amenity": "charging_station", "brand": "Enel X", "capacity": "2", "fee": "yes", "motorcar": "yes", "name": "Enel X", "opening_hours": "24/7", "operator": "Enel X", "operator:wikidata": "Q5376815"}}, {"type": "node", "id": 11546237265, "lat": 38.2006381, "lon": 13.3222301, "tags": {"amenity": "charging_station", "capacity": "2", "fee": "yes", "motorcar": "yes", "name": "Be Charge", "opening_hours": "24/7", "operator": "Be Charge", "operator:wikidata": "Q113289535"}}, {"type": "node", "id": 11546257990, "lat": 38.1984844, "lon": 13.3188477, "tags": {"amenity": "charging_station", "capacity": "2", "fee": "yes", "motorcar": "yes", "name": "Enel X Way", "opening_hours": "24/7", "operator": "Enel X Way"}}, {"type": "node", "id": 11546262073, "lat": 38.2007141, "lon": 13.3221826, "tags": {"amenity": "charging_station", "capacity": "2", "fee": "yes", "motorcar": "yes", "name": "Be Charge", "opening_hours": "24/7", "operator": "Be Charge", "operator:wikidata": "Q113289535"}}, {"type": "node", "id": 11546621122, "lat": 38.1987515, "lon": 13.2487146, "tags": {"amenity": "charging_station", "capacity": "2", "fee": "yes", "motorcar": "yes", "opening_hours": "24/7"}}, {"type": "node", "id": 11549340836, "lat": 38.1984946, "lon": 13.2503208, "tags": {"amenity": "charging_station", "capacity": "2", "fee": "yes", "motorcar": "yes", "name": "Enel X Way", "opening_hours": "24/7", "operator": "Enel X Way"}}, {"type": "node", "id": 11549505213, "lat": 38.1188745, "lon": 13.3283515, "tags": {"amenity": "charging_station", "brand": "Enel X", "capacity": "2", "fee": "yes", "motorcar": "yes", "name": "Enel X", "opening_hours": "24/7", "operator": "Enel X", "operator:wikidata": "Q5376815"}}, {"type": "node", "id": 11550176930, "lat": 38.1991004, "lon": 13.2466793, "tags": {"amenity": "charging_station", "capacity": "2", "fee": "yes", "motorcar": "yes", "name": "Enel X Way", "opening_hours": "24/7", "operator": "Enel X Way"}}, {"type": "node", "id": 11594691255, "lat": 38.0153986, "lon": 13.4535498, "tags": {"amenity": "charging_station", "capacity": "2", "survey:date": "2024-02-07"}}, {"type": "node", "id": 11598277445, "lat": 38.11736, "lon": 13.3622821, "tags": {"amenity": "charging_station", "brand": "Enel X", "capacity": "2", "fee": "yes", "motorcar": "yes", "name": "Enel X", "opening_hours": "24/7", "operator": "Enel X", "operator:wikidata": "Q5376815"}}, {"type": "node", "id": 11602542182, "lat": 38.1264139, "lon": 13.3632848, "tags": {"amenity": "charging_station", "capacity": "2", "fee": "yes", "motorcar": "yes"}}, {"type": "node", "id": 11613416861, "lat": 38.1520108, "lon": 13.3394194, "tags": {"amenity": "charging_station", "capacity": "2", "fee": "yes", "motorcar": "yes", "name": "Enel X Way", "opening_hours": "24/7", "operator": "Enel X Way"}}, {"type": "node", "id": 11613416862, "lat": 38.1520279, "lon": 13.339459, "tags": {"amenity": "charging_station", "capacity": "2", "fee": "yes", "motorcar": "yes", "name": "Enel X Way", "opening_hours": "24/7", "operator": "Enel X Way"}}, {"type": "node", "id": 11622999467, "lat": 38.1602547, "lon": 13.3159857, "tags": {"amenity": "charging_station", "capacity": "2", "fee": "yes", "motorcar": "yes", "name": "Enel X Way", "opening_hours": "24/7", "operator": "Enel X Way"}}, {"type": "node", "id": 11630284825, "lat": 38.1653808, "lon": 13.3683791, "tags": {"amenity": "charging_station", "brand": "Enel X", "brand:wikidata": "Q5376815", "capacity": "2", "fee": "yes", "motorcar": "yes", "name": "Enel X Way", "opening_hours": "24/7", "operator": "Enel X", "operator:wikidata": "Q5376815"}}, {"type": "node", "id": 11862392977, "lat": 38.1979812, "lon": 13.2742825, "tags": {"amenity": "charging_station", "brand": "Enel X Way", "capacity": "2", "fee": "yes", "motorcar": "yes", "motorcycle": "yes", "opening_hours": "24/7", "socket:chademo": "1", "socket:chademo:output": "50", "socket:type2_cable": "1", "socket:type2_cable:output": "22", "socket:type2_combo": "1", "socket:type2_combo:output": "75", "truck": "yes"}}]}