{"version": 0.6, "generator": "Overpass API 0.7.62.1 084b4234", "osm3s": {"timestamp_osm_base": "2024-11-06T19:38:22Z", "copyright": "The data included in this document is from www.openstreetmap.org. The data is made available under ODbL."}, "elements": [{"type": "node", "id": 889483131, "lat": 45.1457852, "lon": 14.6628215, "tags": {"amenity": "charging_station", "capacity": "2", "socket:type2": "2"}}, {"type": "node", "id": 3044643654, "lat": 45.2921115, "lon": 14.276208, "tags": {"amenity": "charging_station", "authentication:none": "yes", "capacity": "1", "fee": "no", "motorcar": "yes", "opening_hours": "24/7", "operator": "Op\u0107ina Lovran", "socket:type2": "1"}}, {"type": "node", "id": 3473012597, "lat": 45.0855077, "lon": 14.1227551, "tags": {"access": "yes", "amenity": "charging_station", "bicycle": "no", "bus": "no", "capacity": "2", "hgv": "no", "image": "https://i.imgur.com/kXXrnqC.jpg", "motorcar": "yes", "opening_hours": "24/7", "operator": "HEP", "scooter": "no", "socket:type2": "2"}}, {"type": "node", "id": 3961405757, "lat": 45.3297031, "lon": 14.4396413, "tags": {"amenity": "charging_station", "capacity": "4"}}, {"type": "node", "id": 3961405859, "lat": 45.3296051, "lon": 14.4393048, "tags": {"amenity": "charging_station", "capacity": "2"}}, {"type": "node", "id": 4200847451, "lat": 45.0255175, "lon": 14.5726941, "tags": {"access": "yes", "amenity": "charging_station", "bicycle": "no", "capacity": "2", "contact:website": "http://www.ekootokkrk.hr/en", "fee": "yes", "motorcar": "yes", "opening_hours": "24/7", "operator": "go2bike", "socket:type2": "2", "socket:type2:current": "32 A", "socket:type2:output": "22 kW"}}, {"type": "node", "id": 4616120069, "lat": 45.1884955, "lon": 14.675687, "tags": {"amenity": "charging_station", "capacity": "2", "indoor": "no"}}, {"type": "node", "id": 5017417807, "lat": 45.0183661, "lon": 14.628595, "tags": {"access": "yes", "amenity": "charging_station", "authentication:nfc": "yes", "authentication:none": "no", "authentication:phone_call": "no", "authentication:short_message": "yes", "bicycle": "no", "capacity": "2", "motorcar": "yes", "motorcycle": "yes", "opening_hours": "24/7", "operator": "puni.hr", "scooter": "no", "socket:type2": "2", "socket:type2:current": "32 A", "socket:type2:output": "22 kW", "truck": "no"}}, {"type": "node", "id": 5103840519, "lat": 45.3448362, "lon": 14.3983137, "tags": {"amenity": "charging_station"}}, {"type": "node", "id": 5771150144, "lat": 45.0246066, "lon": 14.5917528, "tags": {"amenity": "charging_station", "capacity": "2", "operator": "Krk premium Camping"}}, {"type": "node", "id": 5922956091, "lat": 44.9624903, "lon": 14.397349, "tags": {"amenity": "charging_station"}}, {"type": "node", "id": 6046026339, "lat": 45.0777932, "lon": 14.1593736, "tags": {"amenity": "charging_station", "authentication:nfc": "yes", "fee": "no", "opening_hours": "24/7", "operator": "ELEN", "socket:type2": "2", "socket:type2:output": "22kW"}}, {"type": "node", "id": 6046027609, "lat": 45.3447243, "lon": 14.3147971, "tags": {"amenity": "charging_station", "authentication:nfc": "yes", "capacity": "2", "fee": "no", "name": "ELEN", "opening_hours": "24/7", "operator": "ELEN", "socket:type2": "2", "socket:type2:output": "22kW"}}, {"type": "node", "id": 6046032207, "lat": 45.3280783, "lon": 14.4421679, "tags": {"amenity": "charging_station", "authentication:nfc": "yes", "fee": "no", "opening_hours": "24/7", "operator": "ELEN", "socket:type2": "2", "socket:type2:output": "22kW"}}, {"type": "node", "id": 6046037301, "lat": 45.3247811, "lon": 14.4468286, "tags": {"amenity": "charging_station", "authentication:nfc": "yes", "fee": "no", "opening_hours": "24/7", "operator": "ELEN", "socket:type2": "2", "socket:type2:output": "22kW"}}, {"type": "node", "id": 6046042151, "lat": 45.1743305, "lon": 14.6928965, "tags": {"amenity": "charging_station", "authentication:nfc": "yes", "fee": "no", "opening_hours": "24/7", "operator": "ELEN", "socket:type2": "2", "socket:type2:output": "22kW"}}, {"type": "node", "id": 6681572949, "lat": 45.0758176, "lon": 14.6742968, "tags": {"amenity": "charging_station", "capacity": "4", "socket:type2": "2", "socket:type2:current": "16 A", "socket:type2:output": "11 kW"}}, {"type": "node", "id": 6784916185, "lat": 45.2118221, "lon": 14.5554694, "tags": {"amenity": "charging_station"}}, {"type": "node", "id": 7783829687, "lat": 45.3557088, "lon": 14.3268865, "tags": {"access": "customers", "amenity": "charging_station", "brand": "Tesla, Inc.", "brand:wikidata": "Q478214", "name": "Tesla Destination Charger", "operator": "Tesla, Inc.", "short_name": "Tesla", "website": "https://www.tesla.com/findus/location/charger/dc11617"}}, {"type": "node", "id": 7850850820, "lat": 45.0742802, "lon": 14.1656658, "tags": {"amenity": "charging_station", "authentication:nfc": "yes", "bicycle": "yes", "motorcar": "yes", "socket:type2": "2"}}, {"type": "node", "id": 8880023005, "lat": 45.0331211, "lon": 14.6311151, "tags": {"access": "permissive", "amenity": "charging_station", "brand": "Tesla, Inc.", "brand:wikidata": "Q478214", "brand:wikipedia": "en:Tesla, Inc.", "capacity": "2", "fee": "no", "name": "Tesla Destination Charger", "operator": "Tesla, Inc.", "operator:wikidata": "Q478214", "operator:wikipedia": "en:Tesla, Inc.", "short_name": "Tesla"}}, {"type": "node", "id": 8909537381, "lat": 44.9588165, "lon": 14.4073343, "tags": {"addr:housenumber": "16", "addr:street": "Melin I", "amenity": "charging_station", "charging_station:output": "22", "name": "Cresanka d.o.o."}}, {"type": "node", "id": 9058161418, "lat": 45.314526, "lon": 14.2884176, "tags": {"amenity": "charging_station"}}, {"type": "node", "id": 9084641819, "lat": 45.3275396, "lon": 14.3001923, "tags": {"amenity": "charging_station", "capacity": "1", "operator": "Tesla"}}, {"type": "node", "id": 9102942954, "lat": 45.0779166, "lon": 14.6732133, "tags": {"amenity": "charging_station", "fee": "no", "location": "indoor", "socket:schuko": "yes"}}, {"type": "node", "id": 9165540561, "lat": 45.025882, "lon": 14.5730732, "tags": {"access": "yes", "amenity": "charging_station", "bicycle": "no", "capacity": "2", "contact:website": "http://www.ekootokkrk.hr/en", "fee": "yes", "motorcar": "yes", "motorcycle": "yes", "opening_hours": "24/7", "operator": "go2bike", "socket:type2": "2", "socket:type2:current": "32 A", "socket:type2:output": "22 kW"}}, {"type": "node", "id": 9219672417, "lat": 45.3321802, "lon": 14.3022281, "tags": {"access": "customers", "amenity": "charging_station", "brand": "Tesla Supercharger", "brand:wikidata": "Q17089620", "brand:wikipedia": "en:Tesla Supercharger", "capacity": "10", "fee": "no", "name": "Tesla Supercharger", "survey:date": "2021-11-02"}}, {"type": "node", "id": 9714291009, "lat": 45.0928346, "lon": 14.4395796, "tags": {"amenity": "charging_station", "bicycle": "no", "motorcar": "yes", "motorcycle": "yes", "socket:type2": "2", "socket:type2_combo:output": "22 kW"}}, {"type": "node", "id": 9718112875, "lat": 45.1214946, "lon": 14.4943045, "tags": {"amenity": "charging_station", "capacity": "1", "motorcar": "yes", "motorcycle": "yes", "operator": "go2bike", "socket:type2": "1", "socket:type2:output": "22 kW"}}, {"type": "node", "id": 9720837022, "lat": 45.1649743, "lon": 14.5412795, "tags": {"amenity": "charging_station", "bicycle": "no", "capacity": "2", "motorcar": "yes", "motorcycle": "yes", "operator": "GO2CHARGE", "socket:type2": "2"}}, {"type": "node", "id": 9723422741, "lat": 45.2107134, "lon": 14.5560599, "tags": {"amenity": "charging_station", "bicycle": "no", "capacity": "2", "motorcar": "yes", "motorcycle": "yes", "socket:type2": "2", "socket:type2:output": "11 kW"}}, {"type": "node", "id": 9848577577, "lat": 45.3270076, "lon": 14.6567966}, {"type": "node", "id": 9848577578, "lat": 45.3270387, "lon": 14.6567987}, {"type": "node", "id": 9848577579, "lat": 45.3270354, "lon": 14.6568983}, {"type": "node", "id": 9848577580, "lat": 45.3270044, "lon": 14.6568963}, {"type": "node", "id": 9965925660, "lat": 45.3598721, "lon": 14.4932877, "tags": {"access": "yes", "amenity": "charging_station", "capacity": "2", "fee": "no"}}, {"type": "node", "id": 9986361432, "lat": 45.0295606, "lon": 14.6288371, "tags": {"amenity": "charging_station", "capacity": "6", "operator": "Marina Punat"}}, {"type": "node", "id": 10295272241, "lat": 45.2742712, "lon": 14.5693408, "tags": {"access": "yes", "amenity": "charging_station", "bicycle": "yes", "capacity": "2", "fee": "no", "image": "https://i.imgur.com/SZRgRFy.jpg", "motorcar": "no", "opening_hours": "24/7", "socket:schuko": "2", "socket:schuko:voltage": "230 V"}}, {"type": "node", "id": 10767109264, "lat": 45.3570918, "lon": 14.4870903, "tags": {"amenity": "charging_station"}}, {"type": "node", "id": 10768893275, "lat": 45.336728, "lon": 14.5052628, "tags": {"amenity": "charging_station"}}, {"type": "node", "id": 10768893276, "lat": 45.3361657, "lon": 14.5061209, "tags": {"amenity": "charging_station"}}, {"type": "node", "id": 10768893277, "lat": 45.3300917, "lon": 14.5078592, "tags": {"amenity": "charging_station"}}, {"type": "node", "id": 10822433443, "lat": 45.0355556, "lon": 14.5683008, "tags": {"amenity": "charging_station", "capacity": "2", "operator": "Lidl", "operator:wikidata": "Q151954"}}, {"type": "node", "id": 10943782535, "lat": 45.1189857, "lon": 14.1192268, "tags": {"access": "yes", "amenity": "charging_station", "brand": "Qelo", "capacity": "4", "charge": "from 0,33\u20ac/kWh", "fee": "yes", "name": "Qelo Charging Station", "operator": "Qelo"}}, {"type": "node", "id": 11077304619, "lat": 45.3145497, "lon": 14.2884556, "tags": {"amenity": "charging_station", "brand": "Tesla, Inc.", "brand:wikidata": "Q478214", "name": "Tesla Destination Charger", "short_name": "Tesla"}}, {"type": "node", "id": 11787518796, "lat": 45.0776189, "lon": 14.1691091, "tags": {"amenity": "charging_station", "capacity": "11", "fee": "no", "motorcar": "yes", "opening_hours": "24/7", "socket:type2": "4", "socket:type2:output": "11"}}, {"type": "node", "id": 11787531967, "lat": 45.0798288, "lon": 14.1713787, "tags": {"amenity": "charging_station", "capacity": "11", "fee": "yes", "motorcar": "yes", "opening_hours": "24/7", "socket:type2": "2", "socket:type2:output": "11"}}, {"type": "node", "id": 11961561801, "lat": 45.1279914, "lon": 14.6043387, "tags": {"amenity": "charging_station", "bicycle": "no", "capacity": "2", "motor_vehicle": "yes", "motorcar": "yes", "motorcycle": "yes", "socket:type2": "2"}}, {"type": "node", "id": 11985222632, "lat": 45.1569295, "lon": 14.6215976, "tags": {"access": "private", "amenity": "charging_station", "capacity": "1", "description": "Tesla", "operator": "Tesla", "source": "survey 06.2024 and DGU.hr Imagery"}}, {"type": "node", "id": 12047925751, "lat": 45.1310787, "lon": 14.5434131, "tags": {"access": "yes", "amenity": "charging_station", "bicycle": "no", "description": "Tommy Krk Fast", "fee": "yes", "motorcar": "yes", "name": "Tommy Krk Fast", "object:country": "HR", "object:housenumber": "205", "object:place": "Sveti Vid-Miholjice", "object:postcode": "51511", "operator": "Hrvatski Telekom", "parking:fee": "no", "socket:ccs": "1", "socket:ccs:output": "50", "socket:type2_combo": "1", "socket:type2_combo:output": "43 kW"}}, {"type": "node", "id": 12065103395, "lat": 44.9536502, "lon": 14.6902311, "tags": {"access": "yes", "amenity": "charging_station", "brand": "Chargeport", "capacity": "1", "covered": "no", "network": "Chargeport"}}, {"type": "node", "id": 12201048472, "lat": 45.1212444, "lon": 14.5264911, "tags": {"amenity": "charging_station", "capacity": "2", "socket:type2": "2"}}, {"type": "way", "id": 1073624912, "nodes": [9848577577, 9848577578, 9848577579, 9848577580, 9848577577], "tags": {"amenity": "charging_station", "capacity": "4", "operator": "Elen EV", "ref": "HRHEP-51012-02", "website": "https://elen.hep.hr/"}}]}