{"version": 0.6, "generator": "Overpass API 0.7.62.1 084b4234", "osm3s": {"timestamp_osm_base": "2024-11-11T18:55:46Z", "copyright": "The data included in this document is from www.openstreetmap.org. The data is made available under ODbL."}, "elements": [{"type": "node", "id": 2316703852, "lat": 45.4785754, "lon": 9.232217, "tags": {"amenity": "charging_station", "brand": "Green Move", "capacity": "8"}}, {"type": "node", "id": 2316703853, "lat": 45.4842891, "lon": 9.2355036, "tags": {"amenity": "charging_station", "brand": "e-moving", "capacity": "2", "operator": "a2a", "operator:wikidata": "Q279978", "operator:wikipedia": "it:A2A", "ref": "IT MI001 0026"}}, {"type": "node", "id": 2316703854, "lat": 45.4791909, "lon": 9.2263127, "tags": {"amenity": "charging_station", "brand": "e-moving", "capacity": "4", "fuel:electricity": "yes", "mapillary": "533463068033486", "name": "IT MI001 0011", "operator": "a2a", "operator:wikidata": "Q279978", "operator:wikipedia": "it:A2A", "survey:date": "2020-01-14"}}, {"type": "node", "id": 2608634432, "lat": 45.4840669, "lon": 9.2143072, "tags": {"amenity": "charging_station"}}, {"type": "node", "id": 3396938704, "lat": 45.4644403, "lon": 9.1844553, "tags": {"amenity": "charging_station", "image": "https://storage9.openstreetcam.org/files/photo/2018/10/29/lth/1302669_2832e_471.jpg", "motorcar": "yes", "survey:date": "2018-10-29"}}, {"type": "node", "id": 3521852705, "lat": 45.4859262, "lon": 9.1965321, "tags": {"amenity": "charging_station", "mapillary": "3887561544673102", "survey:date": "2020-01-12"}}, {"type": "node", "id": 3782150162, "lat": 45.4669683, "lon": 9.1915869, "tags": {"amenity": "charging_station", "amperage": "32", "capacity": "2", "motorcar": "yes", "opening_hours": "24/7", "operator": "E-Moving", "socket:scame": "2", "socket:type2": "2", "voltage": "400"}}, {"type": "node", "id": 3782150163, "lat": 45.4678447, "lon": 9.1601556, "tags": {"amenity": "charging_station", "amperage": "32", "capacity": "2", "motorcar": "yes", "opening_hours": "24/7", "operator": "E-Moving", "socket:scame": "2", "socket:type2": "2", "voltage": "400"}}, {"type": "node", "id": 3782150164, "lat": 45.4678972, "lon": 9.1602417, "tags": {"amenity": "charging_station", "amperage": "32", "capacity": "2", "motorcar": "yes", "opening_hours": "24/7", "operator": "E-Moving", "socket:scame": "2", "socket:type2": "2", "voltage": "400"}}, {"type": "node", "id": 3782150165, "lat": 45.4719453, "lon": 9.1732698, "tags": {"amenity": "charging_station", "amperage": "16", "capacity": "2", "description": "Repower - Recharge around network - https://energiachetiserve.repower.com/rechargearound-www/?loc_operator=rev", "motorcar": "yes", "network": "Recharge Around", "opening_hours": "24/7", "operator": "Repower", "operator:wikidata": "Q674712", "socket:scame": "2", "socket:type2": "2", "voltage": "230", "website": "https://www.repower.com/it/la-mobilita-elettrica/"}}, {"type": "node", "id": 3782150166, "lat": 45.4770127, "lon": 9.1982893, "tags": {"amenity": "charging_station", "amperage": "32", "capacity": "2", "motorcar": "yes", "opening_hours": "24/7", "operator": "E-Moving", "socket:scame": "2", "socket:type2": "2", "voltage": "400"}}, {"type": "node", "id": 4741099860, "lat": 45.4673638, "lon": 9.2037389, "tags": {"amenity": "charging_station", "capacity": "4", "operator": "a2a", "operator:wikidata": "Q279978", "operator:wikipedia": "it:A2A", "ref": "035"}}, {"type": "node", "id": 5033959732, "lat": 45.4654555, "lon": 9.1808152, "tags": {"amenity": "charging_station", "mapillary": "126643629456696", "ref": "208", "survey:date": "2018-01-20"}}, {"type": "node", "id": 5251640068, "lat": 45.4775978, "lon": 9.2348986, "tags": {"amenity": "charging_station", "capacity": "1", "operator": "a2a", "operator:wikidata": "Q279978"}}, {"type": "node", "id": 5271534046, "lat": 45.4632929, "lon": 9.1775065, "tags": {"amenity": "charging_station", "mapillary": "252818306533435", "operator": "a2a", "operator:wikidata": "Q279978", "operator:wikipedia": "it:A2A", "survey:date": "2017-07-08"}}, {"type": "node", "id": 5271534047, "lat": 45.4681783, "lon": 9.185611, "tags": {"amenity": "charging_station", "mapillary": "480107223264731", "operator": "a2a", "operator:wikidata": "Q279978", "operator:wikipedia": "it:A2A", "survey:date": "2019-08-19"}}, {"type": "node", "id": 5420281321, "lat": 45.5032471, "lon": 9.1608056, "tags": {"amenity": "charging_station", "capacity": "12", "operator": "a2a"}}, {"type": "node", "id": 5467317967, "lat": 45.4526994, "lon": 9.1646341, "tags": {"amenity": "charging_station", "capacity": "2", "fee": "yes", "name": "MILMilano-Bergognone", "operator": "a2a", "operator:wikidata": "Q279978", "operator:wikipedia": "it:A2A", "socket:type3": "2"}}, {"type": "node", "id": 5467317968, "lat": 45.4527417, "lon": 9.1646033, "tags": {"amenity": "charging_station", "capacity": "2", "fee": "yes", "name": "MILANO-BERGOGNONE", "operator": "a2a", "operator:wikidata": "Q279978", "operator:wikipedia": "it:A2A", "socket:type3": "2"}}, {"type": "node", "id": 5535680636, "lat": 45.4620213, "lon": 9.2003953, "tags": {"amenity": "charging_station", "mapillary": "983343209162796", "operator": "a2a", "operator:wikidata": "Q279978", "operator:wikipedia": "it:A2A", "survey:date": "2019-05-10"}}, {"type": "node", "id": 5719405323, "lat": 45.5042825, "lon": 9.1642114, "tags": {"amenity": "charging_station", "capacity": "2"}}, {"type": "node", "id": 6887222290, "lat": 45.453824, "lon": 9.1525625, "tags": {"amenity": "charging_station", "operator": "Be Charge", "operator:wikidata": "Q113289535"}}, {"type": "node", "id": 8240521367, "lat": 45.4793954, "lon": 9.2263208, "tags": {"amenity": "charging_station", "capacity": "2", "fuel:electricity": "yes", "operator": "a2a", "operator:wikidata": "Q279978", "operator:wikipedia": "it:A2A"}}, {"type": "node", "id": 8390188736, "lat": 45.4837564, "lon": 9.1578546, "tags": {"amenity": "charging_station", "capacity": "2", "note": "Access is unclear", "operator": "Power Point City Car"}}, {"type": "node", "id": 8440349199, "lat": 45.4675849, "lon": 9.1775644, "tags": {"amenity": "charging_station"}}, {"type": "node", "id": 8580972926, "lat": 45.4421625, "lon": 9.2414743, "tags": {"amenity": "charging_station", "operator": "a2a", "operator:wikidata": "Q279978", "operator:wikipedia": "it:A2A"}}, {"type": "node", "id": 8580972927, "lat": 45.4424402, "lon": 9.2406756, "tags": {"amenity": "charging_station"}}, {"type": "node", "id": 8654699491, "lat": 45.486698, "lon": 9.2152266, "tags": {"amenity": "charging_station", "capacity": "2", "fee": "yes", "motorcar": "yes", "motorcycle": "yes", "network": "E-moving", "opening_hours": "24/7", "operator": "a2a", "operator:wikidata": "Q279978", "operator:wikipedia": "it:A2A", "scooter": "yes", "socket:type2": "2", "socket:type2:output": "22 kW", "socket:type3a": "2", "socket:type3a:output": "3 kW", "website": "https://www.e-moving.it/"}}, {"type": "node", "id": 8680321280, "lat": 45.4845004, "lon": 9.2063218, "tags": {"amenity": "charging_station", "capacity": "2", "fee": "yes", "motorcar": "yes", "motorcycle": "yes", "network": "E-moving", "opening_hours": "24/7", "operator": "a2a", "operator:wikidata": "Q279978", "operator:wikipedia": "it:A2A", "ref": "427", "scooter": "yes", "socket:type2": "2", "socket:type2:output": "22 kW", "socket:type3a": "2", "socket:type3a:output": "3 kW", "website": "https://www.e-moving.it/"}}, {"type": "node", "id": 8726339194, "lat": 45.479881, "lon": 9.2231914, "tags": {"amenity": "charging_station", "capacity": "2", "motorcar": "yes", "opening_hours": "24/7", "operator": "Be Charge", "phone": "+39 02 87 11 94 01", "socket:type2": "2", "website": "https://www.bec.energy/"}}, {"type": "node", "id": 8777033318, "lat": 45.5073548, "lon": 9.1353347, "tags": {"amenity": "charging_station", "fee": "yes", "motorcar": "yes", "operator": "A2A", "socket:type3a": "12"}}, {"type": "node", "id": 8856089285, "lat": 45.4601649, "lon": 9.1808234, "tags": {"amenity": "charging_station", "operator": "a2a", "operator:wikidata": "Q279978", "operator:wikipedia": "it:A2A"}}, {"type": "node", "id": 8858034855, "lat": 45.4641828, "lon": 9.1679147, "tags": {"access": "yes", "amenity": "charging_station", "capacity": "2", "fee": "yes", "name": "Power Point city car", "operator": "Power Point per il condominio"}}, {"type": "node", "id": 8971496336, "lat": 45.4626346, "lon": 9.1906267, "tags": {"amenity": "charging_station", "capacity": "2", "description": "Colonnina ricarica EnerMia"}}, {"type": "node", "id": 9233230156, "lat": 45.4779338, "lon": 9.1604004, "tags": {"amenity": "charging_station"}}, {"type": "node", "id": 9297167403, "lat": 45.5088949, "lon": 9.2237619, "tags": {"access": "customers", "amenity": "charging_station", "capacity": "6", "motorcycle": "yes", "operator": "Cityscoot"}}, {"type": "node", "id": 9297221790, "lat": 45.501061, "lon": 9.2214631, "tags": {"amenity": "charging_station", "brand": "a2a", "operator": "a2a", "operator:wikidata": "Q279978", "operator:wikipedia": "it:A2A"}}, {"type": "node", "id": 9332954314, "lat": 45.4424265, "lon": 9.2406931, "tags": {"amenity": "charging_station"}}, {"type": "node", "id": 9332954315, "lat": 45.4424107, "lon": 9.2407115, "tags": {"amenity": "charging_station"}}, {"type": "node", "id": 9332954316, "lat": 45.4423874, "lon": 9.2407223, "tags": {"amenity": "charging_station"}}, {"type": "node", "id": 9469271388, "lat": 45.4718187, "lon": 9.1831518, "tags": {"amenity": "charging_station", "brand": "Enel X", "brand:wikidata": "Q5376815", "capacity": "2", "fixme": "Position estimated", "name": "Enel X", "operator": "Enel X", "operator:wikidata": "Q5376815"}}, {"type": "node", "id": 9491823908, "lat": 45.4397782, "lon": 9.2419077, "tags": {"amenity": "charging_station", "capacity": "2", "operator": "a2a", "operator:wikidata": "Q279978", "operator:wikipedia": "it:A2A"}}, {"type": "node", "id": 9491823909, "lat": 45.4398201, "lon": 9.2419606, "tags": {"amenity": "charging_station", "capacity": "2", "operator": "a2a", "operator:wikidata": "Q279978", "operator:wikipedia": "it:A2A"}}, {"type": "node", "id": 9491823911, "lat": 45.4415429, "lon": 9.2395242, "tags": {"amenity": "charging_station", "capacity": "1", "operator": "a2a", "operator:wikidata": "Q279978", "operator:wikipedia": "it:A2A"}}, {"type": "node", "id": 9634321975, "lat": 45.4330946, "lon": 9.1621502, "tags": {"access": "yes", "amenity": "charging_station", "capacity": "2", "fee": "yes", "operator": "a2a", "operator:wikidata": "Q279978", "operator:wikipedia": "it:A2A", "socket:type2": "2", "socket:type3": "2"}}, {"type": "node", "id": 9688685031, "lat": 45.4603288, "lon": 9.1709005, "tags": {"access": "yes", "amenity": "charging_station", "fee": "no", "operator": "a2a", "operator:wikidata": "Q279978", "operator:wikipedia": "it:A2A"}}, {"type": "node", "id": 9718630083, "lat": 45.5124186, "lon": 9.2132915, "tags": {"access": "yes", "amenity": "charging_station", "capacity": "2", "maxstay:conditional": "90 min @ (07:00-23:00)", "operator": "A2A"}}, {"type": "node", "id": 9876442882, "lat": 45.4997473, "lon": 9.2096704, "tags": {"amenity": "charging_station", "capacity": "2", "motorcar": "yes"}}, {"type": "node", "id": 9964752724, "lat": 45.4941784, "lon": 9.2276312, "tags": {"amenity": "charging_station", "bicycle": "yes", "description": "Komoot App e-bike stazione di ricarica https://www.komoot.com/collection/1840155", "network": "DINAclub", "operator": "Repower", "operator:wikidata": "Q674712", "operator:wikipedia": "it:Repower", "website": "https://www.repower.com/it/dina/"}}, {"type": "node", "id": 9964752726, "lat": 45.4161595, "lon": 9.2406752, "tags": {"amenity": "charging_station", "bicycle": "yes", "network": "DINAclub", "operator": "Repower", "operator:wikidata": "Q674712", "operator:wikipedia": "it:Repower", "website": "https://www.repower.com/it/dina/"}}, {"type": "node", "id": 10128978479, "lat": 45.4563717, "lon": 9.1743855, "tags": {"access": "customers", "amenity": "charging_station", "capacity": "3", "fee": "yes", "name": "Corso Genova, 27", "operator": "Be Charge", "operator:wikidata": "Q113289535"}}, {"type": "node", "id": 10176021089, "lat": 45.5208027, "lon": 9.2141851, "tags": {"amenity": "charging_station", "capacity": "2", "operator": "plenitude"}}, {"type": "node", "id": 10184501137, "lat": 45.4562016, "lon": 9.1736532, "tags": {"access": "yes", "amenity": "charging_station", "capacity": "2", "fee": "yes", "operator": "a2a", "operator:wikidata": "Q279978"}}, {"type": "node", "id": 10595175498, "lat": 45.4651789, "lon": 9.165817, "tags": {"access": "yes", "amenity": "charging_station", "capacity": "2", "fee": "yes", "operator": "a2a", "operator:wikidata": "Q279978"}}, {"type": "node", "id": 10595175499, "lat": 45.4640867, "lon": 9.1641502, "tags": {"amenity": "charging_station"}}, {"type": "node", "id": 10716549830, "lat": 45.5086959, "lon": 9.1881931, "tags": {"amenity": "charging_station", "brand": "Enel", "fee": "yes", "level": "0", "name": "Enel", "opening_hours": "24/7", "operator": "Enel", "operator:wikidata": "Q651222"}}, {"type": "node", "id": 10716549831, "lat": 45.5087331, "lon": 9.1882102, "tags": {"amenity": "charging_station", "brand": "Enel", "fee": "yes", "level": "0", "name": "Enel", "opening_hours": "24/7", "operator": "Enel", "operator:wikidata": "Q651222"}}, {"type": "node", "id": 10719405285, "lat": 45.5074212, "lon": 9.2233616}, {"type": "node", "id": 10719405286, "lat": 45.5073741, "lon": 9.2233477}, {"type": "node", "id": 10719405287, "lat": 45.5073616, "lon": 9.2234277}, {"type": "node", "id": 10719405288, "lat": 45.5074096, "lon": 9.2234414}, {"type": "node", "id": 10723775255, "lat": 45.4782609, "lon": 9.1025248, "tags": {"access": "customers", "amenity": "charging_station", "brand": "Porsche", "capacity": "1", "name": "Porsche Destination Charger", "operator": "Porsche", "operator:wikidata": "Q40993"}}, {"type": "node", "id": 10769612892, "lat": 45.4578659, "lon": 9.1746815, "tags": {"access": "yes", "amenity": "charging_station", "capacity": "4", "fee": "yes", "name": "Via Ariberto, 8 - MILANO", "operator": "a2a", "operator:wikidata": "Q279978", "ref": "1573", "socket:type2_cable": "2", "socket:type3a": "2"}}, {"type": "node", "id": 10769612894, "lat": 45.4642544, "lon": 9.1642416, "tags": {"access": "yes", "amenity": "charging_station", "capacity": "2", "fee": "yes", "operator": "Nextcharge", "socket:type2_cable": "2", "socket:type2_cable:output": "22 kW"}}, {"type": "node", "id": 10862579911, "lat": 45.5177078, "lon": 9.2203436, "tags": {"access": "yes", "amenity": "charging_station", "brand": "Pradella Sistemi srl", "fee": "no", "operator": "Pradella Sistemi srl"}}, {"type": "node", "id": 10862580323, "lat": 45.5107338, "lon": 9.216437, "tags": {"access": "yes", "amenity": "charging_station", "brand": "Pradella Sistemi srl", "fee": "no", "operator": "Pradella Sistemi srl"}}, {"type": "node", "id": 10862580325, "lat": 45.5038652, "lon": 9.2180735, "tags": {"access": "yes", "amenity": "charging_station", "brand": "Pradella Sistemi srl", "fee": "no", "operator": "Pradella Sistemi srl"}}, {"type": "node", "id": 10862580338, "lat": 45.5094943, "lon": 9.2687652, "tags": {"access": "private", "amenity": "charging_station", "brand": "Pradella Sistemi srl", "fee": "no", "operator": "Pradella Sistemi srl"}}, {"type": "node", "id": 10862580422, "lat": 45.5191345, "lon": 9.2207336, "tags": {"access": "yes", "amenity": "charging_station", "brand": "Pradella Sistemi srl", "fee": "no", "operator": "Pradella Sistemi srl"}}, {"type": "node", "id": 10862580721, "lat": 45.5077477, "lon": 9.2196846, "tags": {"access": "yes", "amenity": "charging_station", "brand": "Pradella Sistemi srl", "fee": "no", "operator": "Pradella Sistemi srl"}}, {"type": "node", "id": 10862580722, "lat": 45.5086479, "lon": 9.2190838, "tags": {"access": "yes", "amenity": "charging_station", "brand": "Pradella Sistemi srl", "fee": "no", "operator": "Pradella Sistemi srl"}}, {"type": "node", "id": 10996647458, "lat": 45.5081451, "lon": 9.1253325, "tags": {"access": "yes", "amenity": "charging_station", "bicycle": "yes", "motorcar": "no", "network": "DINAclub", "operator": "Repower", "operator:wikidata": "Q674712", "operator:wikipedia": "it:Repower", "website": "https://www.repower.com/it/dina/"}}, {"type": "node", "id": 11013741831, "lat": 45.5030438, "lon": 9.169806, "tags": {"amenity": "charging_station", "operator:type": "powy"}}, {"type": "node", "id": 11025454305, "lat": 45.51131, "lon": 9.23895, "tags": {"access": "yes", "amenity": "charging_station", "brand": "Pradella Sistemi srl", "fee": "no", "operator": "Pradella Sistemi srl"}}, {"type": "node", "id": 11043891428, "lat": 45.506719, "lon": 9.1229905, "tags": {"access": "yes", "amenity": "charging_station", "bicycle": "yes", "description": "Komoot App e-bike stazione di ricarica https://www.komoot.com/collection/1840155", "name:en": "e-bike charging station", "operator": "Repower", "operator:wikidata": "Q674712", "operator:wikipedia": "it:Repower", "website": "https://www.repower.com/it/dina/"}}, {"type": "node", "id": 11230010245, "lat": 45.4659324, "lon": 9.188203, "tags": {"amenity": "charging_station"}}, {"type": "node", "id": 11269649679, "lat": 45.5088545, "lon": 9.2237614, "tags": {"amenity": "charging_station", "fee": "yes", "motorcar": "yes", "operator": "A2A", "truck": "no"}}, {"type": "node", "id": 11269649680, "lat": 45.5089259, "lon": 9.2237815, "tags": {"amenity": "charging_station", "fee": "yes", "motorcar": "yes", "operator": "A2A", "truck": "no"}}, {"type": "node", "id": 11269649681, "lat": 45.5209959, "lon": 9.2274347, "tags": {"amenity": "charging_station", "fee": "yes", "motorcar": "yes", "operator": "be charge"}}, {"type": "node", "id": 11283958200, "lat": 45.4610868, "lon": 9.1960877, "tags": {"amenity": "charging_station", "authentication:membership_card": "yes", "fee": "yes", "motorcar": "yes", "opening_hours": "24/7", "operator": "enel x", "socket:type2": "2"}}, {"type": "node", "id": 11283967301, "lat": 45.5131938, "lon": 9.186249, "tags": {"amenity": "charging_station", "authentication:membership_card": "yes", "fee": "yes", "motorcar": "yes", "operator": "plenitude"}}, {"type": "node", "id": 11283967302, "lat": 45.5132173, "lon": 9.1861535, "tags": {"amenity": "charging_station", "authentication:membership_card": "yes", "fee": "yes", "motorcar": "yes", "operator": "plenitude"}}, {"type": "node", "id": 11289117931, "lat": 45.4666631, "lon": 9.220017, "tags": {"amenity": "charging_station", "fee": "yes", "motorcar": "yes", "opening_hours": "24/7"}}, {"type": "node", "id": 11289117932, "lat": 45.4554399, "lon": 9.1918813, "tags": {"amenity": "charging_station", "fee": "yes", "motorcar": "yes", "opening_hours": "24/7"}}, {"type": "node", "id": 11289117933, "lat": 45.4542355, "lon": 9.194834, "tags": {"amenity": "charging_station", "fee": "yes", "motorcar": "yes", "opening_hours": "24/7", "operator": "be charge"}}, {"type": "node", "id": 11289117934, "lat": 45.4893291, "lon": 9.192976, "tags": {"amenity": "charging_station", "capacity": "2", "fee": "yes", "motorcar": "yes", "opening_hours": "24/7", "operator": "a2a"}}, {"type": "node", "id": 11293405943, "lat": 45.4748256, "lon": 9.1514705, "tags": {"amenity": "charging_station", "fee": "yes", "motorcar": "yes", "opening_hours": "24/7", "operator": "a2a", "socket:type2": "4"}}, {"type": "node", "id": 11305084805, "lat": 45.4621511, "lon": 9.1935275, "tags": {"amenity": "charging_station", "capacity": "8", "motorcar": "yes", "operator": "a2a", "socket:type2": "2"}}, {"type": "node", "id": 11305084806, "lat": 45.462121, "lon": 9.1934679, "tags": {"amenity": "charging_station", "capacity": "4", "motorcar": "yes", "operator": "a2a", "socket:type2": "2"}}, {"type": "node", "id": 11305086874, "lat": 45.4610073, "lon": 9.1887566, "tags": {"amenity": "charging_station", "motorcar": "yes", "operator": "mp next"}}, {"type": "node", "id": 11305086952, "lat": 45.5097389, "lon": 9.1875061}, {"type": "node", "id": 11305086953, "lat": 45.5096444, "lon": 9.1874641}, {"type": "node", "id": 11305086954, "lat": 45.5096555, "lon": 9.187413}, {"type": "node", "id": 11305086955, "lat": 45.5097501, "lon": 9.187455}, {"type": "node", "id": 11305101068, "lat": 45.4984626, "lon": 9.1869206, "tags": {"amenity": "charging_station", "motorcar": "yes", "opening_hours": "24/7"}}, {"type": "node", "id": 11305120656, "lat": 45.49705, "lon": 9.1919001, "tags": {"amenity": "charging_station", "motorcar": "yes", "opening_hours": "24/7", "operator": "Plenitude"}}, {"type": "node", "id": 11305120657, "lat": 45.4979014, "lon": 9.1916554, "tags": {"amenity": "charging_station", "motorcar": "yes", "opening_hours": "24/7", "operator": "Be Charge"}}, {"type": "node", "id": 11349083243, "lat": 45.4940199, "lon": 9.1909848, "tags": {"amenity": "charging_station", "fee": "no", "motorcar": "yes", "name": "a2a", "opening_hours": "24/7", "operator": "a2a", "socket:type2": "2"}}, {"type": "node", "id": 11634172270, "lat": 45.50984, "lon": 9.2676, "tags": {"access": "yes", "amenity": "charging_station", "brand": "ChargePoint", "brand:wikidata": "Q5176149", "fee": "no", "name": "Charge Point - Pradella Sistemi", "operator": "ChargePoint", "operator:wikidata": "Q5176149"}}, {"type": "node", "id": 11757813427, "lat": 45.4683323, "lon": 9.1740321, "tags": {"amenity": "charging_station"}}, {"type": "node", "id": 11782314025, "lat": 45.5011217, "lon": 9.1666921, "tags": {"amenity": "charging_station", "brand": "BeCharge", "capacity": "2", "fee": "yes", "operator": "BeCharge", "payment:credit_cards": "yes"}}, {"type": "node", "id": 11813363183, "lat": 45.4584377, "lon": 9.1917137, "tags": {"access": "yes", "amenity": "charging_station", "brand": "A2A", "capacity": "2", "covered": "no", "fee": "yes", "operator": "A2A", "ref": "823"}}, {"type": "node", "id": 11818052282, "lat": 45.4336335, "lon": 9.2378713, "tags": {"access": "yes", "amenity": "charging_station", "brand": "Comune di Milano", "fee": "no", "operator": "GaraGeeks", "socket:device:USB-A": "4", "socket:device:qi-wireless": "2", "source": "survey"}}, {"type": "node", "id": 11824649170, "lat": 45.4340928, "lon": 9.2378902}, {"type": "node", "id": 11824649171, "lat": 45.434129, "lon": 9.2379219}, {"type": "node", "id": 11824649172, "lat": 45.4343322, "lon": 9.2374775}, {"type": "node", "id": 11824649173, "lat": 45.434296, "lon": 9.2374431}, {"type": "node", "id": 11875129057, "lat": 45.4647362, "lon": 9.1735085, "tags": {"access": "yes", "amenity": "charging_station", "brand": "Enel X", "brand:wikidata": "Q5376815", "capacity": "2", "fee": "yes", "name": "Enel X", "operator": "Enel X", "operator:wikidata": "Q5376815", "ref": "19XP22T3KK1AT00073", "socket:type2": "2", "socket:type2:output": "22 kW"}}, {"type": "node", "id": 11951573724, "lat": 45.4725983, "lon": 9.2033418, "tags": {"amenity": "charging_station", "capacity": "2", "operator": "Enel X"}}, {"type": "node", "id": 11963022945, "lat": 45.5015912, "lon": 9.1990366, "tags": {"amenity": "charging_station", "capacity": "2", "operator": "Fastway"}}, {"type": "node", "id": 12032750914, "lat": 45.4938299, "lon": 9.2082588, "tags": {"access": "yes", "amenity": "charging_station", "brand": "A2A", "capacity": "2", "fee": "yes", "maxstay": "90 min", "operator": "a2a", "operator:wikidata": "Q279978", "ref": "2003", "socket:chademo": "1", "socket:chademo:output": "50 kW", "socket:type2": "1", "socket:type2:output": "22 kW", "socket:type2_combo": "1", "socket:type2_combo:output": "50 kW"}}, {"type": "node", "id": 12138513246, "lat": 45.4500387, "lon": 9.1723856, "tags": {"amenity": "charging_station"}}, {"type": "node", "id": 12244459982, "lat": 45.5151285, "lon": 9.2253081, "tags": {"access": "yes", "amenity": "charging_station", "brand": "Enel X", "brand:wikidata": "Q5376815", "capacity": "2", "fee": "yes", "name": "Enel X", "opening_hours": "24/7", "operator": "Enel X", "operator:wikidata": "Q5376815", "socket:type2": "yes", "socket:type2:output": "90 kW"}}, {"type": "node", "id": 12250210495, "lat": 45.4485728, "lon": 9.2571574, "tags": {"amenity": "charging_station", "brand": "becharge", "operator": "Be Charge", "operator:wikidata": "Q113289535"}}, {"type": "node", "id": 12278608101, "lat": 45.5287734, "lon": 9.1723996, "tags": {"addr:housenumber": "5a", "addr:postcode": "20161", "addr:street": "Via Antonio Oroboni", "amenity": "charging_station", "name": "colonnina a2a"}}, {"type": "node", "id": 12278859001, "lat": 45.5287231, "lon": 9.1723956, "tags": {"addr:housenumber": "5a", "addr:postcode": "20161", "addr:street": "Via Antonio Oroboni", "amenity": "charging_station", "capacity": "2", "name": "colonnina a2a"}}, {"type": "node", "id": 12282669161, "lat": 45.4779609, "lon": 9.2555916, "tags": {"amenity": "charging_station", "brand": "Enel X", "name": "Enel X", "operator": "Enel X Way", "operator:wikidata": "Q116116836"}}, {"type": "node", "id": 12320473836, "lat": 45.4800725, "lon": 9.2466584, "tags": {"amenity": "charging_station"}}, {"type": "node", "id": 12320473837, "lat": 45.4800319, "lon": 9.2466802, "tags": {"amenity": "charging_station"}}, {"type": "way", "id": 1152470055, "nodes": [10719405285, 10719405286, 10719405287, 10719405288, 10719405285], "tags": {"access": "yes", "amenity": "charging_station", "brand": "BeCharge", "capacity": "2", "name": "BeCharge", "operator": "Be Charge", "operator:wikidata": "Q113289535", "socket:type2:output": "22"}}, {"type": "way", "id": 1220078073, "nodes": [11305086955, 11305086954, 11305086953, 11305086952, 11305086955], "tags": {"amenity": "charging_station", "capacity": "6", "opening_hours": "24/7"}}, {"type": "way", "id": 1273345470, "nodes": [11824649170, 11824649171, 11824649172, 11824649173, 11824649170], "tags": {"access": "private", "amenity": "charging_station", "brand": "Powy", "capacity": "10", "operator": "Stellantis"}}]}