{"version": 0.6, "generator": "Overpass API 0.7.62.1 084b4234", "osm3s": {"timestamp_osm_base": "2024-11-06T19:39:26Z", "copyright": "The data included in this document is from www.openstreetmap.org. The data is made available under ODbL."}, "elements": [{"type": "node", "id": 2331788967, "lat": 46.4841679, "lon": 11.3365489}, {"type": "node", "id": 2331788968, "lat": 46.4841796, "lon": 11.3364944}, {"type": "node", "id": 2593015641, "lat": 46.271645, "lon": 11.4191746, "tags": {"amenity": "charging_station", "capacity": "2", "operator": "Neogy", "socket:schuko": "2"}}, {"type": "node", "id": 3910381551, "lat": 46.4284333, "lon": 11.3396768, "tags": {"amenity": "charging_station", "capacity": "2", "fee": "yes", "motorcar": "yes", "opening_hours": "24/7", "operator": "Alperia", "operator:wikidata": "Q25387077", "operator:wikipedia": "it:Alperia", "socket:type2": "2"}}, {"type": "node", "id": 4196874021, "lat": 46.4809712, "lon": 11.323751, "tags": {"addr:city": "Bolzano - Bozen", "addr:postcode": "39100", "addr:street": "Via lungo isarco sinistro - Linkes Eisackufer", "amenity": "charging_station", "authentication:membership_card": "Alperia", "capacity": "1", "fee": "yes", "opening_hours": "24/7", "operator": "Alperia", "operator:wikidata": "Q25387077", "operator:wikipedia": "it:Alperia", "socket:chademo": "1", "socket:chademo:output": "63 kW", "socket:type2_combo": "1", "socket:type2_combo:output": "75 kW"}}, {"type": "node", "id": 4221703490, "lat": 46.2691239, "lon": 11.2220268, "tags": {"amenity": "charging_station", "name": "Teutschhaus", "operator": "Tesla Destination Charging Partner"}}, {"type": "node", "id": 4366543189, "lat": 46.290416, "lon": 11.4645784, "tags": {"amenity": "charging_station", "operator": "ECO fuel"}}, {"type": "node", "id": 4367448549, "lat": 46.4972441, "lon": 11.2577472, "tags": {"amenity": "charging_station", "fixme": "exact location\nexact sockets\nsomeone with local knowledge?\nhttps://www.golfandcountry.it/e-mobility/ has not the details to finish this.", "operator": "Alperia", "operator:wikidata": "Q25387077", "operator:wikipedia": "it:Alperia"}}, {"type": "node", "id": 4377460502, "lat": 46.4824382, "lon": 11.3282649, "tags": {"amenity": "charging_station", "capacity": "2", "fee": "yes", "opening_hours": "24/7", "operator": "Alperia", "operator:wikidata": "Q25387077", "operator:wikipedia": "it:Alperia", "socket:type2": "2"}}, {"type": "node", "id": 4377460503, "lat": 46.4730745, "lon": 11.3261586, "tags": {"amenity": "charging_station", "capacity": "3", "fee": "yes", "opening_hours": "24/7", "operator": "Alperia", "operator:wikidata": "Q25387077", "operator:wikipedia": "it:Alperia", "socket:chademo": "1", "socket:chademo:output": "63 kW", "socket:type2": "2", "socket:type2:output": "22 kW", "socket:type2_combo": "1", "socket:type2_combo:output": "100 kW"}}, {"type": "node", "id": 4377460504, "lat": 46.4687938, "lon": 11.329563, "tags": {"amenity": "charging_station", "capacity": "2", "fee": "yes", "operator": "Alperia", "operator:wikidata": "Q25387077", "operator:wikipedia": "it:Alperia", "socket:type2": "2"}}, {"type": "node", "id": 4377460505, "lat": 46.4931047, "lon": 11.3151879, "tags": {"amenity": "charging_station", "capacity": "2", "fee": "yes", "fixme": "Please, check the sockets. I've got different sources showing different equipment. One says Type2, one says CCS and CHAdeMo and no Type2\u2026", "opening_hours": "24/7", "operator": "Alperia", "operator:wikidata": "Q25387077", "operator:wikipedia": "it:Alperia", "socket:chademo": "1", "socket:type2": "2"}}, {"type": "node", "id": 4377460507, "lat": 46.5009009, "lon": 11.3451955, "tags": {"amenity": "charging_station", "capacity": "2", "fee": "yes", "operator": "Alperia", "operator:wikidata": "Q25387077", "operator:wikipedia": "it:Alperia", "socket:type2": "2"}}, {"type": "node", "id": 4377460508, "lat": 46.4979381, "lon": 11.3491479, "tags": {"amenity": "charging_station", "capacity": "2", "fee": "yes", "operator": "Alperia", "operator:wikidata": "Q25387077", "operator:wikipedia": "it:Alperia", "socket:type2": "2"}}, {"type": "node", "id": 4377460509, "lat": 46.4904616, "lon": 11.3377878, "tags": {"amenity": "charging_station", "capacity": "2", "fee": "yes", "operator": "Alperia", "operator:wikidata": "Q25387077", "operator:wikipedia": "it:Alperia", "socket:type2": "2"}}, {"type": "node", "id": 4377460510, "lat": 46.4967166, "lon": 11.355377, "tags": {"amenity": "charging_station", "capacity": "2", "fee": "yes", "fixme": "Gibt es die noch ?", "operator": "Alperia", "operator:wikidata": "Q25387077", "operator:wikipedia": "it:Alperia", "socket:type2": "2"}}, {"type": "node", "id": 4377460511, "lat": 46.499805, "lon": 11.3584448, "tags": {"addr:city": "Bolzano - Bozen", "addr:postcode": "39100", "addr:street": "Via Piave - Piavestra\u00dfe", "amenity": "charging_station", "capacity": "2", "fee": "yes", "operator": "Alperia", "operator:wikidata": "Q25387077", "operator:wikipedia": "it:Alperia", "socket:type2": "2"}}, {"type": "node", "id": 5076888966, "lat": 46.3632398, "lon": 11.0972902, "tags": {"amenity": "charging_station", "capacity": "3", "operator": "Tesla Motors (Destination Charging)"}}, {"type": "node", "id": 5318554586, "lat": 46.5283176, "lon": 10.9556874, "tags": {"amenity": "charging_station", "capacity": "2", "operator": "Alperia", "operator:wikidata": "Q25387077", "socket:type2": "2"}}, {"type": "node", "id": 5750918767, "lat": 46.4405103, "lon": 11.1367805, "tags": {"amenity": "charging_station"}}, {"type": "node", "id": 5979622206, "lat": 46.2406774, "lon": 11.2083398, "tags": {"amenity": "charging_station", "amperage": "138", "authentication:app": "yes", "authentication:membership_card": "yes", "bicycle": "no", "motorcar": "yes", "network": "Alperia", "opening_hours": "24/7", "operator": "Alperia", "operator:wikidata": "Q25387077", "operator:wikipedia": "it:Alperia", "parking:fee": "no", "socket:chademo": "1", "socket:chademo:output": "50kW", "socket:type2": "1", "socket:type2:output": "43kW", "socket:type2_combo": "1", "socket:type2_combo:output": "50kW", "voltage": "400"}}, {"type": "node", "id": 6003658642, "lat": 46.4631166, "lon": 11.2787258, "tags": {"amenity": "charging_station", "car": "yes", "socket:tesla_supercharger": "1"}}, {"type": "node", "id": 6003658643, "lat": 46.4631515, "lon": 11.2787268, "tags": {"amenity": "charging_station", "car": "yes", "socket:tesla_supercharger": "1"}}, {"type": "node", "id": 6070417699, "lat": 46.4731771, "lon": 11.3315445, "tags": {"amenity": "charging_station"}}, {"type": "node", "id": 6092379147, "lat": 46.2103071, "lon": 11.0943568, "tags": {"amenity": "charging_station", "capacity": "2"}}, {"type": "node", "id": 6324999856, "lat": 46.4136604, "lon": 11.4271535, "tags": {"access": "yes", "amenity": "charging_station", "capacity": "2", "fee": "yes", "name": "DEUTSCHNOFEN_01-NOVA_PONENTE_01", "name:de": "DEUTSCHNOFEN_01", "name:it": "NOVA_PONENTE_01", "opening_hours": "24/7", "operator": "Alperia", "operator:wikidata": "Q25387077", "operator:wikipedia": "it:Alperia", "payment:credit_cards": "yes", "payment:rfid_card": "yes", "payment:smartphone": "yes", "socket:type2": "2", "socket:type2:output": "22kW", "source": "https://www.greenmobility.bz.it/green-mobility/ladesaeulen/"}}, {"type": "node", "id": 6628566985, "lat": 46.5524504, "lon": 11.2203498, "tags": {"amenity": "charging_station", "capacity": "2", "operator": "Solar-E-Bike-Charger"}}, {"type": "node", "id": 6681764138, "lat": 46.5186625, "lon": 11.5029343, "tags": {"access": "yes", "amenity": "charging_station", "capacity": "2", "fee": "yes", "name": "FIE_01", "opening_hours": "24/7", "operator": "Alperia Smart Mobility", "payment:credit_cards": "yes", "payment:rfid_card": "yes", "payment:smartphone": "yes", "socket:type2": "2", "socket:type2:output": "22kW", "source": "https://www.greenmobility.bz.it/green-mobility/ladesaeulen/"}}, {"type": "node", "id": 6734758211, "lat": 46.5768955, "lon": 11.2388037, "tags": {"access": "customers", "amenity": "charging_station", "bicycle": "yes", "capacity": "4", "car": "no", "fee": "no", "name": "E-Bike Ladestation", "operator": "Bistro Schlaneiderhof"}}, {"type": "node", "id": 6753334961, "lat": 46.494742, "lon": 11.3541915, "tags": {"access": "yes", "amenity": "charging_station", "capacity": "2", "fee": "yes", "name": "BZ_PVERDI", "opening_hours": "24/7", "operator": "Alperia", "operator:wikidata": "Q25387077", "operator:wikipedia": "it:Alperia", "payment:credit_cards": "yes", "payment:rfid_card": "yes", "payment:smartphone": "yes", "socket:chademo": "1", "socket:chademo:output": "50kw", "socket:type2": "1", "socket:type2:output": "43kW", "socket:type2_combo": "1", "socket:type2_combo:output": "50kW"}}, {"type": "node", "id": 6756008915, "lat": 46.3196015, "lon": 11.2697823, "tags": {"access": "yes", "amenity": "charging_station", "capacity": "2", "fee": "yes", "name": "EGNA_02", "name:de": "NEUMARKT_02", "opening_hours": "24/7", "operator": "Alperia", "operator:wikidata": "Q25387077", "operator:wikipedia": "it:Alperia", "payment:credit_cards": "yes", "payment:rfid_card": "yes", "payment:smartphone": "yes", "socket:chademo": "1", "socket:chademo:output": "60 kW", "socket:type2_combo": "2", "socket:type2_combo:output": "100 kW"}}, {"type": "node", "id": 6757181852, "lat": 46.5290595, "lon": 11.4084296, "tags": {"access": "yes", "amenity": "charging_station", "capacity": "2", "fee": "yes", "name": "RITTEN_01", "opening_hours": "24/7", "operator": "Alperia Smart Mobility", "payment:credit_cards": "yes", "payment:rfid_card": "yes", "payment:smartphone": "yes", "socket:type2": "2", "socket:type2:output": "22kW", "source": "https://www.greenmobility.bz.it/green-mobility/ladesaeulen/"}}, {"type": "node", "id": 7126834079, "lat": 46.2078431, "lon": 11.1284342, "tags": {"amenity": "charging_station"}}, {"type": "node", "id": 7130577524, "lat": 46.3134849, "lon": 11.2219863, "tags": {"amenity": "charging_station"}}, {"type": "node", "id": 7434964972, "lat": 46.4075857, "lon": 11.2348529, "tags": {"amenity": "charging_station", "capacity": "2", "motorcar": "yes", "operator": "neogy alperia", "socket:type2": "2"}}, {"type": "node", "id": 7683316749, "lat": 46.6161966, "lon": 11.144362, "tags": {"amenity": "charging_station", "capacity": "3", "operator": "Alperia", "operator:wikidata": "Q25387077"}}, {"type": "node", "id": 7683329282, "lat": 46.6127741, "lon": 11.1565973, "tags": {"amenity": "charging_station", "capacity": "2", "operator": "alperia", "operator:wikidata": "Q25387077"}}, {"type": "node", "id": 7711594985, "lat": 46.2715439, "lon": 10.9321165, "tags": {"access": "customers", "amenity": "charging_station", "capacity": "5", "fee": "no", "name": "Malga Tuena", "note": "solo per E-Bike"}}, {"type": "node", "id": 7771032859, "lat": 46.5581998, "lon": 11.120626, "tags": {"amenity": "charging_station", "bicycle": "yes", "capacity": "6", "motorcar": "no", "name": "E-Bike Ladestation Berggasthof Natz", "socket:schuko": "6"}}, {"type": "node", "id": 7799282585, "lat": 46.4975389, "lon": 11.4504824, "tags": {"amenity": "charging_station"}}, {"type": "node", "id": 7862177944, "lat": 46.3646253, "lon": 11.0328422, "tags": {"amenity": "charging_station"}}, {"type": "node", "id": 7937555544, "lat": 46.3208166, "lon": 11.0463699, "tags": {"amenity": "charging_station"}}, {"type": "node", "id": 8254110520, "lat": 46.314862, "lon": 11.2714923, "tags": {"amenity": "charging_station", "capacity": "2", "charging_station:output": "44 kW", "fee": "yes", "opening_hours": "24/7", "operator": "Neogy", "socket:type2": "2", "socket:type2:output": "22 kW"}}, {"type": "node", "id": 8254110521, "lat": 46.3159495, "lon": 11.2734846, "tags": {"amenity": "charging_station", "brand": "Enel X", "brand:wikidata": "Q5376815", "capacity": "2", "charging_station:output": "25 kW", "name": "Enel X", "opening_hours": "24/7", "operator": "Enel X", "operator:wikidata": "Q5376815", "socket:type2": "1", "socket:type2:output": "22 kW", "socket:type3a": "1"}}, {"type": "node", "id": 8384405958, "lat": 46.4948351, "lon": 11.3255902, "tags": {"amenity": "charging_station"}}, {"type": "node", "id": 8498448478, "lat": 46.4781162, "lon": 11.3250817, "tags": {"amenity": "charging_station"}}, {"type": "node", "id": 8592799182, "lat": 46.3845575, "lon": 11.2578917, "tags": {"amenity": "charging_station", "capacity": "2", "operator": "Neogy"}}, {"type": "node", "id": 8606000133, "lat": 46.3410855, "lon": 11.2399209, "tags": {"access": "yes", "amenity": "charging_station", "authentication:none": "yes", "bicycle": "yes", "capacity": "3", "description": "Entsprechende Ladekabel m\u00fcssen selbst mitgebracht werden", "fee": "no", "motorcar": "no", "motorcycle": "no", "name": "E-Bike-Ladestation", "name:de": "E-Bike-Ladestation", "name:en": "E-bike charging station", "name:it": "Stazione di ricarica per ebike", "opening_hours": "24/7", "operator": "Gemeinde Tramin", "scooter": "yes", "socket:schuko": "3", "truck": "no"}}, {"type": "node", "id": 8755456909, "lat": 46.5293362, "lon": 11.2484051, "tags": {"amenity": "charging_station", "capacity": "1"}}, {"type": "node", "id": 8792437125, "lat": 46.2166102, "lon": 11.0874888, "tags": {"amenity": "charging_station"}}, {"type": "node", "id": 8862680568, "lat": 46.4823008, "lon": 11.4608204, "tags": {"amenity": "charging_station"}}, {"type": "node", "id": 8897550462, "lat": 46.4722154, "lon": 11.3307119, "tags": {"amenity": "charging_station"}}, {"type": "node", "id": 8913813206, "lat": 46.5006799, "lon": 11.3495511, "tags": {"amenity": "charging_station", "capacity": "2", "fee": "yes", "operator": "Alperia", "operator:wikidata": "Q25387077", "operator:wikipedia": "it:Alperia", "socket:type2": "2"}}, {"type": "node", "id": 8989924787, "lat": 46.6237811, "lon": 11.2989475, "tags": {"amenity": "charging_station", "bicycle": "yes", "brand": "bike-energy", "brand:wikidata": "Q67770877", "capacity": "2", "check_date": "2020-06-30", "description": "Ladestation f\u00fcr 2 E-Bikes", "motor_vehicle": "no", "name": "M\u00f6ltner Kaser", "unsigned_ref": "1959"}}, {"type": "node", "id": 9082326476, "lat": 46.4402831, "lon": 11.2596458, "tags": {"amenity": "charging_station", "capacity": "2", "operator": "Alperia", "operator:wikidata": "Q25387077"}}, {"type": "node", "id": 9121838272, "lat": 46.6159502, "lon": 11.1484284, "tags": {"amenity": "charging_station"}}, {"type": "node", "id": 9139504041, "lat": 46.3266279, "lon": 11.0239275, "tags": {"access": "yes", "amenity": "charging_station", "capacity": "2", "fee": "yes", "operator": "Enogy"}}, {"type": "node", "id": 9772311402, "lat": 46.6064486, "lon": 11.1537481, "tags": {"access": "private", "amenity": "charging_station", "capacity": "1", "motorcar": "yes", "socket:type2": "2", "socket:type2:output": "11 kw"}}, {"type": "node", "id": 9785376607, "lat": 46.4896127, "lon": 11.3056173, "tags": {"amenity": "charging_station", "operator": "Alperia Smart Mobility GmbH", "socket:type2": "2", "socket:type2:output": "22 kW"}}, {"type": "node", "id": 9793178116, "lat": 46.3909603, "lon": 11.2062675, "tags": {"amenity": "charging_station", "bicycle": "yes"}}, {"type": "node", "id": 9899835157, "lat": 46.54205, "lon": 10.9904024, "tags": {"access": "yes", "amenity": "charging_station", "authentication:none": "yes", "bicycle": "yes", "covered": "yes", "fee": "no", "motorcar": "no", "socket:schuko": "6"}}, {"type": "node", "id": 9914110824, "lat": 46.61273, "lon": 11.1566242, "tags": {"access": "yes", "amenity": "charging_station", "authentication:none": "yes", "bicycle": "yes", "capacity": "4", "covered": "no", "fee": "no", "motorcar": "no", "motorcycle": "no", "name": "E-Bike Ladestelle", "opening_hours": "24/7", "scooter": "no", "socket:schuko": "4", "truck": "no"}}, {"type": "node", "id": 9930249251, "lat": 46.5639262, "lon": 11.1692463, "tags": {"amenity": "charging_station", "bicycle": "yes", "motor_vehicle": "no"}}, {"type": "node", "id": 9955036758, "lat": 46.3833232, "lon": 11.2571967, "tags": {"amenity": "charging_station", "bicycle": "yes", "capacity": "1", "operator": "NEOGY"}}, {"type": "node", "id": 10047154093, "lat": 46.3472964, "lon": 11.2974749, "tags": {"amenity": "charging_station", "capacity": "1", "operator": "Alperia"}}, {"type": "node", "id": 10101421791, "lat": 46.3660595, "lon": 10.9451964, "tags": {"amenity": "charging_station", "bicycle": "yes", "operator": "Dolomiti Energia"}}, {"type": "node", "id": 10636798714, "lat": 46.5012718, "lon": 11.3396956}, {"type": "node", "id": 10636798715, "lat": 46.5012998, "lon": 11.3397505}, {"type": "node", "id": 10636798716, "lat": 46.5012872, "lon": 11.3398394}, {"type": "node", "id": 10636798717, "lat": 46.5012579, "lon": 11.339781}, {"type": "node", "id": 10692761818, "lat": 46.3215579, "lon": 11.2644257, "tags": {"access": "yes", "amenity": "charging_station", "bicycle": "yes", "capacity": "3", "covered": "yes", "fee": "no", "motorcar": "no", "name": "E-Bike-Ladestation", "operator": "Jungmann - Wohnzentrum"}}, {"type": "node", "id": 10692932640, "lat": 46.3213875, "lon": 11.2649809, "tags": {"access": "yes", "amenity": "charging_station", "bicycle": "yes", "capacity": "3", "fee": "no", "motorcar": "no", "name": "E-Bike-Ladestation", "operator": "Jungmann - Wohnzentrum"}}, {"type": "node", "id": 10694291791, "lat": 46.3217875, "lon": 11.2642987, "tags": {"access": "yes", "amenity": "charging_station", "capacity": "2", "covered": "no", "fee": "yes", "fixme": "exact position", "operator": "Alperia", "operator:wikidata": "Q25387077", "socket:chademo": "1", "socket:chademo:output": "50 kW", "socket:type2": "1", "socket:type2:output": "22 kW", "socket:type2_combo": "1", "socket:type2_combo:output": "50 kW"}}, {"type": "node", "id": 10758457172, "lat": 46.3627638, "lon": 11.0331603, "tags": {"access": "yes", "amenity": "charging_station", "covered": "no", "fee": "yes", "operator": "Powy (ex TheF Charging)"}}, {"type": "node", "id": 10796832051, "lat": 46.511265, "lon": 11.1085777, "tags": {"amenity": "charging_station", "name": "Alperia"}}, {"type": "node", "id": 10844491842, "lat": 46.4050293, "lon": 11.1391454, "tags": {"amenity": "charging_station"}}, {"type": "node", "id": 10915874505, "lat": 46.3692062, "lon": 11.0797105, "tags": {"amenity": "charging_station"}}, {"type": "node", "id": 11002229544, "lat": 46.3042943, "lon": 11.4565971, "tags": {"amenity": "charging_station"}}, {"type": "node", "id": 11020024289, "lat": 46.2492112, "lon": 11.171072, "tags": {"amenity": "charging_station", "bicycle": "yes"}}, {"type": "node", "id": 11031980353, "lat": 46.212929, "lon": 11.1479307, "tags": {"access": "yes", "amenity": "charging_station", "bicycle": "yes", "capacity": "5", "covered": "yes", "fee": "no", "motorcar": "no", "operator": "BikeBreak"}}, {"type": "node", "id": 11031980354, "lat": 46.3847109, "lon": 11.2598787, "tags": {"access": "yes", "amenity": "charging_station", "bicycle": "yes", "capacity": "5", "covered": "no", "fee": "no", "motorcar": "no", "name": "E-Rad-Ladestation", "name:de": "E-Rad-Ladestation", "operator": "Lido", "operator:de": "Lido"}}, {"type": "node", "id": 11037462314, "lat": 46.604734, "lon": 11.4566204, "tags": {"access": "yes", "amenity": "charging_station", "bicycle": "yes", "capacity": "6", "covered": "no", "fee": "no", "motorcar": "no", "name": "E-Bike - Ladestation", "operator": "Felturner H\u00fctte"}}, {"type": "node", "id": 11074004276, "lat": 46.4559654, "lon": 11.2586708}, {"type": "node", "id": 11074004279, "lat": 46.455963, "lon": 11.2585786}, {"type": "node", "id": 11074004283, "lat": 46.4560134, "lon": 11.2586236}, {"type": "node", "id": 11074004287, "lat": 46.4559641, "lon": 11.2586261, "tags": {"capacity": "2", "description": "https://openchargemap.org/site/poi/details/42393", "man_made": "charge_point", "name": "Appiano", "operator": "Alperia", "operator:wikidata": "Q25387077", "operator:wikipedia": "it:Alperia", "operator:wikipedia:de": "Alperia", "socket:type2": "2", "socket:type2:output": "22kW"}}, {"type": "node", "id": 11074004288, "lat": 46.4560123, "lon": 11.2585762}, {"type": "node", "id": 11074004290, "lat": 46.4560147, "lon": 11.2586684}, {"type": "node", "id": 11081643528, "lat": 46.5358224, "lon": 11.3309895, "tags": {"amenity": "charging_station", "authentication:app": "yes", "authentication:membership_card": "yes", "authentication:nfc": "yes", "bicycle": "yes", "brand": "Eco spazio", "fee": "no", "level": "0", "opening_hours": "24/7", "website": "https://ccsaltosiciliar.ecospazio.it"}}, {"type": "node", "id": 11093676884, "lat": 46.5487212, "lon": 11.004653, "tags": {"amenity": "charging_station", "capacity": "2", "motorcar": "yes", "operator": "Neogy", "socket:type2": "2", "socket:type2:output": "22 kW", "socket:type2_cable": "no"}}, {"type": "node", "id": 11100928725, "lat": 46.570011, "lon": 11.522822, "tags": {"amenity": "charging_station", "capacity": "2", "note": "https://www.autobrennero.it/de/auf-der-reise/dienstleistungen/e-ladesaulen/", "opening_hours": "24/7", "parking:fee": "no", "socket:type2_combo": "2", "socket:type2_combo:output": "180 kW"}}, {"type": "node", "id": 11116724971, "lat": 46.4998128, "lon": 11.3102594, "tags": {"access": "yes", "amenity": "charging_station", "brand": "NEOGY Alperia", "fee": "yes", "not:operator:wikidata": "Q25387077", "operator": "Alperia", "payment:credit_cards": "yes", "socket:chademo": "1", "socket:chademo:output": "63 kW", "socket:type2_combo": "1", "socket:type2_combo:output": "75 kW"}}, {"type": "node", "id": 11148558540, "lat": 46.3677776, "lon": 11.0344167, "tags": {"access": "yes", "amenity": "charging_station", "capacity": "2", "covered": "no", "fee": "yes"}}, {"type": "node", "id": 11158382919, "lat": 46.3199864, "lon": 11.0463186, "tags": {"amenity": "charging_station", "brand": "Neogy"}}, {"type": "node", "id": 11192898194, "lat": 46.4938729, "lon": 11.3475018, "tags": {"access": "yes", "amenity": "charging_station", "bicycle": "yes", "capacity": "6", "fee": "no", "motorcar": "no", "name": "E-Bike - Ladestation", "operator": "Eurac"}}, {"type": "node", "id": 11231212901, "lat": 46.3225948, "lon": 11.3490788, "tags": {"amenity": "charging_station", "motorcar": "yes", "socket:type2": "2"}}, {"type": "node", "id": 11240637159, "lat": 46.2127233, "lon": 11.1479024, "tags": {"access": "yes", "amenity": "charging_station", "bicycle": "yes", "capacity": "5", "covered": "yes", "fee": "no", "motorcar": "no", "operator": "BikeBreak"}}, {"type": "node", "id": 11267450615, "lat": 46.4729955, "lon": 11.3251592, "tags": {"amenity": "charging_station", "bicycle": "yes", "fixme": "check exact location", "motorcar": "no"}}, {"type": "node", "id": 11496987073, "lat": 46.4286898, "lon": 11.3399895, "tags": {"amenity": "charging_station"}}, {"type": "node", "id": 11758879884, "lat": 46.4982727, "lon": 11.3651578, "tags": {"amenity": "charging_station"}}, {"type": "node", "id": 11758879886, "lat": 46.4982135, "lon": 11.3652652, "tags": {"amenity": "charging_station"}}, {"type": "node", "id": 11802164441, "lat": 46.3246994, "lon": 11.3809527, "tags": {"access": "yes", "amenity": "charging_station", "bicycle": "yes", "capacity": "4", "covered": "yes", "fee": "no", "motorcar": "no", "name": "e-Bike- Ladestation", "operator": "Martin"}}, {"type": "node", "id": 11998834138, "lat": 46.5523818, "lon": 11.2130821, "tags": {"access": "yes", "amenity": "charging_station", "capacity": "2", "fee": "yes", "operator": "Alperia", "operator:wikidata": "Q25387077", "socket:chademo": "1", "socket:chademo:output": "60 kW", "socket:type2_combo": "2", "socket:type2_combo:output": "100 kW"}}, {"type": "node", "id": 11998847133, "lat": 46.5635658, "lon": 11.2133195, "tags": {"access": "yes", "amenity": "charging_station", "capacity": "2", "fee": "yes", "operator": "Alperia", "operator:wikidata": "Q25387077", "socket:chademo": "1", "socket:chademo:output": "60 kW", "socket:type2_combo": "2", "socket:type2_combo:output": "150 kW"}}, {"type": "node", "id": 11999600972, "lat": 46.3329355, "lon": 11.3005802, "tags": {"access": "yes", "amenity": "charging_station", "capacity": "2", "fee": "yes", "operator": "Enel Drive", "socket:chademo": "1", "socket:chademo:output": "50 kW", "socket:type2": "1", "socket:type2:output": "43 kW", "socket:type2_combo": "1", "socket:type2_combo:output": "50 kW"}}, {"type": "node", "id": 12000552269, "lat": 46.3127569, "lon": 11.2726057, "tags": {"amenity": "charging_station", "name": "Fahrrad"}}, {"type": "node", "id": 12000639393, "lat": 46.4943781, "lon": 11.2806696, "tags": {"amenity": "charging_station", "operator": "Alperia", "operator:wikidata": "Q25387077", "socket:chademo": "1", "socket:chademo:output": "50 kW", "socket:type2_combo": "2", "socket:type2_combo:output": "100 kW"}}, {"type": "node", "id": 12000710791, "lat": 46.4794996, "lon": 11.33187, "tags": {"access": "yes", "amenity": "charging_station", "fee": "yes", "operator": "Alperia", "operator:wikidata": "Q25387077", "socket:chademo": "1", "socket:chademo:output": "50 kW", "socket:type2": "1", "socket:type2:output": "44 kW", "socket:type2_combo": "1", "socket:type2_combo:output": "50 kW"}}, {"type": "node", "id": 12000711762, "lat": 46.4918925, "lon": 11.3993236, "tags": {"amenity": "charging_station", "fixme": "exact position", "operator": "Alperia", "operator:wikidata": "Q25387077", "socket:chademo": "1", "socket:type2_combo": "1"}}, {"type": "node", "id": 12000712153, "lat": 46.4842299, "lon": 11.3365091}, {"type": "node", "id": 12000712154, "lat": 46.4842165, "lon": 11.3365724}, {"type": "node", "id": 12000712155, "lat": 46.4841807, "lon": 11.3364859}, {"type": "node", "id": 12000723035, "lat": 46.4716003, "lon": 11.3171125, "tags": {"access": "yes", "amenity": "charging_station", "capacity": "2", "fee": "yes", "fixme": "exact position", "operator": "Alperia", "operator:wikidata": "Q25387077", "socket:chademo": "1", "socket:chademo:output": "63 kW", "socket:type2_combo": "1", "socket:type2_combo:output": "100 kW"}}, {"type": "node", "id": 12015466997, "lat": 46.3478731, "lon": 11.2983058, "tags": {"access": "yes", "amenity": "charging_station", "brand": "eBike  Ladestation", "website": "https://www.suedtirol.info/en/en/experiences-and-events/plp-experiences/experiences-south-tyrol/pdp-experience.smgpoi02c9cdd8accbfb58fb6408f2a764c73d.free-charging-station-for-e-bikes-and-bike-repair-station-in-auer-ora.ora-auer"}}, {"type": "node", "id": 12067701830, "lat": 46.5311198, "lon": 11.3405049, "tags": {"access": "customers", "amenity": "charging_station", "bicycle": "no"}}, {"type": "node", "id": 12067701834, "lat": 46.531108, "lon": 11.3406208, "tags": {"access": "customers", "amenity": "charging_station", "bicycle": "no"}}, {"type": "node", "id": 12117426582, "lat": 46.4863904, "lon": 11.3364287, "tags": {"access": "yes", "amenity": "charging_station", "bicycle": "no", "capacity": "12", "fee": "yes", "level": "-1", "maxstay": "unlimited", "motorcar": "yes", "parking:fee": "no", "payment:app": "yes", "payment:cards": "no", "payment:cash": "no", "payment:membership_card": "no", "payment:qr_code": "no", "socket:tesla_supercharger_ccs": "12", "socket:tesla_supercharger_ccs:output": "250kW"}}, {"type": "node", "id": 12117440266, "lat": 46.4950276, "lon": 11.3471659, "tags": {"access": "yes", "amenity": "charging_station", "bicycle": "no", "capacity": "2", "fee": "yes", "maxstay": "4 hours", "motorcar": "yes", "opening_hours": "24/7", "operator": "Alperia", "operator:wikidata": "Q25387077", "payment:app": "no", "payment:cards": "no", "payment:cash": "no", "payment:membership_card": "yes", "payment:qr_code": "no", "socket:type2": "2", "socket:type2:current": "32 A", "socket:type2:output": "22 kW", "socket:type2:voltage": "400 V"}}, {"type": "node", "id": 12135891403, "lat": 46.4134367, "lon": 11.2462724, "tags": {"amenity": "charging_station", "capacity": "2", "name": "Bike charging station"}}, {"type": "node", "id": 12136406258, "lat": 46.5945231, "lon": 11.2687418, "tags": {"amenity": "charging_station"}}, {"type": "node", "id": 12136442508, "lat": 46.4131785, "lon": 11.2463002, "tags": {"amenity": "charging_station"}}, {"type": "node", "id": 12143979036, "lat": 46.5842211, "lon": 11.5107792, "tags": {"access": "customers", "amenity": "charging_station", "capacity": "2"}}, {"type": "node", "id": 12169874819, "lat": 46.2195308, "lon": 11.2910217, "tags": {"amenity": "charging_station", "capacity": "2", "name": "Colonnina ricarica eBike", "not:operator:wikidata": "Q234021"}}, {"type": "node", "id": 12189823567, "lat": 46.2485179, "lon": 11.1806823, "tags": {"amenity": "charging_station", "bicycle": "yes"}}, {"type": "node", "id": 12287643464, "lat": 46.3856732, "lon": 11.2698634, "tags": {"access": "customers", "amenity": "charging_station", "capacity": "1", "fee": "yes", "level": "0", "payment:electronic_purses": "yes", "socket:type2": "1"}}, {"type": "way", "id": 1142032282, "nodes": [10636798714, 10636798715, 10636798716, 10636798717, 10636798714], "tags": {"access": "yes", "amenity": "charging_station", "brand": "Neogy", "capacity": "2", "covered": "no", "description": "Ad uso gratuito fino al 19-2-2023", "fee": "yes", "manufacturer": "Alpitronic", "maxstay": "4 hours", "name": "Alperia Neogy BZ Mazzini", "operator": "Alperia", "operator:wikidata": "Q25387077", "operator:wikipedia": "it:Alperia", "parking:fee": "no", "payment:app": "yes", "ref": "HYC5022BZ00069", "socket:type2_combo": "2", "socket:type2_combo:output": "50 kW", "start_date": "2023-01-16", "website": "https://www.user.neogy.it/"}}, {"type": "way", "id": 1193017256, "nodes": [11074004279, 11074004287, 11074004276, 11074004290, 11074004283, 11074004288, 11074004279], "tags": {"amenity": "charging_station", "capacity": "2", "description": "https://openchargemap.org/site/poi/details/42393", "name": "Appiano", "operator": "Alperia", "operator:wikidata": "Q25387077", "operator:wikipedia": "it:Alperia", "operator:wikipedia:de": "Alperia", "socket:type2": "2", "socket:type2:output": "22kW"}}, {"type": "way", "id": 1294962814, "nodes": [12000712153, 12000712154, 2331788967, 2331788968, 12000712155, 12000712153], "tags": {"access": "yes", "amenity": "charging_station", "capacity": "2", "fee": "yes", "opening_hours": "Mo-Fr 08:00-18:30; Sa 08:00-12:00", "operator": "Alperia", "operator:wikidata": "Q25387077", "socket:chademo": "1", "socket:chademo:output": "60 kW", "socket:type2": "1", "socket:type2:output": "11 kW", "socket:type2_combo": "1", "socket:type2_combo:output": "90 kW"}}]}