{"version": 0.6, "generator": "Overpass API 0.7.62.1 084b4234", "osm3s": {"timestamp_osm_base": "2024-11-06T19:38:22Z", "copyright": "The data included in this document is from www.openstreetmap.org. The data is made available under ODbL."}, "elements": [{"type": "node", "id": 6103444179, "lat": 41.2314314, "lon": 13.5542611, "tags": {"amenity": "charging_station", "brand": "Enel X", "brand:wikidata": "Q5376815", "capacity": "1", "frequency": "50", "name": "Enel X", "operator": "Enel X", "operator:wikidata": "Q5376815", "ref:enel:serial_number": "18XP22T5HK4U000059", "voltage": "400"}}, {"type": "node", "id": 6106137353, "lat": 41.2197694, "lon": 13.5586045, "tags": {"amenity": "charging_station", "brand": "Enel X", "brand:wikidata": "Q5376815", "brand:wikipedia": "en:Enel X", "capacity": "1", "frequency": "50", "name": "Enel X", "operator": "Enel X", "operator:wikidata": "Q5376815", "operator:wikipedia": "en:Enel X", "ref:enel:serial_number": "18XP22T5AB5U000092", "voltage": "400"}}, {"type": "node", "id": 6124696321, "lat": 41.2203368, "lon": 13.5698062, "tags": {"amenity": "charging_station", "brand": "Enel", "brand:wikidata": "Q651222", "brand:wikipedia": "en:Enel", "capacity": "1", "name": "Enel - stazione di ricarica", "operator": "Enel", "operator:wikidata": "Q651222", "ref:enel:serial_number": "18XP22T5LB4U000062", "voltage": "400"}}, {"type": "node", "id": 6470916423, "lat": 41.2138395, "lon": 13.5643317, "tags": {"amenity": "charging_station", "brand": "Enel X", "brand:wikidata": "Q5376815", "brand:wikipedia": "en:Enel", "capacity": "2", "name": "Enel", "operator": "Enel X", "operator:wikidata": "Q5376815", "position": "41.213930, 13.564254", "ref:enel:serial_number": "18XP22T5LB4U000213", "voltage": "400"}}, {"type": "node", "id": 6855205782, "lat": 41.2346214, "lon": 13.4920819, "tags": {"amenity": "charging_station", "capacity": "2", "fee": "yes", "frequency": "50", "motorcar": "yes", "name": "Enel X Way", "opening_hours": "24/7", "operator": "Enel X Way", "protection_level": "IP44", "ref:enel:serial_number": "18XP22T5AB5U000082", "voltage": "400"}}, {"type": "node", "id": 6925011691, "lat": 41.2134368, "lon": 13.572298, "tags": {"amenity": "charging_station", "brand": "Enel X", "brand:wikidata": "Q5376815", "brand:wikipedia": "en:Enel", "capacity": "1", "name": "Enel", "operator": "Enel X", "operator:wikidata": "Q5376815", "position": "41\u00b012'48.31\"N  13\u00b034'20.33\"E", "ref:enel:serial_number": "18XP22T5HK4AH00098", "voltage": "400"}}, {"type": "node", "id": 7114154710, "lat": 41.2283922, "lon": 13.5664433, "tags": {"amenity": "charging_station", "brand": "Enel X", "brand:wikidata": "Q5376815", "brand:wikipedia": "en:Enel X", "capacity": "1", "frequency": "50", "name": "Enel", "operator": "Enel X", "operator:wikidata": "Q5376815", "operator:wikipedia": "en:Enel X", "ref:enel:serial_number": "18XP22T5AB5U000083", "voltage": "400"}}, {"type": "node", "id": 7232717444, "lat": 41.2246288, "lon": 13.5639474, "tags": {"access": "yes", "amenity": "charging_station", "brand": "Enel X", "brand:wikidata": "Q5376815", "brand:wikipedia": "en:Enel X", "capacity": "2", "name": "Enel", "operator": "Enel X", "operator:wikidata": "Q5376815", "operator:wikipedia": "en:Enel X", "ref:enel:serial_number": "18XP22T5AB5U000084"}}, {"type": "node", "id": 7721219187, "lat": 41.2136867, "lon": 13.5666523, "tags": {"access": "yes", "amenity": "charging_station", "brand": "Enel X", "brand:wikidata": "Q5376815", "brand:wikipedia": "en:Enel", "capacity": "2", "name": "Enel X Way", "operator": "Enel X", "operator:wikidata": "Q5376815", "ref:enel:serial_number": "18XP22T5HK4AH00089"}}, {"type": "node", "id": 7974834148, "lat": 41.389269, "lon": 13.5305017, "tags": {"amenity": "charging_station", "operator": "Enel-X"}}, {"type": "node", "id": 7974834149, "lat": 41.3892745, "lon": 13.5304826, "tags": {"amenity": "charging_station", "operator": "Comune di Campodimele"}}, {"type": "node", "id": 8546863999, "lat": 41.4123376, "lon": 13.0446124, "tags": {"amenity": "charging_station", "brand": "Enel X", "brand:wikidata": "Q5376815", "charging_station:output": "25 KW", "name": "Enel X", "opening_hours": "24/7", "operator": "Enel X", "operator:wikidata": "Q5376815", "ref": "18XP22T5AB1U000069", "socket:type2": "2", "socket:type2:output": "22 kW", "socket:type3": "1"}}, {"type": "node", "id": 8922782796, "lat": 41.2119116, "lon": 13.5577672, "tags": {"amenity": "charging_station", "brand": "Enel X", "brand:wikidata": "Q5376815", "brand:wikipedia": "en:Enel", "name": "Enel X", "operator": "Enel X", "operator:wikidata": "Q5376815"}}, {"type": "node", "id": 8922782798, "lat": 41.2107197, "lon": 13.570915, "tags": {"access": "yes", "amenity": "charging_station", "brand": "Enel X", "brand:wikidata": "Q5376815", "brand:wikipedia": "en:Enel", "capacity": "2", "name": "Enel", "operator": "Enel X", "operator:wikidata": "Q5376815"}}, {"type": "node", "id": 8922784218, "lat": 41.2159113, "lon": 13.5646282, "tags": {"access": "yes", "amenity": "charging_station", "brand": "Enel X", "brand:wikidata": "Q5376815", "brand:wikipedia": "en:Enel", "capacity": "2", "name": "Enel X Way", "operator": "Enel X", "operator:wikidata": "Q5376815"}}, {"type": "node", "id": 10876491866, "lat": 41.3435336, "lon": 13.3076794, "tags": {"amenity": "charging_station"}}, {"type": "node", "id": 11773723020, "lat": 41.2972495, "lon": 13.3062379, "tags": {"amenity": "charging_station", "capacity": "2"}}, {"type": "node", "id": 11947949574, "lat": 41.2630917, "lon": 13.4324707, "tags": {"amenity": "charging_station", "brand": "Enel X", "brand:wikidata": "Q5376815", "name": "Enel X", "operator": "Enel X", "operator:wikidata": "Q5376815"}}]}