{"version": 0.6, "generator": "Overpass API 0.7.62.1 084b4234", "osm3s": {"timestamp_osm_base": "2024-11-06T19:41:29Z", "copyright": "The data included in this document is from www.openstreetmap.org. The data is made available under ODbL."}, "elements": [{"type": "node", "id": 3023024125, "lat": 44.4748326, "lon": 6.9889211, "tags": {"access": "yes", "amenity": "charging_station", "amperage": "16", "authentication:none": "yes", "bicycle": "yes", "capacity": "2", "fee": "no", "network": "DINAclub", "opening_hours": "24/7", "operator": "Repower", "operator:wikidata": "Q674712", "operator:wikipedia": "it:Repower", "socket:typee": "1", "voltage": "230", "website": "https://www.repower.com/it/dina/"}}, {"type": "node", "id": 6080641163, "lat": 44.2266687, "lon": 6.9318822, "tags": {"access": "yes", "amenity": "charging_station", "capacity": "4", "description": "4 bornes", "fee": "yes", "name": "Prise de Nice", "payment:credit_cards": "yes", "payment:debit_cards": "yes"}}, {"type": "node", "id": 7862360484, "lat": 44.2566173, "lon": 6.9220878, "tags": {"access": "yes", "amenity": "charging_station", "capacity": "2", "fee": "yes", "name": "Prise de Nice", "payment:credit_cards": "yes", "payment:debit_cards": "yes"}}, {"type": "node", "id": 9977198997, "lat": 44.283918, "lon": 6.8650002, "tags": {"access": "yes", "amenity": "charging_station", "authentication:none": "yes", "bicycle": "yes", "fee": "no", "image": "https://i.imgur.com/FqMOzsc.jpg", "motorcar": "no", "opening_hours": "24/7", "socket:typee": "4"}}, {"type": "node", "id": 12012285247, "lat": 44.256845, "lon": 6.9222346, "tags": {"access": "yes", "amenity": "charging_station", "bicycle": "yes", "motor_vehicle": "no"}}]}