{"version": 0.6, "generator": "Overpass API 0.7.62.1 084b4234", "osm3s": {"timestamp_osm_base": "2024-11-11T19:32:46Z", "copyright": "The data included in this document is from www.openstreetmap.org. The data is made available under ODbL."}, "elements": [{"type": "node", "id": 245481617, "lat": 45.4963977, "lon": 9.1153401}, {"type": "node", "id": 345477524, "lat": 45.5164177, "lon": 9.1364429}, {"type": "node", "id": 345477526, "lat": 45.5161658, "lon": 9.1362724}, {"type": "node", "id": 345477527, "lat": 45.5161881, "lon": 9.1365125}, {"type": "node", "id": 476511705, "lat": 45.5083979, "lon": 9.1977552}, {"type": "node", "id": 476511706, "lat": 45.5082288, "lon": 9.1984608}, {"type": "node", "id": 476511707, "lat": 45.5085336, "lon": 9.197823}, {"type": "node", "id": 476511708, "lat": 45.5083581, "lon": 9.1985189}, {"type": "node", "id": 506794640, "lat": 45.469867, "lon": 9.2368502}, {"type": "node", "id": 506794642, "lat": 45.4698666, "lon": 9.2371193}, {"type": "node", "id": 506794643, "lat": 45.4699457, "lon": 9.2371195}, {"type": "node", "id": 506794645, "lat": 45.4699458, "lon": 9.2370349}, {"type": "node", "id": 506794646, "lat": 45.4700053, "lon": 9.237035}, {"type": "node", "id": 506794647, "lat": 45.4700053, "lon": 9.2370654}, {"type": "node", "id": 506794649, "lat": 45.470093, "lon": 9.2370656}, {"type": "node", "id": 506794651, "lat": 45.470093, "lon": 9.2370303}, {"type": "node", "id": 506794654, "lat": 45.4702319, "lon": 9.2370306}, {"type": "node", "id": 506794656, "lat": 45.470232, "lon": 9.2369912}, {"type": "node", "id": 506794657, "lat": 45.4704061, "lon": 9.2369916}, {"type": "node", "id": 506794660, "lat": 45.4704062, "lon": 9.2368514}, {"type": "node", "id": 634639530, "lat": 45.4887244, "lon": 9.1229973}, {"type": "node", "id": 634639532, "lat": 45.4887803, "lon": 9.1231009}, {"type": "node", "id": 634639535, "lat": 45.4888603, "lon": 9.1232489}, {"type": "node", "id": 634639537, "lat": 45.4888225, "lon": 9.123179}, {"type": "node", "id": 634639603, "lat": 45.4891273, "lon": 9.1229556}, {"type": "node", "id": 746721247, "lat": 45.4889914, "lon": 9.1227039}, {"type": "node", "id": 1479406515, "lat": 45.5011222, "lon": 9.2452955}, {"type": "node", "id": 1479406666, "lat": 45.501156, "lon": 9.2454215}, {"type": "node", "id": 1489953920, "lat": 45.4488323, "lon": 9.1881172}, {"type": "node", "id": 1489953924, "lat": 45.448845, "lon": 9.1882532}, {"type": "node", "id": 1489953937, "lat": 45.449025, "lon": 9.1880806}, {"type": "node", "id": 1489953939, "lat": 45.4490377, "lon": 9.1882166}, {"type": "node", "id": 1539802947, "lat": 45.449851, "lon": 9.1432355}, {"type": "node", "id": 1550270720, "lat": 45.4956668, "lon": 9.1146536}, {"type": "node", "id": 1552284453, "lat": 45.5161586, "lon": 9.136329}, {"type": "node", "id": 1552284460, "lat": 45.5161741, "lon": 9.1363242}, {"type": "node", "id": 1552284477, "lat": 45.5163658, "lon": 9.1362101}, {"type": "node", "id": 1552284481, "lat": 45.5163737, "lon": 9.1362625}, {"type": "node", "id": 1552284485, "lat": 45.5163897, "lon": 9.1362576}, {"type": "node", "id": 1838783661, "lat": 45.4498258, "lon": 9.1431468}, {"type": "node", "id": 1918008732, "lat": 45.4916371, "lon": 9.1057745}, {"type": "node", "id": 1918008733, "lat": 45.4916649, "lon": 9.1058984}, {"type": "node", "id": 1918008734, "lat": 45.4919508, "lon": 9.1057712}, {"type": "node", "id": 1918008735, "lat": 45.4920076, "lon": 9.1055664}, {"type": "node", "id": 1918008736, "lat": 45.4920134, "lon": 9.1056044}, {"type": "node", "id": 1918008737, "lat": 45.4920191, "lon": 9.1060999}, {"type": "node", "id": 1918008738, "lat": 45.49204, "lon": 9.1057299}, {"type": "node", "id": 1918008739, "lat": 45.4920817, "lon": 9.1055334}, {"type": "node", "id": 1918008740, "lat": 45.4921048, "lon": 9.1060636}, {"type": "node", "id": 1918008741, "lat": 45.4921141, "lon": 9.1056953}, {"type": "node", "id": 2016859630, "lat": 45.5012337, "lon": 9.2457859}, {"type": "node", "id": 2016859631, "lat": 45.5011489, "lon": 9.2446516}, {"type": "node", "id": 2016859633, "lat": 45.5000447, "lon": 9.2449281}, {"type": "node", "id": 2016859638, "lat": 45.5008216, "lon": 9.2448481}, {"type": "node", "id": 2016859641, "lat": 45.5008245, "lon": 9.2445531}, {"type": "node", "id": 2016859642, "lat": 45.5004555, "lon": 9.2462129}, {"type": "node", "id": 2016859644, "lat": 45.5004718, "lon": 9.2448807}, {"type": "node", "id": 2619654247, "lat": 45.5011046, "lon": 9.2451999}, {"type": "node", "id": 2619654248, "lat": 45.5011295, "lon": 9.2451891, "tags": {"barrier": "gate", "bicycle": "yes", "foot": "yes", "maxwidth": "1 m"}}, {"type": "node", "id": 2619654249, "lat": 45.5011643, "lon": 9.245423}, {"type": "node", "id": 2619654250, "lat": 45.5011736, "lon": 9.2450264, "tags": {"addr:city": "Milano", "addr:housenumber": "36", "addr:postcode": "20132", "addr:street": "Via don Giovanni Calabria", "barrier": "gate", "bicycle": "yes", "foot": "yes", "maxwidth": "3 m", "motorcar": "yes"}}, {"type": "node", "id": 2619654251, "lat": 45.5011828, "lon": 9.2451658}, {"type": "node", "id": 2619654252, "lat": 45.5011969, "lon": 9.2454029}, {"type": "node", "id": 2635169508, "lat": 45.5162658, "lon": 9.1362412}, {"type": "node", "id": 2653526478, "lat": 45.5140364, "lon": 9.1276884}, {"type": "node", "id": 2653526501, "lat": 45.5139781, "lon": 9.1272357}, {"type": "node", "id": 2653532361, "lat": 45.5148638, "lon": 9.1278996}, {"type": "node", "id": 2653532362, "lat": 45.5137682, "lon": 9.1272868}, {"type": "node", "id": 2653532365, "lat": 45.5138421, "lon": 9.1277413}, {"type": "node", "id": 2653532366, "lat": 45.5142197, "lon": 9.1282427, "tags": {"barrier": "gate"}}, {"type": "node", "id": 2653532367, "lat": 45.5142869, "lon": 9.1279785}, {"type": "node", "id": 2653532372, "lat": 45.514612, "lon": 9.1280492}, {"type": "node", "id": 2653532374, "lat": 45.5139378, "lon": 9.1283298}, {"type": "node", "id": 2653532377, "lat": 45.5141356, "lon": 9.1269631}, {"type": "node", "id": 2653532381, "lat": 45.5137357, "lon": 9.1270872}, {"type": "node", "id": 2653532383, "lat": 45.5146981, "lon": 9.1267837}, {"type": "node", "id": 2653532389, "lat": 45.51466, "lon": 9.1280988}, {"type": "node", "id": 2653532395, "lat": 45.5148836, "lon": 9.1280295}, {"type": "node", "id": 2653532397, "lat": 45.5142817, "lon": 9.1282235}, {"type": "node", "id": 2653532398, "lat": 45.514312, "lon": 9.1281426}, {"type": "node", "id": 2653532399, "lat": 45.5145869, "lon": 9.1278852}, {"type": "node", "id": 2653532402, "lat": 45.5139301, "lon": 9.1277173}, {"type": "node", "id": 2657481126, "lat": 45.4699567, "lon": 9.2368504, "tags": {"addr:housenumber": "2", "addr:street": "Via San Benigno", "entrance": "yes"}}, {"type": "node", "id": 2657481132, "lat": 45.4698668, "lon": 9.236985, "tags": {"addr:housenumber": "15", "addr:street": "Piazza San Gerolamo", "entrance": "yes"}}, {"type": "node", "id": 2916045256, "lat": 45.4952234, "lon": 9.1613144}, {"type": "node", "id": 2916045261, "lat": 45.495208, "lon": 9.1611368}, {"type": "node", "id": 2916045263, "lat": 45.494973, "lon": 9.1613526}, {"type": "node", "id": 2916045268, "lat": 45.4950017, "lon": 9.1610839}, {"type": "node", "id": 2916045274, "lat": 45.4950168, "lon": 9.1614452}, {"type": "node", "id": 2916045279, "lat": 45.4952469, "lon": 9.1611554}, {"type": "node", "id": 2916045281, "lat": 45.4951911, "lon": 9.1612093}, {"type": "node", "id": 2916045282, "lat": 45.4951263, "lon": 9.160964}, {"type": "node", "id": 2916045283, "lat": 45.4951728, "lon": 9.1611707}, {"type": "node", "id": 2916045293, "lat": 45.4950801, "lon": 9.1612495}, {"type": "node", "id": 2916045295, "lat": 45.4950703, "lon": 9.1613937}, {"type": "node", "id": 2916045296, "lat": 45.4951901, "lon": 9.1612439}, {"type": "node", "id": 2916045300, "lat": 45.4952912, "lon": 9.1612491}, {"type": "node", "id": 2916046901, "lat": 45.4950591, "lon": 9.16137}, {"type": "node", "id": 3217339276, "lat": 45.4054917, "lon": 9.1713538}, {"type": "node", "id": 3217339300, "lat": 45.4057173, "lon": 9.1708664}, {"type": "node", "id": 3217339302, "lat": 45.4055202, "lon": 9.171401}, {"type": "node", "id": 3217339312, "lat": 45.4054049, "lon": 9.1710717}, {"type": "node", "id": 3217339317, "lat": 45.4056434, "lon": 9.1712224}, {"type": "node", "id": 3217339323, "lat": 45.4056112, "lon": 9.1711666}, {"type": "node", "id": 3217339325, "lat": 45.4056483, "lon": 9.1709498}, {"type": "node", "id": 3217339329, "lat": 45.40546, "lon": 9.1707529}, {"type": "node", "id": 3217339337, "lat": 45.4054519, "lon": 9.1711521}, {"type": "node", "id": 3217339338, "lat": 45.4054329, "lon": 9.1709278}, {"type": "node", "id": 3217339340, "lat": 45.4052559, "lon": 9.1712453}, {"type": "node", "id": 3217339344, "lat": 45.4053577, "lon": 9.1710157}, {"type": "node", "id": 3217339350, "lat": 45.4052555, "lon": 9.170847}, {"type": "node", "id": 3217339355, "lat": 45.4053409, "lon": 9.170745}, {"type": "node", "id": 3217339358, "lat": 45.4053654, "lon": 9.1705956}, {"type": "node", "id": 3217339360, "lat": 45.4052993, "lon": 9.1706738}, {"type": "node", "id": 3217339864, "lat": 45.4057237, "lon": 9.1709427}, {"type": "node", "id": 3217339865, "lat": 45.4056776, "lon": 9.1709972}, {"type": "node", "id": 3217339882, "lat": 45.4055913, "lon": 9.1713145}, {"type": "node", "id": 3217339889, "lat": 45.4053932, "lon": 9.1714723}, {"type": "node", "id": 3217339906, "lat": 45.405787, "lon": 9.1710457}, {"type": "node", "id": 3217339931, "lat": 45.405572, "lon": 9.1708084}, {"type": "node", "id": 3217339933, "lat": 45.4055481, "lon": 9.171246}, {"type": "node", "id": 3217339935, "lat": 45.4055157, "lon": 9.1710763}, {"type": "node", "id": 3217339938, "lat": 45.4056372, "lon": 9.1707311}, {"type": "node", "id": 3217339944, "lat": 45.4055055, "lon": 9.1706982}, {"type": "node", "id": 3316533500, "lat": 45.4479324, "lon": 9.2219729, "tags": {"addr:city": "Milano", "addr:housenumber": "70", "addr:postcode": "20137", "addr:street": "Via Tertulliano", "amenity": "community_centre", "description": "Fablab e makerspace, Siamo un network di differenti professionalit\u00e0, eterogeneo e multidisciplinare.", "name": "opendot s.r.l.", "phone": "+39 02 36519890", "source": "http://www.opendotlab.it", "website": "http://www.opendotlab.it"}}, {"type": "node", "id": 3473358170, "lat": 45.4865452, "lon": 9.1899719, "tags": {"addr:city": "Milano", "addr:country": "IT", "addr:housenumber": "3", "addr:street": "Via Federico Confalonieri", "amenity": "community_centre", "name": "Pianoterra Lab", "website": "https://pianoterralab.org/", "wheelchair": "yes"}}, {"type": "node", "id": 3501121203, "lat": 45.4737577, "lon": 9.1722152}, {"type": "node", "id": 3501121205, "lat": 45.4737549, "lon": 9.1723132}, {"type": "node", "id": 3516883941, "lat": 45.5084307, "lon": 9.198235}, {"type": "node", "id": 3516883942, "lat": 45.508468, "lon": 9.1982505}, {"type": "node", "id": 3516883943, "lat": 45.5084743, "lon": 9.1980731}, {"type": "node", "id": 3516883944, "lat": 45.5085068, "lon": 9.1980886}, {"type": "node", "id": 4031008163, "lat": 45.518538, "lon": 9.1400614, "tags": {"addr:city": "Milano", "addr:postcode": "20157", "addr:street": "Piazzetta Capuana", "amenity": "community_centre", "description": "Punto Luce di Milano-Quarto Oggiaro, Spazio mamme Mitades Save the children, Fuoriclasse Quarto Oggiaro, BEST (Bisogni Educativi Speciali Territoriali) Quarto Oggiaro, Sportello psicologico Semi di Comunit\u00e0", "name": "Spazio Agor\u00e0", "operator": "Comune di Milano, Save the children, ACLI, Mitades, Civitas, ARCI", "phone": "+39 02 3570343", "website": "https://spazioagoramilano.wordpress.com/"}}, {"type": "node", "id": 4075276397, "lat": 45.5186768, "lon": 9.1402793, "tags": {"amenity": "community_centre", "description": "Distaccamento dello Spazio Agor\u00e0\n", "name": "Punto Luce"}}, {"type": "node", "id": 4080293467, "lat": 45.4814458, "lon": 9.1488794}, {"type": "node", "id": 4741101308, "lat": 45.4651963, "lon": 9.2043843, "tags": {"amenity": "community_centre", "denomination": "catholic", "name": "Oratorio Pier Giorgio Frassati", "religion": "christian"}}, {"type": "node", "id": 4741108447, "lat": 45.4659702, "lon": 9.198416, "tags": {"addr:city": "Milano", "addr:country": "IT", "addr:housenumber": "3", "addr:postcode": "20122", "addr:street": "Via Borgogna", "amenity": "community_centre", "email": "segreteria@casadellacultura.it", "fax": "+39 02 76008247", "name": "Casa della Cultura", "phone": "+39 02 795567", "website": "http://www.casadellacultura.it/", "wikidata": "Q3661251", "wikipedia": "it:Casa della Cultura"}}, {"type": "node", "id": 4754107642, "lat": 45.4499618, "lon": 9.1433181}, {"type": "node", "id": 4754107644, "lat": 45.4497671, "lon": 9.1429412}, {"type": "node", "id": 4754107645, "lat": 45.4498419, "lon": 9.1428978}, {"type": "node", "id": 4781364995, "lat": 45.4864605, "lon": 9.1684554, "tags": {"amenity": "community_centre", "denomination": "catholic", "name": "Oratorio Santa Maria di Lourdes", "religion": "christian"}}, {"type": "node", "id": 4870408550, "lat": 45.4515108, "lon": 9.211181}, {"type": "node", "id": 4870408551, "lat": 45.4512142, "lon": 9.2109518}, {"type": "node", "id": 4870408552, "lat": 45.451175, "lon": 9.2111147}, {"type": "node", "id": 4870408553, "lat": 45.4512361, "lon": 9.2111675}, {"type": "node", "id": 4870408554, "lat": 45.4512479, "lon": 9.2111196}, {"type": "node", "id": 4870408555, "lat": 45.4513714, "lon": 9.211216}, {"type": "node", "id": 4870408556, "lat": 45.4513758, "lon": 9.2112396}, {"type": "node", "id": 5155498491, "lat": 45.4522022, "lon": 9.1728732, "tags": {"amenity": "community_centre", "denomination": "catholic", "name": "Oratorio Santa Maria al Naviglio", "religion": "christian"}}, {"type": "node", "id": 5308082507, "lat": 45.4965355, "lon": 9.1150456}, {"type": "node", "id": 5308089622, "lat": 45.4965538, "lon": 9.1150063}, {"type": "node", "id": 5308089624, "lat": 45.4958379, "lon": 9.1142832}, {"type": "node", "id": 5308263017, "lat": 45.4957032, "lon": 9.1146878}, {"type": "node", "id": 5542543535, "lat": 45.4703213, "lon": 9.2368512, "tags": {"entrance": "yes"}}, {"type": "node", "id": 5661776851, "lat": 45.4817761, "lon": 9.1484682}, {"type": "node", "id": 5661833807, "lat": 45.4813357, "lon": 9.1478105}, {"type": "node", "id": 5661833810, "lat": 45.4814492, "lon": 9.147979}, {"type": "node", "id": 5759888945, "lat": 45.4782335, "lon": 9.1452706, "tags": {"addr:city": "Milano", "addr:country": "IT", "addr:housenumber": "84", "addr:postcode": "20149", "addr:street": "Via Monte Rosa", "amenity": "community_centre", "name": "Centro Sociale Il Cantiere"}}, {"type": "node", "id": 6017276135, "lat": 45.4796158, "lon": 9.1758317, "tags": {"amenity": "community_centre", "community_centre": "parish_hall", "denomination": "catholic", "name": "Oratorio Santissima Trinit\u00e0", "religion": "christian"}}, {"type": "node", "id": 6284640534, "lat": 45.4771659, "lon": 9.2297918, "tags": {"addr:city": "Milano", "addr:floor": "0", "addr:housenumber": "7", "addr:postcode": "20133", "addr:street": "Via Giovanni Celoria", "addr:unit": "Edificio 9", "alt_name": "Politecnico Open unix Labs", "amenity": "community_centre", "club": "linux", "community_centre:for": "student", "level": "0", "name": "POuL", "opening_hours": "\"Opening hours vary based on voluntary presence of members. Typical opening hours and current open/closed status can be verified via https://bits.poul.org\"", "opening_hours:url": "https://bits.poul.org", "website": "https://poul.org", "wheelchair": "no"}}, {"type": "node", "id": 6284640535, "lat": 45.4771196, "lon": 9.2297919, "tags": {"addr:city": "Milano", "addr:floor": "1", "addr:housenumber": "7", "addr:postcode": "20133", "addr:street": "Via Giovanni Celoria", "amenity": "community_centre", "check_date": "2023-04-09", "club": "amateur_radio", "community_centre:for": "student", "level": "1", "name": "PoliRadio", "website": "https://www.poliradio.it/"}}, {"type": "node", "id": 6462331605, "lat": 45.4498869, "lon": 9.1433614}, {"type": "node", "id": 7112280578, "lat": 45.4973178, "lon": 9.2139239, "tags": {"addr:housenumber": "114", "addr:street": "Via Giovanni Battista Sammartini", "amenity": "community_centre", "name": "Rifugio Caritas Ambrosiana", "opening_hours": "Tu,Th 09:00-17:00; Mo,Fr 09:00-15:00; We 09:00-13:00"}}, {"type": "node", "id": 7710754521, "lat": 45.5011391, "lon": 9.2453585, "tags": {"entrance": "yes"}}, {"type": "node", "id": 7710754526, "lat": 45.5007117, "lon": 9.2460589}, {"type": "node", "id": 7710754527, "lat": 45.5007676, "lon": 9.2460255}, {"type": "node", "id": 7710754542, "lat": 45.5004444, "lon": 9.2461796, "tags": {"access": "no", "barrier": "gate"}}, {"type": "node", "id": 7710754547, "lat": 45.5001122, "lon": 9.2451973, "tags": {"access": "no", "barrier": "gate"}}, {"type": "node", "id": 7746238096, "lat": 45.4809552, "lon": 9.1481406}, {"type": "node", "id": 7746238097, "lat": 45.4812803, "lon": 9.1477244}, {"type": "node", "id": 8158017902, "lat": 45.5000542, "lon": 9.2450367}, {"type": "node", "id": 8327160971, "lat": 45.5010351, "lon": 9.1477915, "tags": {"amenity": "community_centre", "name": "Comunit\u00e0 di Villapizzone", "website": "https://comunitavillapizzone.org/"}}, {"type": "node", "id": 8677660199, "lat": 45.5197244, "lon": 9.1889859, "tags": {"addr:city": "Milano", "addr:housenumber": "17", "addr:postcode": "20162", "addr:street": "Via Antonio Cesari", "amenity": "community_centre", "name": "EUMM Ecomuseo Urbano Metropolitano Milano Nord", "website": "https://www.eumm-nord.it/"}}, {"type": "node", "id": 8724139266, "lat": 45.5000455, "lon": 9.1771598, "tags": {"amenity": "community_centre", "contact:city": "Milano", "contact:housenumber": "9", "contact:postcode": "20158", "contact:street": "Via Livigno", "email": "nuovoarmenia@gmail.com", "name": "Nuovo Armenia", "operator": "A.p.s. Nuovo Armenia", "website": "https://www.nuovoarmenia.it/"}}, {"type": "node", "id": 9216570241, "lat": 45.5066453, "lon": 9.1031746, "tags": {"addr:city": "Milano", "addr:housenumber": "3", "addr:postcode": "20151", "addr:street": "Via Pier Paolo Pasolini", "amenity": "community_centre", "name": "Cascina Merlata SPAZIO VIVO", "opening_hours": "Mo-Su 07:00-00:00", "phone": "+3902880001341", "website": "https://www.cascina-merlata.net/"}}, {"type": "node", "id": 9329335609, "lat": 45.5000661, "lon": 9.2450234}, {"type": "node", "id": 9353157888, "lat": 45.5083203, "lon": 9.198079, "tags": {"addr:city": "Milano", "addr:housenumber": "2", "addr:postcode": "20162", "addr:street": "Via Emilio De Martino", "entrance": "yes"}}, {"type": "node", "id": 9353157889, "lat": 45.5083736, "lon": 9.1978566, "tags": {"addr:city": "Milano", "addr:housenumber": "4", "addr:postcode": "20162", "addr:street": "Via Emilio De Martino", "entrance": "yes"}}, {"type": "node", "id": 9516560849, "lat": 45.4349161, "lon": 9.2279117, "tags": {"addr:city": "Milano", "addr:housenumber": "19", "addr:postcode": "20139", "addr:street": "Via Fabio Massimo", "alt_name": "C.I.Q.", "amenity": "community_centre", "description": "Il Centro Internazionale di Quartiere (C.I.Q.) \u00e8 un progetto dell\u2019associazione socio-culturale Sunugal, che si occupa di co-sviluppo tra Italia e Senegal, promozione sociale e intercultura, e della Cooperativa Sociale Fate Artigiane. Le due associazioni h", "name": "Centro internazionale di quartiere", "name:en": "International community centre", "name:fr": "Centre international de quartier", "opening_hours": "Mo-Su 10:00-00:00", "operator": "Associazione Sunugal, Cooperativa Sociale Fate Artigiane", "operator:type": "cooperative", "phone": "+39 02 3659 4977", "short_name": "CIQ", "start_date": "2016-00-00", "website": "https://www.ciqmilano.it/", "wheelchair": "yes"}}, {"type": "node", "id": 9611795035, "lat": 45.514624, "lon": 9.1281156}, {"type": "node", "id": 9611795036, "lat": 45.514322, "lon": 9.1282091}, {"type": "node", "id": 9808405027, "lat": 45.4852232, "lon": 9.1926076, "tags": {"addr:housenumber": "26", "addr:street": "Via Gaetano De Castillia", "amenity": "community_centre", "description": "Social-Cultural Center with activities and options to use spaces and do own activities", "email": "info@lastecca.org", "name": "Stecca3", "website": "http://www.lastecca.org/"}}, {"type": "node", "id": 10049745195, "lat": 45.5163133, "lon": 9.1362264, "tags": {"artist_name": "Cheone", "artwork_type": "mural", "inscription": "1939-2014|la tua grinta \u00e8 la nostra forza", "subject": "Sandro Lopopolo", "subject:wikidata": "Q119073", "subject:wikipedia": "it:Sandro Lopopolo", "tourism": "artwork"}}, {"type": "node", "id": 10130592110, "lat": 45.4738502, "lon": 9.1722304}, {"type": "node", "id": 10130592111, "lat": 45.4738482, "lon": 9.1723245}, {"type": "node", "id": 10130592112, "lat": 45.4737548, "lon": 9.1722641}, {"type": "node", "id": 10286231961, "lat": 45.4542546, "lon": 9.1795116, "tags": {"addr:city": "Milano", "addr:housenumber": "3a", "addr:postcode": "20123", "addr:street": "Via Scaldasole", "amenity": "community_centre", "name": "Centro aggregazione multifunzionale Scaldasole", "phone": "+390288465210;+390288455324", "website": "http://www.cammunicipio1.aldia.it/"}}, {"type": "node", "id": 10316678095, "lat": 45.5006689, "lon": 9.2460847}, {"type": "node", "id": 10316678096, "lat": 45.5004658, "lon": 9.2462067}, {"type": "node", "id": 11068528736, "lat": 45.5083088, "lon": 9.1981272}, {"type": "node", "id": 11068528737, "lat": 45.5083376, "lon": 9.1980068}, {"type": "node", "id": 11380135349, "lat": 45.4947303, "lon": 9.2241628, "tags": {"amenity": "community_centre", "community_centre": "youth_centre", "name": "Sede Scout CNGEI Milano 10", "website": "https://milano.cngei.it/component/gruppi/10-decimo-gruppo"}}, {"type": "node", "id": 11380155945, "lat": 45.4443972, "lon": 9.1581619, "tags": {"amenity": "community_centre", "community_centre": "youth_centre", "name": "Sede Scout CNGEI Milano 6", "operator": "CNGEI", "website": "https://milano.cngei.it/component/gruppi/6-sesto-gruppo"}}, {"type": "node", "id": 11380204736, "lat": 45.4595712, "lon": 9.2227761, "tags": {"amenity": "community_centre", "community_centre": "youth_centre", "name": "Sede Scout CNGEI Milano 8", "website": "https://milano.cngei.it/component/gruppi/8-ottavo-gruppo"}}, {"type": "node", "id": 11380204737, "lat": 45.4867899, "lon": 9.1917208, "tags": {"amenity": "community_centre", "community_centre": "youth_centre", "name": "Sede Scout CNGEI Milano 4", "operator": "CNGEI", "website": "https://milano.cngei.it/component/gruppi/4-quarto-gruppo"}}, {"type": "node", "id": 11380204738, "lat": 45.5184645, "lon": 9.1408136, "tags": {"amenity": "community_centre", "community_centre": "youth_centre", "name": "Sede Scout CNGEI Milano 5", "operator": "CNGEI", "website": "https://milano.cngei.it/component/gruppi/5-quinto-gruppo"}}, {"type": "node", "id": 11428689544, "lat": 45.4738315, "lon": 9.1722273, "tags": {"addr:city": "Milano", "addr:housenumber": "14", "addr:postcode": "20121", "addr:street": "Viale Emilio Alemagna"}}, {"type": "node", "id": 11591344902, "lat": 45.424647, "lon": 9.1712035, "tags": {"addr:city": "Milano", "addr:housenumber": "4", "addr:postcode": "20142", "addr:street": "Via Sant\u2019Abbondio", "amenity": "community_centre", "name": "ZAM - Zona Autonoma Milano"}}, {"type": "node", "id": 11591344903, "lat": 45.4764915, "lon": 9.2415893, "tags": {"addr:city": "Milano", "addr:housenumber": "62", "addr:postcode": "20134", "addr:street": "Via San Faustino", "amenity": "community_centre", "name": "LOCK - Laboratorio Occupato Kasciav\u00ect"}}, {"type": "node", "id": 11795366867, "lat": 45.4459285, "lon": 9.1771673, "tags": {"addr:city": "Milano", "addr:housenumber": "18", "addr:postcode": "20136", "addr:street": "Via Conchetta", "amenity": "community_centre", "name": "Cox18", "operator": "Centro sociale autogestito Conchetta 18", "operator:type": "community", "website": "https://cox18.noblogs.org/"}}, {"type": "node", "id": 11869840762, "lat": 45.4478914, "lon": 9.1347436, "tags": {"amenity": "community_centre", "community_centre": "youth_centre", "name": "Sede Scout CNGEI Milano 7", "operator": "CNGEI", "website": "https://milano.cngei.it/component/gruppi/7-settimo-gruppo"}}, {"type": "node", "id": 11869840763, "lat": 45.4056214, "lon": 9.1708104, "tags": {"amenity": "community_centre", "community_centre": "youth_centre", "name": "Sede Scout CNGEI Milano 3", "operator": "CNGEI", "website": "https://milano.cngei.it/component/gruppi/3-terzo-gruppo"}}, {"type": "node", "id": 11869840764, "lat": 45.5207114, "lon": 9.1637164, "tags": {"amenity": "community_centre", "community_centre": "youth_centre", "name": "Sede Scout CNGEI Milano 2", "operator": "CNGEI", "website": "https://milano.cngei.it/component/gruppi/2-secondo-gruppo"}}, {"type": "node", "id": 12113270638, "lat": 45.485209, "lon": 9.1358124, "tags": {"amenity": "community_centre", "community_centre": "youth_centre", "name": "Sezione Scout CNGEI di Milano \"Helene Spycher\" - Sede", "operator": "CNGEI", "website": "https://milano.cngei.it/"}}, {"type": "node", "id": 12259495927, "lat": 45.4884093, "lon": 9.1184424, "tags": {"amenity": "community_centre", "community_centre": "community_hall", "name": "Fondazione Cascina Cotica"}}, {"type": "node", "id": 12285760069, "lat": 45.4502748, "lon": 9.1170337, "tags": {"amenity": "community_centre", "name": "CAM - Centro di Aggregazione Multifunzionale"}}, {"type": "way", "id": 31075747, "nodes": [345477524, 1552284485, 1552284481, 1552284477, 10049745195, 2635169508, 345477526, 1552284460, 1552284453, 345477527, 345477524], "tags": {"amenity": "community_centre", "building": "yes", "name": "CAM Sandro Lopopolo", "name:etymology": "Sandro Lopopolo", "name:etymology:wikidata": "Q119073", "name:etymology:wikipedia": "it:Sandro Lopopolo", "source": "bing"}}, {"type": "way", "id": 39749399, "nodes": [476511705, 476511707, 3516883943, 3516883944, 3516883942, 3516883941, 476511708, 476511706, 11068528736, 9353157888, 11068528737, 9353157889, 476511705], "tags": {"amenity": "community_centre", "building": "yes", "club": "religion", "name": "Oratorio San Paolo VI"}}, {"type": "way", "id": 41434773, "nodes": [506794640, 2657481132, 506794642, 506794643, 506794645, 506794646, 506794647, 506794649, 506794651, 506794654, 506794656, 506794657, 506794660, 5542543535, 2657481126, 506794640], "tags": {"amenity": "community_centre", "building": "public", "denomination": "catholic", "name": "Oratorio San Carlo", "religion": "christian"}}, {"type": "way", "id": 60096965, "nodes": [634639530, 746721247, 634639603, 634639535, 634639537, 634639532, 634639530], "tags": {"amenity": "community_centre", "building": "public", "community_centre": "cultural_centre", "name": "Casa delle culture del mondo"}}, {"type": "way", "id": 135700974, "nodes": [1489953937, 1489953939, 1489953924, 1489953920, 1489953937], "tags": {"addr:city": "Milano", "addr:housenumber": "6", "addr:street": "Piazza Angelo Sraffa", "amenity": "community_centre", "building": "yes", "community_centre": "cultural_centre", "name": "Rettoria San Ferdinando", "opening_hours": "Mo-Su 08:30-22:00", "website": "https://www.sanferdinando.org", "wikidata": "Q3933822"}}, {"type": "way", "id": 181371195, "nodes": [1918008732, 1918008736, 1918008735, 1918008739, 1918008741, 1918008738, 1918008740, 1918008737, 1918008734, 1918008733, 1918008732], "tags": {"amenity": "community_centre", "building": "yes"}}, {"type": "way", "id": 191103046, "nodes": [1479406666, 2619654249, 2619654252, 2016859630], "tags": {"barrier": "fence", "fence_type": "bars", "height": "2", "material": "metal"}}, {"type": "way", "id": 288063696, "nodes": [2916045261, 2916045282, 2916045268, 2916045293, 2916045263, 2916045274, 2916045295, 2916046901, 2916045296, 2916045256, 2916045300, 2916045279, 2916045281, 2916045283, 2916045261], "tags": {"amenity": "community_centre", "building": "yes", "building:levels": "1", "name": "Centro di aggregazione multifunzionale Pecetta"}}, {"type": "way", "id": 315608101, "nodes": [3217339329, 3217339944, 3217339931, 3217339938, 3217339300, 3217339325, 3217339865, 3217339864, 3217339906, 3217339317, 3217339323, 3217339933, 3217339882, 3217339302, 3217339276, 3217339889, 3217339340, 3217339312, 3217339337, 3217339935, 3217339338, 3217339344, 3217339350, 3217339355, 3217339360, 3217339358, 3217339329], "tags": {"amenity": "community_centre", "building": "kindergarten", "community_centre": "youth_centre", "name": "Baroni 85"}}, {"type": "way", "id": 482597481, "nodes": [4754107642, 6462331605, 1539802947, 1838783661, 4754107644, 4754107645, 4754107642], "tags": {"amenity": "community_centre", "building": "yes", "building:levels": "1", "description": "Centro di Aggregazione Giovanile e sede della Coop. Sociale Comunit\u00e0 del Giambellino", "name": "CD Giambellino"}}, {"type": "way", "id": 495260894, "nodes": [4870408550, 4870408551, 4870408552, 4870408553, 4870408554, 4870408555, 4870408556, 4870408550], "tags": {"amenity": "community_centre", "building": "yes", "name": "Centro Sociale Autogestito Vittoria", "short_name": "CSA Vittoria", "website": "https://www.csavittoria.org/"}}, {"type": "way", "id": 549509620, "nodes": [5308089622, 5308082507, 245481617, 5308263017, 1550270720, 5308089624, 5308089622], "tags": {"amenity": "community_centre", "building": "yes", "name": "Centro Civico Quarenghi 21"}}, {"type": "way", "id": 593500945, "nodes": [7746238096, 7746238097, 5661833807, 5661833810, 5661776851, 4080293467, 7746238096], "tags": {"amenity": "community_centre", "community_centre": "parish_hall", "denomination": "catholic", "name": "Oratorio Parrocchia di Sant'Anna", "religion": "christian"}}, {"type": "way", "id": 825833800, "nodes": [1479406666, 7710754521, 1479406515]}, {"type": "way", "id": 825833804, "nodes": [2016859630, 7710754527, 7710754526, 10316678095, 10316678096, 2016859642], "tags": {"barrier": "fence", "fence_type": "bars", "height": "2", "material": "metal"}}, {"type": "way", "id": 825833805, "nodes": [2016859633, 2016859644, 2016859638, 2016859641], "tags": {"barrier": "wall", "height": "2", "wall": "brick"}}, {"type": "way", "id": 864798046, "nodes": [2016859641, 2016859631, 2619654250, 2619654251, 2619654248, 2619654247, 1479406515], "tags": {"barrier": "fence", "fence_type": "bars", "height": "2", "material": "metal"}}, {"type": "way", "id": 864798676, "nodes": [2016859642, 7710754542, 7710754547, 8158017902, 9329335609, 2016859633], "tags": {"barrier": "fence", "fence_type": "bars", "height": "2", "material": "metal", "wall": "brick"}}, {"type": "way", "id": 1044592808, "nodes": [2653532383, 2653532361, 2653532395, 2653532389, 9611795035, 2653532372, 2653532399, 2653532367, 2653532398, 9611795036, 2653532397, 2653532366, 2653532374, 2653532365, 2653532402, 2653526478, 2653526501, 2653532362, 2653532381, 2653532377, 2653532383], "tags": {"amenity": "community_centre", "denomination": "roman_catholic", "name": "Oratorio di Sant'Agnese", "religion": "christian"}}, {"type": "way", "id": 1107130807, "nodes": [10130592110, 10130592111, 3501121205, 10130592112, 3501121203, 11428689544, 10130592110], "tags": {"amenity": "community_centre", "building": "yes", "image": "https://i.imgur.com/WAsVPnK.jpg", "name": "Ciclofficina Nascosta", "opening_hours": "Th 15:00-20:00; Sa 15:00-20:00", "operator": "Legambici - Legambiente per la mobilit\u00e0 attiva e la ciclabilit\u00e0 APS", "phone": "+39 371 442 4223", "rental": "bicycle", "service:bicycle:diy": "yes", "service:bicycle:pump": "yes", "service:bicycle:rental": "yes", "service:bicycle:repair": "yes", "service:bicycle:second_hand": "yes", "service:bicycle:tools": "yes", "shop": "bicycle", "website": "https://cascinanascosta.org/attivita-spazi/ciclofficina/"}}, {"type": "relation", "id": 11298954, "members": [{"type": "way", "ref": 191103046, "role": "outer"}, {"type": "way", "ref": 825833804, "role": "outer"}, {"type": "way", "ref": 825833805, "role": "outer"}, {"type": "way", "ref": 864798676, "role": "outer"}, {"type": "way", "ref": 864798046, "role": "outer"}, {"type": "way", "ref": 825833800, "role": "outer"}], "tags": {"amenity": "community_centre", "name": "Oratorio San Gerolamo Emiliani", "type": "multipolygon"}}]}