{"version": 0.6, "generator": "Overpass API 0.7.62.1 084b4234", "osm3s": {"timestamp_osm_base": "2024-11-14T18:35:18Z", "copyright": "The data included in this document is from www.openstreetmap.org. The data is made available under ODbL."}, "elements": [{"type": "node", "id": 324194202, "lat": 37.5052036, "lon": 15.0795889}, {"type": "node", "id": 726761398, "lat": 37.5048515, "lon": 15.0856836, "tags": {"amenity": "library", "name": "Mediateca Vincenzo Bellini", "operator": "Comune di Catania"}}, {"type": "node", "id": 882318626, "lat": 37.5052198, "lon": 15.0792335}, {"type": "node", "id": 882318646, "lat": 37.5048973, "lon": 15.0792101}, {"type": "node", "id": 1281187793, "lat": 37.5047551, "lon": 15.0795586}, {"type": "node", "id": 1282897486, "lat": 37.5046029, "lon": 15.0793618}, {"type": "node", "id": 1282897495, "lat": 37.5048564, "lon": 15.0792071}, {"type": "node", "id": 1282897497, "lat": 37.5048485, "lon": 15.0793796}, {"type": "node", "id": 1282897598, "lat": 37.5045944, "lon": 15.0795477}, {"type": "node", "id": 1282912098, "lat": 37.5035252, "lon": 15.0786282, "tags": {"amenity": "library", "name": "Emeroteca"}}, {"type": "node", "id": 1282912099, "lat": 37.5038256, "lon": 15.0786271, "tags": {"amenity": "library", "name": "Facolt\u00e0 di Lettere"}}, {"type": "node", "id": 1434465206, "lat": 37.5056329, "lon": 15.0874761}, {"type": "node", "id": 1434465210, "lat": 37.5056637, "lon": 15.0875685}, {"type": "node", "id": 1434465232, "lat": 37.5057384, "lon": 15.0874199}, {"type": "node", "id": 1434465244, "lat": 37.505769, "lon": 15.0874037}, {"type": "node", "id": 1434465246, "lat": 37.5057977, "lon": 15.0874961}, {"type": "node", "id": 1956587729, "lat": 37.4625536, "lon": 14.9576914, "tags": {"amenity": "library"}}, {"type": "node", "id": 2188706510, "lat": 37.516332, "lon": 15.0065963}, {"type": "node", "id": 2188706524, "lat": 37.5163541, "lon": 15.0064272}, {"type": "node", "id": 2188706529, "lat": 37.5163602, "lon": 15.0063808}, {"type": "node", "id": 2188706562, "lat": 37.5163998, "lon": 15.0066093}, {"type": "node", "id": 2188706572, "lat": 37.5164154, "lon": 15.0064887}, {"type": "node", "id": 2188706672, "lat": 37.5165186, "lon": 15.006632}, {"type": "node", "id": 2188706696, "lat": 37.5165339, "lon": 15.0065136}, {"type": "node", "id": 2188706756, "lat": 37.5165775, "lon": 15.0066432}, {"type": "node", "id": 2188706779, "lat": 37.5166018, "lon": 15.0064272}, {"type": "node", "id": 2192384682, "lat": 37.5359509, "lon": 15.0829681, "tags": {"amenity": "library", "name": "Biblioteca Rosario Livatino"}}, {"type": "node", "id": 4048610197, "lat": 37.5209337, "lon": 15.0823751, "tags": {"amenity": "library", "name": "Biblioteca Vincenzo Bellini", "operator": "Comune di Catania", "ref:isil": "IT-CT0027"}}, {"type": "node", "id": 4137555646, "lat": 37.5056525, "lon": 15.0875349, "tags": {"addr:housenumber": "9a", "addr:postcode": "95131", "addr:street": "Piazza Manganelli"}}, {"type": "node", "id": 5074976504, "lat": 37.5000726, "lon": 15.0824117, "tags": {"amenity": "library", "name": "Biblioteca Navarria-Crif\u00f2", "wikidata": "Q113535810"}}, {"type": "node", "id": 8818068011, "lat": 37.5036821, "lon": 15.0863748, "tags": {"amenity": "library", "name": "Biblioteca regionale universitaria Giambattista Caruso", "operator": "Regione Siciliana", "phone": "+39 095 7366111"}}, {"type": "node", "id": 8969472018, "lat": 37.5050162, "lon": 15.0795762, "tags": {"addr:housenumber": "23", "addr:postcode": "95124", "addr:street": "Via Biblioteca"}}, {"type": "node", "id": 8969472019, "lat": 37.5049224, "lon": 15.0795699, "tags": {"addr:housenumber": "21", "addr:postcode": "95124", "addr:street": "Via Biblioteca"}}, {"type": "node", "id": 8969472020, "lat": 37.5048756, "lon": 15.0795667, "tags": {"addr:housenumber": "19", "addr:postcode": "95124", "addr:street": "Via Biblioteca"}}, {"type": "node", "id": 8969472021, "lat": 37.5048287, "lon": 15.0795635, "tags": {"addr:housenumber": "17", "addr:postcode": "95124", "addr:street": "Via Biblioteca"}}, {"type": "node", "id": 8969472022, "lat": 37.5047818, "lon": 15.0795604, "tags": {"addr:housenumber": "15", "addr:postcode": "95124", "addr:street": "Via Biblioteca"}}, {"type": "node", "id": 9124717223, "lat": 37.5024936, "lon": 15.0952511, "tags": {"amenity": "library", "name": "Biblioteca delle scienze politiche e sociali"}}, {"type": "node", "id": 10027053017, "lat": 37.5287553, "lon": 15.0718975, "tags": {"access": "private", "amenity": "library", "email": "biblioteca.oact@inaf.it", "internet_access": "yes", "internet_access:fee": "no", "name": "Biblioteca INAF - Osservatorio astrofisico di Catania", "network": "NILDE", "opening_hours": "Mo-Sa 08:00-14:00", "operator": "Istituto Nazionale di Astrofisica", "operator:type": "public", "phone": "+39 095 7332268;+39 095 7332269", "ref:isil": "IT-CT0049", "website": "https://www.beniculturali.inaf.it/biblioteche/catania", "wikidata": "Q113295652"}}, {"type": "node", "id": 10027267794, "lat": 37.518261, "lon": 15.070872, "tags": {"access": "private", "amenity": "library", "email": "di3a.serv-biblio@unict.it", "name": "Biblioteca delle Scienze Agrarie", "network": "NILDE", "opening_hours": "Mo-We 08:30-13:30,14:30-16:30; Th-Fr 08:30-13:30", "operator": "Universit\u00e0 degli studi di Catania", "operator:type": "public", "phone": "+39 095 4783467;+39 095 7147467", "ref:isil": "IT-CT0214", "website": "https://www.di3a.unict.it/it/content/biblioteca", "wikidata": "Q113295671"}}, {"type": "node", "id": 10027280326, "lat": 37.5266194, "lon": 15.0776981, "tags": {"access": "yes", "amenity": "library", "email": "farmaciadd@unict.it", "internet_access": "yes", "internet_access:fee": "no", "name": "Biblioteca delle Scienze Chimiche e del Farmaco", "network": "NILDE", "opening_hours": "Mo-Fr 08:30-17:00; Sa 08:30-13:30", "operator": "Universit\u00e0 degli studi di Catania", "operator:type": "public", "ref:isil": "IT-CT0206", "website": "https://www.sida.unict.it/content/biblioteca-delle-scienze-chimiche-e-del-farmaco", "wikidata": "Q113295658"}}, {"type": "node", "id": 10027636617, "lat": 37.5316965, "lon": 15.0701276, "tags": {"access": "yes", "amenity": "library", "email": "biblioteca.medicina@unict.it", "internet_access": "yes", "internet_access:fee": "no", "name": "Biblioteca delle Scienze Mediche", "network": "NILDE", "opening_hours": "Mo-Th 09:00-13:00,14:30-17:00; Fr 09:00-13:00", "operator": "Universit\u00e0 degli studi di Catania", "operator:type": "public", "phone": "+39 095 3782921", "ref:isil": "IT-CT0337", "website": "https://www.medicina.unict.it/it/content/biblioteca", "wheelchair": "yes", "wikidata": "Q113295676"}}, {"type": "node", "id": 10027711281, "lat": 37.5258056, "lon": 15.0729306, "tags": {"access": "customers", "amenity": "library", "email": "dmi.serv-biblio@unict.it", "internet_access": "yes", "internet_access:fee": "no", "name": "Biblioteca delle Scienze Matematiche ed Informatiche", "network": "NILDE", "opening_hours": "Mo-Fr 08:30-14:00,14:30-19:30", "operator": "Universit\u00e0 degli studi di Catania", "operator:type": "public", "phone": "+39 095 337133", "ref:isil": "IT-CT0210", "website": "https://web.dmi.unict.it/it/content/biblioteca", "wikidata": "Q113295665"}}, {"type": "node", "id": 10027739269, "lat": 37.515584, "lon": 15.0831116, "tags": {"access": "customers", "amenity": "library", "email": "biomlg.serv-biblio@unict.it", "internet_access": "yes", "internet_access:fee": "no", "name": "Biblioteca delle Scienze Biologiche, Geologiche ed Ambientali", "network": "NILDE", "opening_hours": "Mo-Sa 08:00-14:00; We 16:00-19:00", "operator": "Universit\u00e0 degli studi di Catania", "operator:type": "public", "phone": "+39 095 6139985", "ref:isil": "IT-CT0205", "website": "https://www.sida.unict.it/content/punto-di-servizio-biologia-vegetale"}}, {"type": "node", "id": 10031622952, "lat": 37.5065838, "lon": 15.0843278, "tags": {"access": "customers", "amenity": "library", "email": "giur.serv-biblio@unict.it", "internet_access": "yes", "internet_access:fee": "no", "name": "Biblioteca delle Scienze Giuridiche", "network": "NILDE", "opening_hours": "Mo-Fr 08:30-14:00; Mo-Th 14:30-17:30", "operator": "Universit\u00e0 degli studi di Catania", "operator:type": "public", "phone": "+39 095 230323", "ref:isil": "IT-CT0029", "website": "https://www.lex.unict.it/it/biblioteca/la-biblioteca-delle-scienze-giuridiche", "wikidata": "Q113295647"}}, {"type": "node", "id": 10031696027, "lat": 37.5244385, "lon": 15.072243, "tags": {"access": "customers", "amenity": "library", "email": "dfa.serv-biblio@unict.it", "internet_access": "yes", "internet_access:fee": "no", "name": "Biblioteca delle Scienze Fisiche", "network": "NILDE", "opening_hours": "Mo-Fr 08:30-14:00; Mo-Th 14:30-17:00", "operator": "Universit\u00e0 degli Studi di Catania", "operator:type": "public", "phone": "+39 095 3785376;+39 095 3785448", "ref:isil": "IT-CT0207", "website": "https://www.dfa.unict.it/it/content/biblioteca", "wheelchair": "yes", "wikidata": "Q113295660"}}, {"type": "node", "id": 10031812388, "lat": 37.503423, "lon": 15.0799766, "tags": {"access": "customers", "amenity": "library", "email": "antichitadd@unict.it", "internet_access": "yes", "internet_access:fee": "no", "name": "Biblioteca delle Scienze dell'Antichit\u00e0, Filologico-letterarie e Storico-artistiche", "network": "NILDE", "opening_hours": "Mo-Fr 08:00-14:00; Mo-Th 14:30-17:30", "operator": "Universit\u00e0 degli Studi di Catania", "operator:type": "public", "phone": "+39 095 7102776", "ref:isil": "IT-CT0026", "website": "https://www.disum.unict.it/content/biblioteca-del-dipartimento-di-scienze-umanistiche", "wheelchair": "yes", "wikidata": "Q113295646"}}, {"type": "node", "id": 11774442420, "lat": 37.5551876, "lon": 15.0587985, "tags": {"amenity": "library", "name": "Biblioteca comunale Francesco Virz\u00ec"}}, {"type": "way", "id": 112997770, "nodes": [8969472021, 8969472022, 1281187793, 1282897598, 1282897486, 1282897497, 1282897495, 882318646, 882318626, 324194202, 8969472018, 8969472019, 8969472020, 8969472021], "tags": {"amenity": "library", "check_date": "2024-01-04", "contact:email": "biblct@virgilio.it", "contact:phone": "+39 09 5316883", "name": "Biblioteche riunite Civica e Antonio Ursino Recupero", "opening_hours": "Mo-Fr 09:00-13:00; Sa 09:00-11:30", "start_date": "1931-05-11", "wikidata": "Q3639695", "wikipedia": "it:Biblioteche riunite Civica e A. Ursino Recupero"}}, {"type": "way", "id": 130154383, "nodes": [1434465206, 4137555646, 1434465210, 1434465246, 1434465244, 1434465232, 1434465206], "tags": {"amenity": "library", "building": "church", "name": "Biblioteca Metropolitana dei libri editi fuori commercio e Pinacoteca degli autoritratti e dei ritratti Nunzio Sciavarrello", "old_name": "Chiesa di San Michele Minore"}}, {"type": "way", "id": 208590566, "nodes": [2188706510, 2188706524, 2188706529, 2188706779, 2188706756, 2188706672, 2188706696, 2188706572, 2188706562, 2188706510], "tags": {"amenity": "library", "building": "yes", "name": "Biblioteca Comunale \"Concetto Marchesi\"", "wikidata": "Q112863886"}}]}