{"version": 0.6, "generator": "Overpass API 0.7.62.1 084b4234", "osm3s": {"timestamp_osm_base": "2024-11-06T19:40:27Z", "copyright": "The data included in this document is from www.openstreetmap.org. The data is made available under ODbL."}, "elements": [{"type": "node", "id": 5141918477, "lat": 39.9154597, "lon": 8.5870466, "tags": {"amenity": "charging_station", "amperage": "32", "authentication:membership_card": "yes", "authentication:phone_call": "yes", "authentication:rfid": "yes", "bicycle": "yes", "capacity": "2", "charge": "1.2 EUR/1h", "email": "info@driwe.eu", "fee": "yes", "level": "1", "motorcar": "yes", "name": "Via dei Maniscalchi Oristano", "opening_hours": "24/7", "operator": "DriWe", "parking:fee": "no", "phone": "+39 0445 1620036", "scooter": "yes", "socket:type2": "2", "socket:type2:output": "22 kW", "voltage": "400", "website": "https://www.driwe.eu/"}}, {"type": "node", "id": 5141918478, "lat": 39.9154828, "lon": 8.587056, "tags": {"amenity": "charging_station", "amperage": "32", "authentication:membership_card": "yes", "authentication:phone_call": "yes", "authentication:rfid": "yes", "bicycle": "yes", "capacity": "2", "charge": "1.2 EUR/1h", "email": "info@driwe.eu", "fee": "yes", "level": "1", "motorcar": "yes", "name": "Via dei Maniscalchi Oristano", "opening_hours": "24/7", "operator": "DriWe", "parking:fee": "no", "phone": "+39 0445 1620036", "scooter": "yes", "socket:type2": "2", "socket:type2:output": "22 kW", "voltage": "400", "website": "https://www.driwe.eu/"}}, {"type": "node", "id": 5141918479, "lat": 39.9155086, "lon": 8.5870647, "tags": {"amenity": "charging_station", "amperage": "32", "authentication:membership_card": "yes", "authentication:phone_call": "yes", "authentication:rfid": "yes", "bicycle": "yes", "capacity": "2", "charge": "1.2 EUR/1h", "email": "info@driwe.eu", "fee": "yes", "level": "1", "motorcar": "yes", "name": "Via dei Maniscalchi Oristano", "opening_hours": "24/7", "operator": "DriWe", "parking:fee": "no", "phone": "+39 0445 1620036", "scooter": "yes", "socket:type2": "2", "socket:type2:output": "22 kW", "voltage": "400", "website": "https://www.driwe.eu/"}}, {"type": "node", "id": 6186964602, "lat": 39.7699506, "lon": 8.5820859, "tags": {"amenity": "charging_station", "name": "Enel X"}}, {"type": "node", "id": 6199915631, "lat": 39.6868968, "lon": 8.6461095, "tags": {"amenity": "charging_station", "capacity": "2"}}, {"type": "node", "id": 6432339010, "lat": 39.7290906, "lon": 8.5616635, "tags": {"amenity": "charging_station", "motorcar": "yes"}}, {"type": "node", "id": 6432348337, "lat": 39.7734749, "lon": 8.5796966, "tags": {"amenity": "charging_station", "brand": "Enel X", "brand:wikidata": "Q5376815", "name": "Enel X", "operator": "Enel X", "operator:wikidata": "Q5376815"}}, {"type": "node", "id": 6432348338, "lat": 39.7739954, "lon": 8.5817157, "tags": {"amenity": "charging_station", "brand": "Enel X", "brand:wikidata": "Q5376815", "name": "Enel X", "operator": "Enel X", "operator:wikidata": "Q5376815"}}, {"type": "node", "id": 6433820682, "lat": 39.6852573, "lon": 8.6464842, "tags": {"amenity": "charging_station", "operator": "Enel X"}}, {"type": "node", "id": 6433820683, "lat": 39.6849652, "lon": 8.646134, "tags": {"amenity": "charging_station", "operator": "Enel X"}}, {"type": "node", "id": 6545203663, "lat": 39.717886, "lon": 8.6475884, "tags": {"amenity": "charging_station", "capacity": "1", "name": "Enel-X"}}, {"type": "node", "id": 6545203664, "lat": 39.7178623, "lon": 8.6476437, "tags": {"amenity": "charging_station", "capacity": "1", "name": "Enel-X"}}, {"type": "node", "id": 7254703012, "lat": 39.7160704, "lon": 8.6346359, "tags": {"amenity": "charging_station", "capacity": "2", "operator": "Enel X"}}, {"type": "node", "id": 7278316199, "lat": 39.7245294, "lon": 8.6358711, "tags": {"amenity": "charging_station", "capacity": "1"}}, {"type": "node", "id": 7278316200, "lat": 39.7245013, "lon": 8.6358852, "tags": {"amenity": "charging_station", "capacity": "1"}}, {"type": "node", "id": 9022725221, "lat": 39.9269072, "lon": 8.5764424, "tags": {"amenity": "charging_station", "authentication:membership_card": "yes", "authentication:rfid": "yes", "brand": "Enel X", "brand:wikidata": "Q5376815", "capacity": "2", "charging_station:output": "44 kW", "fee": "yes", "motorcar": "yes", "name": "Rimedio 2", "opening_hours": "24/7", "operator": "Enel X", "operator:wikidata": "Q5376815", "ref": "19XP22T3KK4AH00252", "socket:type2": "2", "socket:type2:output": "22 kW", "voltage": "400", "website": "https://www.enelx.com/it/it/mappa-stazioni-ricarica"}}, {"type": "node", "id": 9022725222, "lat": 39.9270343, "lon": 8.5762574, "tags": {"amenity": "charging_station", "authentication:membership_card": "yes", "authentication:rfid": "yes", "brand": "Enel X", "brand:wikidata": "Q5376815", "capacity": "2", "charging_station:output": "44 kW", "fee": "yes", "motorcar": "yes", "name": "Rimedio 1", "opening_hours": "24/7", "operator": "Enel X", "operator:wikidata": "Q5376815", "ref": "18XP22T3KK4AH00286", "socket:type2": "2", "socket:type2:output": "22 kW", "voltage": "400", "website": "https://www.enelx.com/it/it/mappa-stazioni-ricarica"}}, {"type": "node", "id": 9090891720, "lat": 39.7763748, "lon": 8.5791843, "tags": {"amenity": "charging_station", "capacity": "2"}}, {"type": "node", "id": 9097808540, "lat": 39.906135, "lon": 8.5792941, "tags": {"amenity": "charging_station", "brand": "Enel X", "brand:wikidata": "Q5376815", "brand:wikipedia": "en:Enel X", "capacity": "2", "name": "Enel X", "operator": "Enel X", "operator:wikidata": "Q5376815", "operator:wikipedia": "en:Enel X"}}, {"type": "node", "id": 9097808541, "lat": 39.9061318, "lon": 8.5793672, "tags": {"amenity": "charging_station", "brand": "Enel X", "brand:wikidata": "Q5376815", "brand:wikipedia": "en:Enel X", "capacity": "2", "name": "Enel X", "operator": "Enel X", "operator:wikidata": "Q5376815", "operator:wikipedia": "en:Enel X"}}, {"type": "node", "id": 9114032637, "lat": 39.7205766, "lon": 8.508369, "tags": {"access": "yes", "amenity": "charging_station", "capacity": "2"}}, {"type": "node", "id": 9141896771, "lat": 39.8900945, "lon": 8.5998085, "tags": {"access": "yes", "amenity": "charging_station", "brand": "Tesla Supercharger", "brand:wikidata": "Q17089620", "capacity": "4", "fee": "yes", "name": "Oristano Supercharger", "not:brand:wikidata": "Q478214", "opening_hours": "24/7", "operator": "Tesla, Inc.", "operator:wikidata": "Q478214", "payment:app": "yes", "short_name": "Tesla", "socket:tesla_supercharger": "4", "socket:tesla_supercharger:output": "150 kW", "socket:tesla_supercharger_ccs": "4", "socket:tesla_supercharger_ccs:output": "150 kW", "website": "https://www.tesla.com/findus/location/supercharger/oristanoitsupercharger"}}, {"type": "node", "id": 9410059860, "lat": 39.7308996, "lon": 8.6615702, "tags": {"amenity": "charging_station"}}, {"type": "node", "id": 9410059861, "lat": 39.7309051, "lon": 8.6616145, "tags": {"amenity": "charging_station"}}, {"type": "node", "id": 9422541223, "lat": 39.5406182, "lon": 8.6451174, "tags": {"amenity": "charging_station"}}, {"type": "node", "id": 9422541224, "lat": 39.5406137, "lon": 8.6451603, "tags": {"amenity": "charging_station"}}, {"type": "node", "id": 9422541225, "lat": 39.5406106, "lon": 8.6451896, "tags": {"amenity": "charging_station"}}, {"type": "node", "id": 9422541226, "lat": 39.5406065, "lon": 8.6452281, "tags": {"amenity": "charging_station"}}, {"type": "node", "id": 9468088845, "lat": 39.7498715, "lon": 8.6397386, "tags": {"amenity": "charging_station"}}, {"type": "node", "id": 9468088846, "lat": 39.7498548, "lon": 8.6397684, "tags": {"amenity": "charging_station"}}, {"type": "node", "id": 9468088847, "lat": 39.7498304, "lon": 8.6398117, "tags": {"amenity": "charging_station"}}, {"type": "node", "id": 9468088848, "lat": 39.7498136, "lon": 8.6398415, "tags": {"amenity": "charging_station"}}, {"type": "node", "id": 9471347059, "lat": 39.7307619, "lon": 8.6609238, "tags": {"KW": "22", "access": "yes", "amenity": "charging_station", "brand": "ChargePoint", "brand:wikidata": "Q5176149", "brand:wikipedia": "en:ChargePoint", "name": "ChargePoint", "operator": "ChargePoint", "operator:wikidata": "Q5176149", "operator:wikipedia": "en:ChargePoint"}}, {"type": "node", "id": 9471347060, "lat": 39.7307815, "lon": 8.6609453, "tags": {"KW": "11", "access": "yes", "amenity": "charging_station", "brand": "ChargePoint", "brand:wikidata": "Q5176149", "brand:wikipedia": "en:ChargePoint", "name": "ChargePoint", "operator": "ChargePoint", "operator:wikidata": "Q5176149", "operator:wikipedia": "en:ChargePoint"}}, {"type": "node", "id": 9586463688, "lat": 39.5409507, "lon": 8.6406952, "tags": {"amenity": "charging_station"}}, {"type": "node", "id": 9586463689, "lat": 39.540846, "lon": 8.6406684, "tags": {"amenity": "charging_station"}}, {"type": "node", "id": 9705329188, "lat": 39.6130941, "lon": 8.8265848, "tags": {"amenity": "charging_station", "capacity": "2"}}, {"type": "node", "id": 9705329189, "lat": 39.6130631, "lon": 8.8266519, "tags": {"amenity": "charging_station", "capacity": "2"}}, {"type": "node", "id": 9970731478, "lat": 39.915778, "lon": 8.5859183, "tags": {"amenity": "charging_station", "bicycle": "yes", "network": "DINAclub", "operator": "Repower", "operator:wikidata": "Q674712", "operator:wikipedia": "it:Repower", "website": "https://www.repower.com/it/dina/"}}, {"type": "node", "id": 9976413770, "lat": 39.7212327, "lon": 8.7964294, "tags": {"amenity": "charging_station"}}, {"type": "node", "id": 9976413771, "lat": 39.7212023, "lon": 8.7964371, "tags": {"amenity": "charging_station"}}, {"type": "node", "id": 9976413797, "lat": 39.7240786, "lon": 8.7945634, "tags": {"amenity": "charging_station"}}, {"type": "node", "id": 9976413798, "lat": 39.7241083, "lon": 8.7945989, "tags": {"amenity": "charging_station"}}, {"type": "node", "id": 9976413799, "lat": 39.7241394, "lon": 8.7946362, "tags": {"amenity": "charging_station"}}, {"type": "node", "id": 11197673385, "lat": 39.9530084, "lon": 8.6710175, "tags": {"amenity": "charging_station"}}, {"type": "node", "id": 11416617238, "lat": 39.6934644, "lon": 8.7044303, "tags": {"amenity": "charging_station"}}, {"type": "node", "id": 11429232214, "lat": 39.9009073, "lon": 8.5976245, "tags": {"amenity": "charging_station", "brand": "Enel X", "brand:wikidata": "Q5376815", "capacity": "2", "name": "Enel X", "operator": "Enel X", "operator:wikidata": "Q5376815"}}, {"type": "node", "id": 11429232215, "lat": 39.9009715, "lon": 8.5976931, "tags": {"amenity": "charging_station", "brand": "Enel X", "brand:wikidata": "Q5376815", "capacity": "2", "name": "Enel X", "operator": "Enel X", "operator:wikidata": "Q5376815"}}, {"type": "node", "id": 11429232236, "lat": 39.9122264, "lon": 8.5877679, "tags": {"amenity": "charging_station", "brand": "Enel X", "brand:wikidata": "Q5376815", "name": "Enel X", "operator": "Enel X", "operator:wikidata": "Q5376815"}}, {"type": "node", "id": 11432680130, "lat": 39.7277115, "lon": 8.798067, "tags": {"amenity": "charging_station"}}, {"type": "node", "id": 11432680131, "lat": 39.7276203, "lon": 8.797967, "tags": {"amenity": "charging_station"}}, {"type": "node", "id": 11454011500, "lat": 39.9140906, "lon": 8.5862017, "tags": {"amenity": "charging_station", "capacity": "2", "name": "EuroSpin Oristano", "operator": "evWay", "parking:fee": "no"}}, {"type": "node", "id": 11454011501, "lat": 39.9141389, "lon": 8.5861775, "tags": {"amenity": "charging_station", "capacity": "2", "name": "EuroSpin Oristano", "operator": "evWay", "parking:fee": "no"}}]}