{"version": 0.6, "generator": "Overpass API 0.7.62.1 084b4234", "osm3s": {"timestamp_osm_base": "2024-11-14T18:15:02Z", "copyright": "The data included in this document is from www.openstreetmap.org. The data is made available under ODbL."}, "elements": [{"type": "node", "id": 559262505, "lat": 43.8030069, "lon": 11.2447663}, {"type": "node", "id": 866697209, "lat": 43.7689296, "lon": 11.2709197}, {"type": "node", "id": 866697211, "lat": 43.7685887, "lon": 11.2703204}, {"type": "node", "id": 866697216, "lat": 43.7685766, "lon": 11.2707002}, {"type": "node", "id": 866697218, "lat": 43.7691091, "lon": 11.2702354}, {"type": "node", "id": 866697220, "lat": 43.7695575, "lon": 11.270874}, {"type": "node", "id": 866697221, "lat": 43.7686862, "lon": 11.2700998}, {"type": "node", "id": 866697225, "lat": 43.7695845, "lon": 11.2705152}, {"type": "node", "id": 866697226, "lat": 43.7686533, "lon": 11.2708876}, {"type": "node", "id": 942246790, "lat": 43.7924367, "lon": 11.229995}, {"type": "node", "id": 942246791, "lat": 43.7922439, "lon": 11.2299033}, {"type": "node", "id": 961868950, "lat": 43.7926102, "lon": 11.2306053}, {"type": "node", "id": 961868951, "lat": 43.7923025, "lon": 11.231095}, {"type": "node", "id": 961868953, "lat": 43.7919519, "lon": 11.230828}, {"type": "node", "id": 968519085, "lat": 43.7921363, "lon": 11.2303177}, {"type": "node", "id": 972446339, "lat": 43.8048745, "lon": 11.2461745}, {"type": "node", "id": 972446470, "lat": 43.8045546, "lon": 11.2457447}, {"type": "node", "id": 972446896, "lat": 43.8049352, "lon": 11.2458779}, {"type": "node", "id": 972446956, "lat": 43.8044883, "lon": 11.2460228}, {"type": "node", "id": 1189195875, "lat": 43.7674076, "lon": 11.2617572}, {"type": "node", "id": 1189195877, "lat": 43.7671394, "lon": 11.2613927}, {"type": "node", "id": 1189195882, "lat": 43.7672785, "lon": 11.2613418}, {"type": "node", "id": 1189195913, "lat": 43.7670068, "lon": 11.2620876}, {"type": "node", "id": 1189195938, "lat": 43.7673789, "lon": 11.2614495}, {"type": "node", "id": 1189195960, "lat": 43.7671818, "lon": 11.2630653}, {"type": "node", "id": 1189195965, "lat": 43.7674529, "lon": 11.2614658}, {"type": "node", "id": 1189195987, "lat": 43.767352, "lon": 11.2613742}, {"type": "node", "id": 1189196012, "lat": 43.7673789, "lon": 11.2617481}, {"type": "node", "id": 1189196014, "lat": 43.7669544, "lon": 11.2620749}, {"type": "node", "id": 1189196046, "lat": 43.7668878, "lon": 11.2630006}, {"type": "node", "id": 1189196081, "lat": 43.7671099, "lon": 11.2616813}, {"type": "node", "id": 1189196115, "lat": 43.7672113, "lon": 11.2614092}, {"type": "node", "id": 1280743174, "lat": 43.7697484, "lon": 11.2539465, "tags": {"amenity": "library", "check_date": "2023-09-25", "name": "Biblioteca di Palagio di Parte Guelfa", "source": "survey", "wikidata": "Q16532526", "wikipedia": "it:Biblioteca di Palagio di Parte Guelfa"}}, {"type": "node", "id": 1283618248, "lat": 43.7723468, "lon": 11.2596986, "tags": {"addr:housenumber": "26", "addr:postcode": "50122", "addr:street": "Via dell'Oriuolo", "amenity": "library", "contact:website": "http://www.bibliotecadelleoblate.it/", "name": "Biblioteca delle Oblate", "opening_hours": "Mo 14:00-19:00; Tu 09:00-19:00; We-Fr 09:00-23:00; Sa 10:00-23:00; Su off", "wikidata": "Q3639664", "wikipedia": "it:Biblioteca delle Oblate"}}, {"type": "node", "id": 1305158168, "lat": 43.7673155, "lon": 11.2613456}, {"type": "node", "id": 1305158349, "lat": 43.7672587, "lon": 11.2613488}, {"type": "node", "id": 1305158805, "lat": 43.7670564, "lon": 11.2617007}, {"type": "node", "id": 1305159042, "lat": 43.7670677, "lon": 11.2617022}, {"type": "node", "id": 1305159291, "lat": 43.7672284, "lon": 11.2613758}, {"type": "node", "id": 1305159980, "lat": 43.7673684, "lon": 11.2614075}, {"type": "node", "id": 1305160334, "lat": 43.7673329, "lon": 11.2613561}, {"type": "node", "id": 1305160477, "lat": 43.7670706, "lon": 11.2616734}, {"type": "node", "id": 1305837319, "lat": 43.7673608, "lon": 11.2618864}, {"type": "node", "id": 1305837451, "lat": 43.7672672, "lon": 11.2626557}, {"type": "node", "id": 1305837498, "lat": 43.7674362, "lon": 11.2616035}, {"type": "node", "id": 1480249442, "lat": 43.7558057, "lon": 11.2899875}, {"type": "node", "id": 1480249446, "lat": 43.7560182, "lon": 11.2896809}, {"type": "node", "id": 1480249448, "lat": 43.7558913, "lon": 11.2896334}, {"type": "node", "id": 1480249450, "lat": 43.7559725, "lon": 11.2900336}, {"type": "node", "id": 1902294286, "lat": 43.7800639, "lon": 11.1959391}, {"type": "node", "id": 1902294287, "lat": 43.7801212, "lon": 11.1958875}, {"type": "node", "id": 1902294288, "lat": 43.7801456, "lon": 11.1959408}, {"type": "node", "id": 1902294289, "lat": 43.7802553, "lon": 11.1963503}, {"type": "node", "id": 1902294290, "lat": 43.7802932, "lon": 11.196316}, {"type": "node", "id": 1902294291, "lat": 43.7802937, "lon": 11.1958413}, {"type": "node", "id": 1902294292, "lat": 43.7803, "lon": 11.1963313}, {"type": "node", "id": 1902294293, "lat": 43.7803057, "lon": 11.1958651}, {"type": "node", "id": 1902294294, "lat": 43.7803407, "lon": 11.1958321}, {"type": "node", "id": 1902294295, "lat": 43.7803573, "lon": 11.1962575}, {"type": "node", "id": 1902294296, "lat": 43.7803643, "lon": 11.196276}, {"type": "node", "id": 1902294297, "lat": 43.7803859, "lon": 11.1958452}, {"type": "node", "id": 1902294298, "lat": 43.7804046, "lon": 11.1958921}, {"type": "node", "id": 1902294299, "lat": 43.7804181, "lon": 11.195879}, {"type": "node", "id": 1902294300, "lat": 43.7804754, "lon": 11.1960097}, {"type": "node", "id": 1902294301, "lat": 43.7804741, "lon": 11.1961262}, {"type": "node", "id": 1902294303, "lat": 43.7804829, "lon": 11.1960709}, {"type": "node", "id": 1931856291, "lat": 43.81983, "lon": 11.2282456, "tags": {"amenity": "library", "name": "Biblioteca dell'Accademia della Crusca", "wikidata": "Q3639658", "wikipedia": "it:Biblioteca dell'Accademia della Crusca"}}, {"type": "node", "id": 2361796191, "lat": 43.7676525, "lon": 11.2402352, "tags": {"addr:city": "Firenze", "addr:country": "IT", "addr:housenumber": "3", "addr:street": "Piazza Torquato Tasso", "amenity": "library", "internet_access": "yes", "name": "Biblioteca Pietro Thouar", "source": "Comune di Firenze", "wikidata": "Q3639609", "wikipedia": "it:Biblioteca Pietro Thouar"}}, {"type": "node", "id": 3111042061, "lat": 43.777428, "lon": 11.2576102, "tags": {"amenity": "library", "name": "Biblioteca Marucelliana", "opening_hours": "Mo,We,Fr 08:30-14:00; Tu,Th 08:30-17:00", "phone": "+39 05 52722200", "website": "https://marucelliana.cultura.gov.it", "wikidata": "Q741371", "wikipedia": "it:Biblioteca Marucelliana"}}, {"type": "node", "id": 3676426335, "lat": 43.7760394, "lon": 11.2902285, "tags": {"amenity": "library", "name": "Biblioteca comunale Mario Luzi", "wikidata": "Q86520821"}}, {"type": "node", "id": 3701939228, "lat": 43.7755852, "lon": 11.2554277, "tags": {"amenity": "library", "name": "Biblioteca Moreniana", "website": "http://www.provincia.fi.it/palazzo-medici-riccardi/biblioteca-moreniana/", "wikidata": "Q3639599", "wikipedia": "it:Biblioteca Moreniana"}}, {"type": "node", "id": 3701939229, "lat": 43.7755078, "lon": 11.2554234, "tags": {"amenity": "library", "name": "Biblioteca Riccardiana", "opening_hours": "Mo-Su 08:00-14:00", "website": "http://www.riccardiana.firenze.sbn.it/", "wheelchair": "limited", "wikidata": "Q856409", "wikipedia": "it:Biblioteca Riccardiana"}}, {"type": "node", "id": 3774727630, "lat": 43.7558255, "lon": 11.2899056}, {"type": "node", "id": 4162396990, "lat": 43.7744207, "lon": 11.2537735, "tags": {"addr:housenumber": "9", "addr:street": "Piazza di San Lorenzo", "amenity": "library", "contact:website": "http://www.bml.firenze.sbn.it", "name": "Biblioteca Medicea Laurenziana", "name:it": "Biblioteca Medicea Laurenziana", "name:zh": "\u6d1b\u4f26\u4f50\u7f8e\u7b2c\u5947\u56fe\u4e66\u9986", "wikidata": "Q856419", "wikipedia": "it:Biblioteca Medicea Laurenziana"}}, {"type": "node", "id": 4406031975, "lat": 43.7672857, "lon": 11.2625085}, {"type": "node", "id": 4406032316, "lat": 43.7673034, "lon": 11.2622777}, {"type": "node", "id": 4406032342, "lat": 43.7671877, "lon": 11.2630108}, {"type": "node", "id": 4406032376, "lat": 43.7673864, "lon": 11.2623463}, {"type": "node", "id": 4406032379, "lat": 43.7673137, "lon": 11.2622872}, {"type": "node", "id": 4406032385, "lat": 43.7672412, "lon": 11.2630204}, {"type": "node", "id": 4406032386, "lat": 43.7673194, "lon": 11.2622386}, {"type": "node", "id": 4406032390, "lat": 43.7668924, "lon": 11.2625632}, {"type": "node", "id": 4406032405, "lat": 43.7669389, "lon": 11.2625756}, {"type": "node", "id": 4406032446, "lat": 43.7673138, "lon": 11.2625352}, {"type": "node", "id": 4406032544, "lat": 43.7672834, "lon": 11.2626713}, {"type": "node", "id": 4606908121, "lat": 43.780571, "lon": 11.2374701, "tags": {"amenity": "library", "name": "Biblioteca Fabrizio De Andr\u00e9", "wikidata": "Q3639583", "wikipedia": "it:Biblioteca Fabrizio De Andr\u00e9"}}, {"type": "node", "id": 4674218082, "lat": 43.7558188, "lon": 11.2899911}, {"type": "node", "id": 4674218176, "lat": 43.7558672, "lon": 11.2900045}, {"type": "node", "id": 4796237984, "lat": 43.7923735, "lon": 11.2302319}, {"type": "node", "id": 5222141488, "lat": 43.7689304, "lon": 11.2701772}, {"type": "node", "id": 5222141490, "lat": 43.7687933, "lon": 11.2709188}, {"type": "node", "id": 5222141491, "lat": 43.7687241, "lon": 11.270466}, {"type": "node", "id": 5222141494, "lat": 43.7686102, "lon": 11.2707739}, {"type": "node", "id": 5222141496, "lat": 43.7687592, "lon": 11.2701376}, {"type": "node", "id": 5222141498, "lat": 43.7686125, "lon": 11.2703744}, {"type": "node", "id": 5222141499, "lat": 43.7686067, "lon": 11.2704433}, {"type": "node", "id": 5222141502, "lat": 43.7686458, "lon": 11.2707845}, {"type": "node", "id": 5222141504, "lat": 43.7687601, "lon": 11.2701174}, {"type": "node", "id": 5222141506, "lat": 43.7689284, "lon": 11.270197}, {"type": "node", "id": 5222141508, "lat": 43.7687952, "lon": 11.2708924}, {"type": "node", "id": 5222141509, "lat": 43.7687315, "lon": 11.2704041}, {"type": "node", "id": 5222141511, "lat": 43.7686405, "lon": 11.2708524}, {"type": "node", "id": 5222141513, "lat": 43.7686154, "lon": 11.2707095}, {"type": "node", "id": 5600711617, "lat": 43.7672941, "lon": 11.2613402}, {"type": "node", "id": 5600712422, "lat": 43.7672393, "lon": 11.2613631}, {"type": "node", "id": 5667782495, "lat": 43.7804458, "lon": 11.1961785}, {"type": "node", "id": 5667782496, "lat": 43.7804471, "lon": 11.1961509}, {"type": "node", "id": 5667782497, "lat": 43.7804625, "lon": 11.1960192}, {"type": "node", "id": 5667782498, "lat": 43.7802055, "lon": 11.1959202}, {"type": "node", "id": 5667782499, "lat": 43.7801962, "lon": 11.195898}, {"type": "node", "id": 6132737790, "lat": 43.7723903, "lon": 11.2662965, "tags": {"addr:housenumber": "37", "addr:street": "Via Giosu\u00e8 Carducci", "amenity": "library", "name": "Istituto storico della Resistenza in Toscana", "wikidata": "Q3803678", "wikipedia": "it:Istituto storico della Resistenza in Toscana"}}, {"type": "node", "id": 6171640649, "lat": 43.7695814, "lon": 11.2706771}, {"type": "node", "id": 6171640657, "lat": 43.7695867, "lon": 11.2705842}, {"type": "node", "id": 6306664262, "lat": 43.7752037, "lon": 11.2504515, "tags": {"amenity": "library", "name": "Biblioteca della Toscana \"Pietro Leopoldo\"", "opening_hours": "Mo-Fr 09:00-17:00", "website": "http://www.consiglio.regione.toscana.it/biblioteca/default.aspx"}}, {"type": "node", "id": 6331789308, "lat": 43.7772787, "lon": 11.2640281, "tags": {"amenity": "library", "name": "Bibliothek des Kunsthistorischen Instituts in Florenz", "ref:isil": "IT-FI0326", "wikidata": "Q17622734", "wikipedia": "it:Biblioteca del Kunsthistorisches Institut in Florenz"}}, {"type": "node", "id": 7255515693, "lat": 43.7800925, "lon": 11.1960006}, {"type": "node", "id": 7288818297, "lat": 43.7940856, "lon": 11.1705879, "tags": {"amenity": "library", "name": "Centro Lettura Insieme per Brozzi"}}, {"type": "node", "id": 7325280109, "lat": 43.7755055, "lon": 11.2514729, "tags": {"addr:city": "Firenze", "amenity": "library", "name": "SACI Worthington Library", "wikidata": "Q86520930"}}, {"type": "node", "id": 7325280110, "lat": 43.7653538, "lon": 11.2505173, "tags": {"addr:city": "Firenze", "amenity": "library", "name": "Nuova Biblioteca Palatina", "wikidata": "Q85846661"}}, {"type": "node", "id": 7325280111, "lat": 43.7679826, "lon": 11.2234113, "tags": {"addr:city": "Firenze", "amenity": "library", "name": "Multiteca statistica Ugo Giusti", "wikidata": "Q85846631"}}, {"type": "node", "id": 7325280112, "lat": 43.7771688, "lon": 11.2685404, "tags": {"addr:city": "Firenze", "amenity": "library", "name": "Mediatheca Fioretta Mazzei", "wikidata": "Q86118898"}}, {"type": "node", "id": 7325280113, "lat": 43.7778163, "lon": 11.2565591, "tags": {"addr:city": "Firenze", "amenity": "library", "name": "Mediateca Regionale di Fondazione Sistema Toscana", "wikidata": "Q86520599"}}, {"type": "node", "id": 7325280114, "lat": 43.8166102, "lon": 11.2286975, "tags": {"addr:city": "Firenze", "amenity": "library", "name": "Ludoteca Il castello dei balocchi", "wikidata": "Q86520894"}}, {"type": "node", "id": 7325280115, "lat": 43.8046175, "lon": 11.2459869, "tags": {"addr:city": "Firenze", "amenity": "library", "name": "Informalcol - Centro di documentazione del Centro Alcologico Regionale Toscano", "wikidata": "Q81170351"}}, {"type": "node", "id": 7325280116, "lat": 43.7736965, "lon": 11.2589378, "tags": {"addr:city": "Firenze", "amenity": "library", "name": "Fondazione Biblioteche della Cassa di Risparmio", "wikidata": "Q86520608"}}, {"type": "node", "id": 7325280117, "lat": 43.7763682, "lon": 11.2431029, "tags": {"addr:city": "Firenze", "amenity": "library", "name": "Children's Lending Library", "wikidata": "Q86017279"}}, {"type": "node", "id": 7325280118, "lat": 43.7710966, "lon": 11.2652706, "tags": {"addr:city": "Firenze", "amenity": "library", "name": "Centro studi e documentazione sull'associazionismo"}}, {"type": "node", "id": 7325280119, "lat": 43.794063, "lon": 11.1698267, "tags": {"addr:city": "Firenze", "amenity": "library", "name": "Centro lettura dell'Associazione Insieme per Brozzi Ex Gruppo 334 G334"}}, {"type": "node", "id": 7325280120, "lat": 43.7618481, "lon": 11.2836187, "tags": {"addr:city": "Firenze", "amenity": "library", "name": "Centro documentazione Popoli Minacciati - Circolo Vie Nuove", "wikidata": "Q86118887"}}, {"type": "node", "id": 7325280121, "lat": 43.7792241, "lon": 11.2676475, "tags": {"addr:city": "Firenze", "amenity": "library", "name": "Centro documentazione CGIL Toscana", "wikidata": "Q86520488"}}, {"type": "node", "id": 7325280122, "lat": 43.7718918, "lon": 11.2466289, "tags": {"addr:city": "Firenze", "amenity": "library", "name": "Centro di documentazione per la storia dell'assistenza e della sanit\u00e0 fiorentina", "wikidata": "Q86520422"}}, {"type": "node", "id": 7325280123, "lat": 43.7849336, "lon": 11.285504, "tags": {"addr:city": "Firenze", "amenity": "library", "name": "Centro di documentazione della Pubblica Istruzione del Comune di Firenze (CRED)", "wikidata": "Q85846638"}}, {"type": "node", "id": 7325280124, "lat": 43.7770542, "lon": 11.2573401, "tags": {"addr:city": "Firenze", "amenity": "library", "name": "Centro di documentazione della Provincia di Firenze", "wikidata": "Q86520542"}}, {"type": "node", "id": 7325280125, "lat": 43.776067, "lon": 11.2581009, "tags": {"addr:city": "Firenze", "amenity": "library", "name": "Centro di documentazione della Commissione regionale per le pari opportunit\u00e0 uomo-donna", "wikidata": "Q86520652"}}, {"type": "node", "id": 7325280126, "lat": 43.7685969, "lon": 11.2554465, "tags": {"addr:city": "Firenze", "amenity": "library", "name": "Centro di documentazione della Soprintendenza speciale per il Polo museale Fiorentino", "wikidata": "Q86520637"}}, {"type": "node", "id": 7325280127, "lat": 43.8135128, "lon": 11.242977, "tags": {"addr:city": "Firenze", "amenity": "library", "name": "Centro di documentazione dell'ARS - Agenzia regionale di sanit\u00e0", "wikidata": "Q86520891"}}, {"type": "node", "id": 7325280128, "lat": 43.7717689, "lon": 11.2627791, "tags": {"addr:city": "Firenze", "amenity": "library", "name": "Centro di documentazione Fili", "wikidata": "Q86520987"}}, {"type": "node", "id": 7325280129, "lat": 43.7797976, "lon": 11.2447906, "tags": {"addr:city": "Firenze", "amenity": "library", "name": "Centro di documentazione Centro Tecnico per il Consumo", "wikidata": "Q86118924"}}, {"type": "node", "id": 7325280130, "lat": 43.7831644, "lon": 11.3216589, "tags": {"addr:city": "Firenze", "amenity": "library", "name": "Centro di documentazione Carlo Giuliani", "wikidata": "Q85835001"}}, {"type": "node", "id": 7325280131, "lat": 43.7710326, "lon": 11.2379237, "tags": {"addr:city": "Firenze", "amenity": "library", "name": "Centro di documentazione Azione Gay e Lesbica", "wikidata": "Q86017267"}}, {"type": "node", "id": 7325280132, "lat": 43.7704838, "lon": 11.2907652, "tags": {"addr:city": "Firenze", "amenity": "library", "name": "Centro di Documentazione per l'Educazione alla Salute CeDEaS"}}, {"type": "node", "id": 7325280133, "lat": 43.78404, "lon": 11.2848069, "tags": {"addr:city": "Firenze", "amenity": "library", "name": "Centro Nazionale del Libro Parlato - Nastroteca Stefano Bruni", "wikidata": "Q86118906"}}, {"type": "node", "id": 7325280134, "lat": 43.7799477, "lon": 11.1958103, "tags": {"addr:city": "Firenze", "amenity": "library", "name": "Centro Culturale Ludoteca La Carrozza di Hans", "wikidata": "Q86520418"}}, {"type": "node", "id": 7325280135, "lat": 43.7959405, "lon": 11.2816774, "tags": {"addr:city": "Firenze", "amenity": "library", "name": "CISL Centro Studi Nazionale CISL Firenze - Biblioteca Mario Romani", "wikidata": "Q81170168"}}, {"type": "node", "id": 7325280136, "lat": 43.7737679, "lon": 11.2588106, "tags": {"addr:city": "Firenze", "amenity": "library", "name": "Biblioteche della Banca CR Firenze", "wikidata": "Q85846649"}}, {"type": "node", "id": 7325280137, "lat": 43.7734385, "lon": 11.261785, "tags": {"addr:city": "Firenze", "amenity": "library", "name": "Biblioteca teatrale della Pergola", "wikidata": "Q86520688"}}, {"type": "node", "id": 7325280138, "lat": 43.7723127, "lon": 11.2509217, "tags": {"addr:city": "Firenze", "amenity": "library", "name": "Biblioteca provinciale dei frati minori Cappuccini", "wikidata": "Q86520873"}}, {"type": "node", "id": 7325280139, "lat": 43.7936847, "lon": 11.2502018, "tags": {"addr:city": "Firenze", "amenity": "library", "name": "Biblioteca provinciale dei Cappuccini", "wikidata": "Q86520887"}}, {"type": "node", "id": 7325280141, "lat": 43.7976824, "lon": 11.1919705, "tags": {"addr:city": "Firenze", "amenity": "library", "name": "Biblioteca per l'agrometeorologia e l'analisi ambientale applicata all'agricoltura - IATA del CNR", "wikidata": "Q86520535"}}, {"type": "node", "id": 7325280142, "lat": 43.784857, "lon": 11.2859071, "tags": {"addr:city": "Firenze", "amenity": "library", "name": "Biblioteca per ciechi Regina Margherita", "wikidata": "Q86520869"}}, {"type": "node", "id": 7325280143, "lat": 43.7583473, "lon": 11.203371, "tags": {"addr:city": "Firenze", "amenity": "library", "name": "Biblioteca medica Ennio Montoni", "wikidata": "Q86521132"}}, {"type": "node", "id": 7325280144, "lat": 43.7741917, "lon": 11.2422152, "tags": {"addr:city": "Firenze", "amenity": "library", "name": "Biblioteca e Centro di documentazione del Polimoda", "wikidata": "Q86520594"}}, {"type": "node", "id": 7325280145, "lat": 43.7686799, "lon": 11.2549815, "tags": {"addr:city": "Firenze", "amenity": "library", "name": "Biblioteca e Archivio dell'Accademia dei Georgofili", "wikidata": "Q86521032"}}, {"type": "node", "id": 7325280146, "lat": 43.7725194, "lon": 11.2603817, "tags": {"addr:city": "Firenze", "amenity": "library", "name": "Biblioteca e Archivio del Risorgimento", "wikidata": "Q23001498", "wikipedia": "it:Biblioteca e archivio del Risorgimento"}}, {"type": "node", "id": 7325280147, "lat": 43.776193, "lon": 11.250853, "tags": {"addr:city": "Firenze", "amenity": "library", "name": "Biblioteca di storia della fotografia Fratelli Alinari", "wikidata": "Q86521166"}}, {"type": "node", "id": 7325280148, "lat": 43.774742, "lon": 11.2628924, "tags": {"addr:city": "Firenze", "amenity": "library", "name": "Biblioteca di lettere e filosofia dell'Universit\u00e0 degli studi di Firenze - Dipartimento di storia dell'arte"}}, {"type": "node", "id": 7325280149, "lat": 43.7706604, "lon": 11.2643234, "tags": {"addr:city": "Firenze", "amenity": "library", "name": "Biblioteca di documentazione pedagogica", "wikidata": "Q86521168"}}, {"type": "node", "id": 7325280151, "lat": 43.7831638, "lon": 11.3215808, "tags": {"addr:city": "Firenze", "amenity": "library", "name": "Biblioteca di Settignano", "wikidata": "Q86017234"}}, {"type": "node", "id": 7325280152, "lat": 43.7987805, "lon": 11.2552224, "tags": {"addr:city": "Firenze", "amenity": "library", "name": "Biblioteca di Scienze tecnologiche dell'Universit\u00e0 degli studi di Firenze - Sede di Ingegneria", "wikidata": "Q86520548"}}, {"type": "node", "id": 7325280153, "lat": 43.7789185, "lon": 11.2635744, "tags": {"addr:city": "Firenze", "amenity": "library", "name": "Biblioteca di Scienze tecnologiche dell'Universit\u00e0 degli studi di Firenze - Sede di Architettura"}}, {"type": "node", "id": 7325280154, "lat": 43.7824644, "lon": 11.2199268, "tags": {"addr:city": "Firenze", "amenity": "library", "name": "Biblioteca di Scienze tecnologiche dell'Universit\u00e0 degli studi di Firenze - Sede di Agraria", "wikidata": "Q86520574"}}, {"type": "node", "id": 7325280155, "lat": 43.8013501, "lon": 11.2445281, "tags": {"addr:city": "Firenze", "amenity": "library", "name": "Biblioteca di Scienze sociali dell'Universit\u00e0 degli studi di Firenze - Statistica", "wikidata": "Q86520588"}}, {"type": "node", "id": 7325280156, "lat": 43.8028772, "lon": 11.244896}, {"type": "node", "id": 7325280157, "lat": 43.7784364, "lon": 11.2603376, "tags": {"addr:city": "Firenze", "amenity": "library", "name": "Biblioteca di Scienze dell'Universit\u00e0 degli studi di Firenze - Sede di Geomineralogia", "wikidata": "Q86520559"}}, {"type": "node", "id": 7325280158, "lat": 43.7780484, "lon": 11.2608263, "tags": {"addr:city": "Firenze", "amenity": "library", "name": "Biblioteca di Scienze dell'Universit\u00e0 degli studi di Firenze - Sede di Botanica", "wikidata": "Q86520566"}}, {"type": "node", "id": 7325280159, "lat": 43.7645703, "lon": 11.2472439, "tags": {"addr:city": "Firenze", "amenity": "library", "name": "Biblioteca di Scienze dell'Universit\u00e0 degli studi di Firenze - Sede di Biologia animale", "wikidata": "Q86520583"}}, {"type": "node", "id": 7325280160, "lat": 43.7493396, "lon": 11.2513944, "tags": {"addr:city": "Firenze", "amenity": "library", "name": "Biblioteca di Scienze dell'Universit\u00e0 degli studi di Firenze - Sede di Astronomia", "wikidata": "Q86520692"}}, {"type": "node", "id": 7325280161, "lat": 43.771829, "lon": 11.258077, "tags": {"addr:city": "Firenze", "amenity": "library", "name": "Biblioteca di Scienze dell'Universit\u00e0 degli studi di Firenze - Sede di Antropologia"}}, {"type": "node", "id": 7325280162, "lat": 43.7594022, "lon": 11.2648129, "tags": {"addr:city": "Firenze", "amenity": "library", "name": "Biblioteca di San Miniato al Monte"}}, {"type": "node", "id": 7325280163, "lat": 43.7633788, "lon": 11.2778504, "tags": {"addr:city": "Firenze", "amenity": "library", "name": "Biblioteca di Legambiente Toscana Volontariato", "wikidata": "Q85846611"}}, {"type": "node", "id": 7325280164, "lat": 43.7634229, "lon": 11.2778504, "tags": {"addr:city": "Firenze", "amenity": "library", "name": "Biblioteca di Italia nostra", "wikidata": "Q86520432"}}, {"type": "node", "id": 7325280165, "lat": 43.7682608, "lon": 11.2619676, "tags": {"addr:city": "Firenze", "amenity": "library", "name": "Biblioteca dello Studio teologico per laici Santa Croce", "wheelchair": "yes", "wikidata": "Q86520979"}}, {"type": "node", "id": 7325280166, "lat": 43.7610649, "lon": 11.2854892, "tags": {"addr:city": "Firenze", "amenity": "library", "name": "Biblioteca dello Sport UISP", "wikidata": "Q85846613"}}, {"type": "node", "id": 7325280167, "lat": 43.769043, "lon": 11.2532882, "tags": {"addr:city": "Firenze", "amenity": "library", "name": "Biblioteca delle Industrie farmaceutiche riunite Menarini", "wikidata": "Q86520470"}}, {"type": "node", "id": 7325280168, "lat": 43.793904, "lon": 11.222861, "tags": {"addr:city": "Firenze", "amenity": "library", "name": "Biblioteca della Toscana Pietro Leopoldo - Sezione Novoli", "wikidata": "Q86520517"}}, {"type": "node", "id": 7325280169, "lat": 43.7752919, "lon": 11.2504303, "tags": {"addr:city": "Firenze", "amenity": "library", "name": "Biblioteca della Toscana Pietro Leopoldo - Sezione Identit\u00e0 Toscana", "wikidata": "Q86520650"}}, {"type": "node", "id": 7325280170, "lat": 43.775251, "lon": 11.2502959, "tags": {"addr:city": "Firenze", "amenity": "library", "name": "Biblioteca della Toscana Pietro Leopoldo"}}, {"type": "node", "id": 7325280171, "lat": 43.7811964, "lon": 11.2674138, "tags": {"addr:city": "Firenze", "amenity": "library", "name": "Biblioteca della Syracuse University Semester in Italy", "wikidata": "Q86520880"}}, {"type": "node", "id": 7325280172, "lat": 43.7757069, "lon": 11.2634511, "tags": {"addr:city": "Firenze", "amenity": "library", "name": "Biblioteca della Soprintendenza per i beni archeologici della Toscana", "wikidata": "Q86520655"}}, {"type": "node", "id": 7325280173, "lat": 43.7755326, "lon": 11.2551283, "tags": {"addr:city": "Firenze", "amenity": "library", "name": "Biblioteca della Soprintendenza archivistica per la Toscana"}}, {"type": "node", "id": 7325280174, "lat": 43.7644502, "lon": 11.2560674, "tags": {"addr:city": "Firenze", "amenity": "library", "name": "Biblioteca della Societ\u00e0 toscana di Orticultura", "wikidata": "Q86520303"}}, {"type": "node", "id": 7325280175, "lat": 43.7312425, "lon": 11.2208264, "tags": {"addr:city": "Firenze", "amenity": "library", "name": "Biblioteca della Societ\u00e0 internazionale per lo studio del medioevo latino - SISMEL", "wikidata": "Q86520704"}}, {"type": "node", "id": 7325280176, "lat": 43.7898854, "lon": 11.2375649, "tags": {"addr:city": "Firenze", "amenity": "library", "name": "Biblioteca della Societ\u00e0 di ricerca per l'organizzazione sanitaria SAGO", "wikidata": "Q86520921"}}, {"type": "node", "id": 7325280177, "lat": 43.7708221, "lon": 11.2545873, "tags": {"addr:city": "Firenze", "amenity": "library", "name": "Biblioteca della Societ\u00e0 dantesca italiana"}}, {"type": "node", "id": 7325280178, "lat": 43.7769452, "lon": 11.2573088, "tags": {"addr:city": "Firenze", "amenity": "library", "name": "Biblioteca della Societ\u00e0 Leonardo da Vinci", "wikidata": "Q86017277"}}, {"type": "node", "id": 7325280179, "lat": 43.772448, "lon": 11.2569859, "tags": {"addr:city": "Firenze", "amenity": "library", "name": "Biblioteca della Societ\u00e0 Cooperativa Opera d'Arte", "wikidata": "Q86118939"}}, {"type": "node", "id": 7325280180, "lat": 43.7785103, "lon": 11.2601675, "tags": {"addr:city": "Firenze", "amenity": "library", "name": "Biblioteca della Societ\u00e0 Botanica Italiana onlus", "wikidata": "Q86520561"}}, {"type": "node", "id": 7325280181, "lat": 43.7751955, "lon": 11.2042154, "tags": {"addr:city": "Firenze", "amenity": "library", "name": "Biblioteca della Societ\u00e0 Astronomica Fiorentina"}}, {"type": "node", "id": 7325280182, "lat": 43.8068252, "lon": 11.216531, "tags": {"addr:city": "Firenze", "amenity": "library", "name": "Biblioteca della Scuola marescialli e brigadieri dell'arma dei carabinieri"}}, {"type": "node", "id": 7325280183, "lat": 43.7961818, "lon": 11.2721556, "tags": {"addr:city": "Firenze", "amenity": "library", "name": "Biblioteca della Scuola elementare Boccaccio", "wikidata": "Q86118903"}}, {"type": "node", "id": 7325280184, "lat": 43.7803975, "lon": 11.262281, "tags": {"addr:city": "Firenze", "amenity": "library", "name": "Biblioteca della Scuola di sanit\u00e0 militare", "wikidata": "Q86520856"}}, {"type": "node", "id": 7325281785, "lat": 43.7857572, "lon": 11.2146057, "tags": {"addr:city": "Firenze", "amenity": "library", "name": "Biblioteca della Scuola di guerra aerea e Scuola di applicazione aeronautica militare", "wikidata": "Q86520522"}}, {"type": "node", "id": 7325281786, "lat": 43.7674916, "lon": 11.2651445, "tags": {"addr:city": "Firenze", "amenity": "library", "name": "Biblioteca della Scuola - citt\u00e0 Pestalozzi", "wikidata": "Q86520671"}}, {"type": "node", "id": 7325281787, "lat": 43.7770598, "lon": 11.2609025, "tags": {"addr:city": "Firenze", "amenity": "library", "name": "Biblioteca della Santissima Annunziata"}}, {"type": "node", "id": 7325281788, "lat": 43.7957534, "lon": 11.265895, "tags": {"addr:city": "Firenze", "amenity": "library", "name": "Biblioteca della New York University"}}, {"type": "node", "id": 7325281789, "lat": 43.7725803, "lon": 11.2555235, "tags": {"addr:city": "Firenze", "amenity": "library", "name": "Biblioteca della Misericordia di Firenze", "wikidata": "Q86520991"}}, {"type": "node", "id": 7325281790, "lat": 43.8117259, "lon": 11.2522289, "tags": {"addr:city": "Firenze", "amenity": "library", "name": "Biblioteca della Ludoteca dell'Ospedale Anna Meyer", "wikidata": "Q86520472"}}, {"type": "node", "id": 7325281791, "lat": 43.7760659, "lon": 11.2610831, "tags": {"addr:city": "Firenze", "amenity": "library", "name": "Biblioteca della Ludoteca centrale", "wikidata": "Q86520627"}}, {"type": "node", "id": 7325281792, "lat": 43.778893, "lon": 11.2600403, "tags": {"addr:city": "Firenze", "amenity": "library", "name": "Biblioteca della Gonzaga university in Florence", "wikidata": "Q86521018"}}, {"type": "node", "id": 7325281793, "lat": 43.7652746, "lon": 11.2503157, "tags": {"addr:city": "Firenze", "amenity": "library", "name": "Biblioteca della Galleria di arte moderna di Palazzo Pitti", "wikidata": "Q86520941"}}, {"type": "node", "id": 7325281794, "lat": 43.7767814, "lon": 11.2645442, "tags": {"addr:city": "Firenze", "amenity": "library", "name": "Biblioteca della Fondazione scienza e tecnica", "wikidata": "Q86520667"}}, {"type": "node", "id": 7325281795, "lat": 43.7705831, "lon": 11.2641013, "tags": {"addr:city": "Firenze", "amenity": "library", "name": "Biblioteca della Fondazione di studi storici Filippo Turati", "wikidata": "Q86520982"}}, {"type": "node", "id": 7325281796, "lat": 43.7559064, "lon": 11.2784839, "tags": {"addr:city": "Firenze", "amenity": "library", "name": "Biblioteca della Fondazione di studi di storia dell'arte Roberto Longhi", "wikidata": "Q86520449"}}, {"type": "node", "id": 7325281797, "lat": 43.7540691, "lon": 11.2389986, "tags": {"addr:city": "Firenze", "amenity": "library", "name": "Biblioteca della Fondazione di Villa Romana", "wikidata": "Q86520993"}}, {"type": "node", "id": 7325281798, "lat": 43.776004, "lon": 11.2657225, "tags": {"addr:city": "Firenze", "amenity": "library", "name": "Biblioteca della Fondazione culturale Arrigoni degli Oddi", "wikidata": "Q86017258"}}, {"type": "node", "id": 7325281799, "lat": 43.7785962, "lon": 11.2550387, "tags": {"addr:city": "Firenze", "amenity": "library", "name": "Biblioteca della Fondazione Studio Marangoni", "wikidata": "Q86118914"}}, {"type": "node", "id": 7325281800, "lat": 43.7462753, "lon": 11.2587408, "tags": {"addr:city": "Firenze", "amenity": "library", "name": "Biblioteca della Fondazione Spadolini Nuova Antologia", "wikidata": "Q86520679"}}, {"type": "node", "id": 7325281801, "lat": 43.8030591, "lon": 11.2681727, "tags": {"addr:city": "Firenze", "amenity": "library", "name": "Biblioteca della Fondazione Leonardo da Vinci", "wikidata": "Q86521134"}}, {"type": "node", "id": 7325281802, "lat": 43.7643847, "lon": 11.2640959, "tags": {"addr:city": "Firenze", "amenity": "library", "name": "Biblioteca della Fondazione Italiana della Leniterapia - FILE", "wikidata": "Q85846671"}}, {"type": "node", "id": 7325281803, "lat": 43.7674935, "lon": 11.2594723, "tags": {"addr:city": "Firenze", "amenity": "library", "name": "Biblioteca della Fondazione Herbert Percy Horne", "wikidata": "Q86520977"}}, {"type": "node", "id": 7325281805, "lat": 43.7788142, "lon": 11.2599888, "tags": {"addr:city": "Firenze", "amenity": "library", "name": "Biblioteca della Fondazione Giorgio la Pira", "wikidata": "Q86520947"}}, {"type": "node", "id": 7325281806, "lat": 43.7696722, "lon": 11.2579027, "tags": {"addr:city": "Firenze", "amenity": "library", "name": "Biblioteca della Fondazione Franco Zeffirelli Onlus", "wikidata": "Q86520957"}}, {"type": "node", "id": 7325281807, "lat": 43.7312786, "lon": 11.2208591, "tags": {"addr:city": "Firenze", "amenity": "library", "name": "Biblioteca della Fondazione Ezio Franceschini", "wikidata": "Q86520697"}}, {"type": "node", "id": 7325281808, "lat": 43.775434, "lon": 11.2604993, "tags": {"addr:city": "Firenze", "amenity": "library", "name": "Biblioteca della Fondazione Circolo Fratelli Rosselli", "wikidata": "Q86520606"}}, {"type": "node", "id": 7325281809, "lat": 43.7714312, "lon": 11.2605705, "tags": {"addr:city": "Firenze", "amenity": "library", "name": "Biblioteca della Florida State University", "wikidata": "Q86520678"}}, {"type": "node", "id": 7325281810, "lat": 43.7692005, "lon": 11.2397811, "tags": {"addr:city": "Firenze", "amenity": "library", "name": "Biblioteca della Facolt\u00e0 teologica dell'Italia centrale", "wikidata": "Q86520903"}}, {"type": "node", "id": 7325281811, "lat": 43.7755203, "lon": 11.2552042, "tags": {"addr:city": "Firenze", "amenity": "library", "name": "Biblioteca della Deputazione di storia patria per la Toscana", "wheelchair": "limited", "wikidata": "Q86521025"}}, {"type": "node", "id": 7325281812, "lat": 43.7955319, "lon": 11.2270362, "tags": {"addr:city": "Firenze", "amenity": "library", "name": "Biblioteca della Corte di Appello di Firenze", "wikidata": "Q86520412"}}, {"type": "node", "id": 7325281813, "lat": 43.7728795, "lon": 11.2657019, "tags": {"addr:city": "Firenze", "amenity": "library", "name": "Biblioteca della Comunit\u00e0 ebraica di Firenze", "wikidata": "Q86520973"}}, {"type": "node", "id": 7325281814, "lat": 43.7687018, "lon": 11.2264747, "tags": {"addr:city": "Firenze", "amenity": "library", "name": "Biblioteca della Comunit\u00e0 Giovanile San Michele", "wikidata": "Q86118886"}}, {"type": "node", "id": 7325281815, "lat": 43.7836688, "lon": 11.2549679, "tags": {"addr:city": "Firenze", "amenity": "library", "name": "Biblioteca della Chiesa russa ortodossa", "wikidata": "Q86520884"}}, {"type": "node", "id": 7325281816, "lat": 43.765395, "lon": 11.2569912, "tags": {"addr:city": "Firenze", "amenity": "library", "name": "Biblioteca della Chiesa evangelica-luterana", "wikidata": "Q86520662"}}, {"type": "node", "id": 7325281817, "lat": 43.7721035, "lon": 11.2695987, "tags": {"addr:city": "Firenze", "amenity": "library", "name": "Biblioteca della Chiesa evangelica valdese", "wikidata": "Q86520630"}}, {"type": "node", "id": 7325281818, "lat": 43.7675639, "lon": 11.2565765, "tags": {"addr:city": "Firenze", "amenity": "library", "name": "Biblioteca della Camera di commercio di Firenze", "wikidata": "Q86520538"}}, {"type": "node", "id": 7325281819, "lat": 43.7883699, "lon": 11.2794525, "tags": {"addr:city": "Firenze", "amenity": "library", "name": "Biblioteca dell'Universit\u00e0 internazionale dell'arte", "wikidata": "Q86520878"}}, {"type": "node", "id": 7325281821, "lat": 43.774733, "lon": 11.2551354, "tags": {"addr:city": "Firenze", "amenity": "library", "name": "Biblioteca dell'Osservatorio Ximeniano", "wheelchair": "no"}}, {"type": "node", "id": 7325281822, "lat": 43.7872148, "lon": 11.2619623, "tags": {"addr:city": "Firenze", "amenity": "library", "name": "Biblioteca dell'Orticoltura", "wikidata": "Q85859884", "wikipedia": "it:Biblioteca dell'Orticoltura"}}, {"type": "node", "id": 7325281823, "lat": 43.7761802, "lon": 11.2588461, "tags": {"addr:city": "Firenze", "air_conditioning": "yes", "amenity": "library", "name": "Biblioteca dell'Opificio delle pietre dure", "opening_hours": "Mo-Sa 08:15-14:00", "wikidata": "Q86521161"}}, {"type": "node", "id": 7325281824, "lat": 43.7723033, "lon": 11.2561734, "tags": {"addr:city": "Firenze", "amenity": "library", "name": "Biblioteca dell'Opera di Santa Maria del Fiore di Firenze", "wikidata": "Q86520686"}}, {"type": "node", "id": 7325281825, "lat": 43.7540014, "lon": 11.2489758, "tags": {"addr:city": "Firenze", "amenity": "library", "name": "Biblioteca dell'Istituto universitario olandese di storia dell'arte", "wikidata": "Q86520994"}}, {"type": "node", "id": 7325281826, "lat": 43.7572561, "lon": 11.266362, "tags": {"addr:city": "Firenze", "amenity": "library", "name": "Biblioteca dell'Istituto universitario di scienze motorie", "short_name": "Biblioteca dell'IUSM", "wikidata": "Q86520989"}}, {"type": "node", "id": 7325281827, "lat": 43.7655852, "lon": 11.2135783, "tags": {"addr:city": "Firenze", "amenity": "library", "name": "Biblioteca dell'Istituto tecnico commerciale Galileo Galilei"}}, {"type": "node", "id": 7325281828, "lat": 43.7598259, "lon": 11.2461255, "tags": {"addr:city": "Firenze", "amenity": "library", "name": "Biblioteca dell'Istituto statale d'Arte di Porta Romana", "wikidata": "Q86520997"}}, {"type": "node", "id": 7325281830, "lat": 43.7685686, "lon": 11.2763685, "tags": {"addr:city": "Firenze", "amenity": "library", "name": "Biblioteca dell'Istituto salesiano Immacolata", "survey:date": "2024-06-01", "wikidata": "Q86119013"}}, {"type": "node", "id": 7325281831, "lat": 43.7680614, "lon": 11.26096, "tags": {"addr:city": "Firenze", "amenity": "library", "name": "Biblioteca dell'Istituto per l'arte e il restauro Palazzo Spinelli", "wikidata": "Q86520972"}}, {"type": "node", "id": 7325281832, "lat": 43.7905323, "lon": 11.249185, "tags": {"addr:city": "Firenze", "amenity": "library", "name": "Biblioteca dell'Istituto per il miglioramento genetico delle piante forestali del Consiglio Nazionale delle Ricerche", "short_name": "Biblioteca dell'IMGPF del CNR", "wikidata": "Q86520893"}}, {"type": "node", "id": 7325281833, "lat": 43.7715721, "lon": 11.2604282, "tags": {"addr:city": "Firenze", "amenity": "library", "name": "Biblioteca dell'Istituto papirologico G. Vitelli", "wikidata": "Q86520616"}}, {"type": "node", "id": 7325281834, "lat": 43.775758, "lon": 11.263536, "tags": {"addr:city": "Firenze", "amenity": "library", "name": "Biblioteca dell'Istituto nazionale di studi etruschi e italici", "wikidata": "Q86520689"}}, {"type": "node", "id": 7325281835, "lat": 43.7489562, "lon": 11.2518576, "tags": {"addr:city": "Firenze", "amenity": "library", "name": "Biblioteca dell'Istituto nazionale di ottica", "wikidata": "Q86521170"}}, {"type": "node", "id": 7325281836, "lat": 43.7773166, "lon": 11.2602185, "tags": {"addr:city": "Firenze", "amenity": "library", "name": "Biblioteca dell'Istituto geografico militare", "operator": "Istituto Geografico Militare", "operator:short": "IGMI", "operator:wikidata": "Q178954", "wikidata": "Q86520596"}}, {"type": "node", "id": 7325281837, "lat": 43.7918684, "lon": 11.2281327, "tags": {"addr:city": "Firenze", "amenity": "library", "name": "Biblioteca dell'Istituto di teoria e tecniche dell'informazione giuridica - ITTIG-CNR"}}, {"type": "node", "id": 7325281838, "lat": 43.7845694, "lon": 11.2544804, "tags": {"addr:city": "Firenze", "amenity": "library", "name": "Biblioteca dell'Istituto di studi politici Renato Branzi", "wikidata": "Q86521008"}}, {"type": "node", "id": 7325281839, "lat": 43.7770286, "lon": 11.260634, "tags": {"addr:city": "Firenze", "amenity": "library", "name": "Biblioteca dell'Istituto di studi per l'Alto Adige", "wikidata": "Q86521035"}}, {"type": "node", "id": 7325281840, "lat": 43.78589, "lon": 11.2147895, "tags": {"addr:city": "Firenze", "amenity": "library", "name": "Biblioteca dell'Istituto di scienze militari aeronautiche", "wikidata": "Q86520604"}}, {"type": "node", "id": 7325281841, "lat": 43.7885355, "lon": 11.2861272, "tags": {"addr:city": "Firenze", "amenity": "library", "name": "Biblioteca dell'Istituto di psicosintesi", "wikidata": "Q86520867"}}, {"type": "node", "id": 7325281842, "lat": 43.7806732, "lon": 11.2614197, "tags": {"addr:city": "Firenze", "amenity": "library", "name": "Biblioteca dell'Istituto di diritto agrario internazionale e comparato", "wikidata": "Q86520864"}}, {"type": "node", "id": 7325281843, "lat": 43.8043515, "lon": 11.2514643, "tags": {"addr:city": "Firenze", "amenity": "library", "name": "Biblioteca dell'Istituto avventista di cultura biblica", "wikidata": "Q86520909"}}, {"type": "node", "id": 7325281844, "lat": 43.7709312, "lon": 11.2274325, "tags": {"addr:city": "Firenze", "amenity": "library", "name": "Biblioteca dell'Istituto Superiore per le Industrie Artistiche ISIA"}}, {"type": "node", "id": 7325281845, "lat": 43.7852973, "lon": 11.2654079, "tags": {"addr:city": "Firenze", "amenity": "library", "name": "Biblioteca dell'Istituto Stensen", "wikidata": "Q86520871"}}, {"type": "node", "id": 7325281846, "lat": 43.749088, "lon": 11.247405, "tags": {"addr:city": "Firenze", "amenity": "library", "name": "Biblioteca dell'Istituto Statale della Santissima Annunziata", "wikidata": "Q86118956"}}, {"type": "node", "id": 7325281847, "lat": 43.7712321, "lon": 11.2520393, "tags": {"addr:city": "Firenze", "amenity": "library", "name": "Biblioteca dell'Istituto Nazionale di Studi sul Rinascimento", "wikidata": "Q86520934"}}, {"type": "node", "id": 7325281848, "lat": 43.7756456, "lon": 11.2633733, "tags": {"addr:city": "Firenze", "amenity": "library", "name": "Biblioteca dell'Istituto Italiano di Preistoria e Protostoria", "wikidata": "Q86520675"}}, {"type": "node", "id": 7325281849, "lat": 43.7634037, "lon": 11.2778486, "tags": {"addr:city": "Firenze", "amenity": "library", "name": "Biblioteca dell'Istituto Gramsci Toscano", "wikidata": "Q86520453"}}, {"type": "node", "id": 7325281850, "lat": 43.7908903, "lon": 11.2161574, "tags": {"addr:city": "Firenze", "amenity": "library", "name": "Biblioteca dell'Istituto Duchenne", "wikidata": "Q85846625"}}, {"type": "node", "id": 7325281851, "lat": 43.7725194, "lon": 11.2453757, "tags": {"addr:city": "Firenze", "amenity": "library", "name": "Biblioteca dell'Institut fran\u00e7ais Firenze", "wikidata": "Q86520602"}}, {"type": "node", "id": 7325281852, "lat": 43.768522, "lon": 11.2484789, "tags": {"addr:city": "Firenze", "amenity": "library", "name": "Biblioteca dell'ISTAT"}}, {"type": "node", "id": 7325281853, "lat": 43.7775634, "lon": 11.2512318, "tags": {"addr:city": "Firenze", "amenity": "library", "name": "Biblioteca dell'Educatorio del Fuligno IPAB", "wikidata": "Q86118975"}}, {"type": "node", "id": 7325281854, "lat": 43.7687581, "lon": 11.2597191, "tags": {"addr:city": "Firenze", "amenity": "library", "name": "Biblioteca dell'Auser volontariato Firenze", "wikidata": "Q86118937"}}, {"type": "node", "id": 7325281855, "lat": 43.770615, "lon": 11.264119, "tags": {"addr:city": "Firenze", "amenity": "library", "name": "Biblioteca dell'Associazione nazionale Sandro Pertini", "wikidata": "Q86520975"}}, {"type": "node", "id": 7325281856, "lat": 43.7787483, "lon": 11.248548, "tags": {"addr:city": "Firenze", "amenity": "library", "name": "Biblioteca dell'Associazione degli industriali della Provincia di Firenze", "wikidata": "Q86521159"}}, {"type": "node", "id": 7325281857, "lat": 43.7687995, "lon": 11.2689503, "tags": {"addr:city": "Firenze", "amenity": "library", "name": "Biblioteca dell'Associazione culturale Testimonianze"}}, {"type": "node", "id": 7325281858, "lat": 43.776606, "lon": 11.2496889, "tags": {"addr:city": "Firenze", "amenity": "library", "name": "Biblioteca dell'Associazione cattolica esercenti cinema", "wikidata": "Q86017236"}}, {"type": "node", "id": 7325281859, "lat": 43.7728082, "lon": 11.2592123, "tags": {"addr:city": "Firenze", "amenity": "library", "name": "Biblioteca dell'Associazione amici dei musei fiorentini", "wikidata": "Q86520946"}}, {"type": "node", "id": 7325281860, "lat": 43.7720195, "lon": 11.2605038, "tags": {"addr:city": "Firenze", "amenity": "library", "name": "Biblioteca dell'Associazione Trekking Italia", "wikidata": "Q85846664"}}, {"type": "node", "id": 7325281861, "lat": 43.7696583, "lon": 11.2646639, "tags": {"addr:city": "Firenze", "amenity": "library", "name": "Biblioteca dell'Associazione Robert F. Kennedy of Europe Onlus", "wikidata": "Q85846615"}}, {"type": "node", "id": 7325281862, "lat": 43.7673086, "lon": 11.2459749, "tags": {"addr:city": "Firenze", "amenity": "library", "name": "Biblioteca dell'Associazione Nazionale Partigiani Italiani - ANPI sezione Oltrarno FIrenze"}}, {"type": "node", "id": 7325281863, "lat": 43.7691817, "lon": 11.2680371, "tags": {"addr:city": "Firenze", "amenity": "library", "name": "Biblioteca dell'Associazione MUS.E", "wikidata": "Q85846656"}}, {"type": "node", "id": 7325281864, "lat": 43.767135, "lon": 11.2476133, "tags": {"addr:city": "Firenze", "amenity": "library", "name": "Biblioteca dell'Associazione Italia-Russia", "wikidata": "Q86520925"}}, {"type": "node", "id": 7325281865, "lat": 43.7555519, "lon": 11.2974275, "tags": {"addr:city": "Firenze", "amenity": "library", "name": "Biblioteca dell'Associazione Italia-Cuba", "wikidata": "Q86520459"}}, {"type": "node", "id": 7325281866, "lat": 43.7718608, "lon": 11.2384045, "tags": {"addr:city": "Firenze", "amenity": "library", "name": "Biblioteca dell'Associazione Galileo 1878", "wikidata": "Q86118921"}}, {"type": "node", "id": 7325281867, "lat": 43.7805221, "lon": 11.2388711, "tags": {"addr:city": "Firenze", "amenity": "library", "name": "Biblioteca dell'Associazione Esperantista Fiorentina", "wikidata": "Q85835005"}}, {"type": "node", "id": 7325281868, "lat": 43.772903, "lon": 11.2483083, "tags": {"addr:city": "Firenze", "amenity": "library", "name": "Biblioteca dell'Associazione Culturale Italo - Ungherese della Toscana", "wikidata": "Q85835004"}}, {"type": "node", "id": 7325281869, "lat": 43.7851108, "lon": 11.2638357, "tags": {"addr:city": "Firenze", "amenity": "library", "name": "Biblioteca dell'Associazione Ancoraggio", "wikidata": "Q86118891"}}, {"type": "node", "id": 7325281870, "lat": 43.7691417, "lon": 11.2703879, "tags": {"addr:city": "Firenze", "amenity": "library", "name": "Biblioteca dell'Archivio di Stato di Firenze", "wikidata": "Q86520961"}}, {"type": "node", "id": 7325281871, "lat": 43.7660474, "lon": 11.2484052, "tags": {"addr:city": "Firenze", "amenity": "library", "name": "Biblioteca dell'Archivio contemporaneo Alessandro Bonsanti", "wikidata": "Q86521021"}}, {"type": "node", "id": 7325281872, "lat": 43.7724788, "lon": 11.2597236, "tags": {"addr:city": "Firenze", "amenity": "library", "name": "Biblioteca dell'Archivio Storico del Comune di Firenze", "wikidata": "Q85846642"}}, {"type": "node", "id": 7325281873, "lat": 43.8030948, "lon": 11.2682646, "tags": {"addr:city": "Firenze", "amenity": "library", "name": "Biblioteca dell'Archivio Storico Giunti", "wikidata": "Q86520484"}}, {"type": "node", "id": 7325281874, "lat": 43.7855017, "lon": 11.2832699, "tags": {"addr:city": "Firenze", "amenity": "library", "name": "Biblioteca dell'Agenzia Italiana per la Cooperazione allo Sviluppo", "wikidata": "Q86520487"}}, {"type": "node", "id": 7325281876, "lat": 43.7749661, "lon": 11.2572537, "tags": {"addr:city": "Firenze", "amenity": "library", "name": "Biblioteca dell'Accademia italiana di stenografia e dattilografia G. Aliprandi", "wikidata": "Q86520632"}}, {"type": "node", "id": 7325281877, "lat": 43.786993, "lon": 11.2838893, "tags": {"addr:city": "Firenze", "amenity": "library", "name": "Biblioteca dell'Accademia italiana di scienze forestali", "wikidata": "Q86520876"}}, {"type": "node", "id": 7325281878, "lat": 43.7772423, "lon": 11.2590586, "tags": {"addr:city": "Firenze", "amenity": "library", "name": "Biblioteca dell'Accademia di belle Arti", "wikidata": "Q86521016"}}, {"type": "node", "id": 7325281879, "lat": 43.7707623, "lon": 11.2545764, "tags": {"addr:city": "Firenze", "amenity": "library", "name": "Biblioteca dell'Accademia delle Arti del Disegno", "wikidata": "Q86521002"}}, {"type": "node", "id": 7325281880, "lat": 43.7674949, "lon": 11.246044, "tags": {"addr:city": "Firenze", "amenity": "library", "name": "Biblioteca dell'ASFeR Centro Internazionale di Studi sul Religioso Contemporaneo", "wikidata": "Q86118934"}}, {"type": "node", "id": 7325281881, "lat": 43.781223, "lon": 11.2603718, "tags": {"addr:city": "Firenze", "amenity": "library", "name": "Biblioteca del WWF Toscana"}}, {"type": "node", "id": 7325281882, "lat": 43.7825461, "lon": 11.2546102, "tags": {"addr:city": "Firenze", "amenity": "library", "name": "Biblioteca del Servizio materiale e trazione delle FFSS", "wikidata": "Q86520659"}}, {"type": "node", "id": 7325281883, "lat": 43.7699942, "lon": 11.2451736, "tags": {"addr:city": "Firenze", "amenity": "library", "name": "Biblioteca del Seminario Arcivescovile Maggiore", "wikidata": "Q86520955"}}, {"type": "node", "id": 7325281884, "lat": 43.7768044, "lon": 11.2644417, "tags": {"addr:city": "Firenze", "amenity": "library", "name": "Biblioteca del Polo tecnico Firenze online", "wikidata": "Q85846655"}}, {"type": "node", "id": 7325281885, "lat": 43.7771002, "lon": 11.2573613, "tags": {"addr:city": "Firenze", "amenity": "library", "name": "Biblioteca del Punto informazione consulenza orientamento", "short_name": "Biblioteca del PICO", "wikidata": "Q86520540"}}, {"type": "node", "id": 7325281886, "lat": 43.803171, "lon": 11.22956, "tags": {"addr:city": "Firenze", "amenity": "library", "name": "Biblioteca del Nuovo Pignone", "wikidata": "Q86520906"}}, {"type": "node", "id": 7325281887, "lat": 43.7686425, "lon": 11.2422734, "tags": {"addr:city": "Firenze", "amenity": "library", "name": "Biblioteca del Museo di simbologia massonica", "wikidata": "Q86118960"}}, {"type": "node", "id": 7325281888, "lat": 43.7701306, "lon": 11.252843, "tags": {"addr:city": "Firenze", "amenity": "library", "name": "Biblioteca del Museo di Palazzo Davanzati", "wikidata": "Q86520642"}}, {"type": "node", "id": 7325281889, "lat": 43.7929744, "lon": 11.2550754, "tags": {"addr:city": "Firenze", "amenity": "library", "name": "Biblioteca del Museo Stibbert", "wikidata": "Q86520886"}}, {"type": "node", "id": 7325281890, "lat": 43.7705138, "lon": 11.258065, "tags": {"addr:city": "Firenze", "amenity": "library", "name": "Biblioteca del Museo Nazionale del Bargello", "wikidata": "Q86520645"}}, {"type": "node", "id": 7325281891, "lat": 43.767721, "lon": 11.2559317, "tags": {"addr:city": "Firenze", "amenity": "library", "name": "Biblioteca del Museo Galileo", "opening_hours": "Mo-Fr 09:30-17:30; Sa 09:30-13:00", "wikidata": "Q86520610"}}, {"type": "node", "id": 7325281892, "lat": 43.7670801, "lon": 11.2477318, "tags": {"addr:city": "Firenze", "amenity": "library", "name": "Biblioteca del Movimento Federalista Europeo", "wikidata": "Q86118942"}}, {"type": "node", "id": 7325281893, "lat": 43.783959, "lon": 11.3195599, "tags": {"addr:city": "Firenze", "amenity": "library", "name": "Biblioteca del Monastero olivetano dei Santi Giuseppe e Benedetto"}}, {"type": "node", "id": 7325281894, "lat": 43.789082, "lon": 11.2344352, "tags": {"addr:city": "Firenze", "amenity": "library", "name": "Biblioteca del Liceo scientifico statale Leonardo da Vinci", "wikidata": "Q86520918"}}, {"type": "node", "id": 7325281895, "lat": 43.7747765, "lon": 11.2654842, "tags": {"addr:city": "Firenze", "amenity": "library", "name": "Biblioteca del Liceo Scientifico Castelnuovo - succursale", "wikidata": "Q85834975"}}, {"type": "node", "id": 7325281896, "lat": 43.7805162, "lon": 11.2616059, "tags": {"addr:city": "Firenze", "amenity": "library", "name": "Biblioteca del Liceo Scientifico Castelnuovo - sede principale"}}, {"type": "node", "id": 7325281897, "lat": 43.7755229, "lon": 11.2633252, "tags": {"addr:city": "Firenze", "amenity": "library", "name": "Biblioteca del Liceo Michelangelo", "wikidata": "Q85846653"}}, {"type": "node", "id": 7325281898, "lat": 43.7855174, "lon": 11.2555134, "tags": {"addr:city": "Firenze", "addr:housenumber": "55", "addr:postcode": "50129", "addr:street": "Via Francesco Puccinotti", "amenity": "library", "name": "Biblioteca dell'Istituto di Istruzione Superiore Alberti - Dante"}}, {"type": "node", "id": 7325281899, "lat": 43.7802551, "lon": 11.2588632, "tags": {"addr:city": "Firenze", "amenity": "library", "name": "Biblioteca dell'Istituto di Istruzione Superiore Alberti - Dante"}}, {"type": "node", "id": 7325281900, "lat": 43.7577815, "lon": 11.3042873, "tags": {"amenity": "library", "name": "Biblioteca del Gruppo ricerche scientifiche e tecniche subacquee", "short_name": "Biblioteca del GRSTS", "wikidata": "Q86520461"}}, {"type": "node", "id": 7325281901, "lat": 43.7835725, "lon": 11.3227366, "tags": {"addr:city": "Firenze", "amenity": "library", "name": "Biblioteca del Gruppo micologico fiorentino P.A. Micheli", "wikidata": "Q86520456"}}, {"type": "node", "id": 7325281902, "lat": 43.7390005, "lon": 11.2241261, "tags": {"addr:city": "Firenze", "amenity": "library", "name": "Biblioteca del Galluzzo", "wikidata": "Q86520681"}}, {"type": "node", "id": 7325281903, "lat": 43.7688659, "lon": 11.256376, "tags": {"addr:city": "Firenze", "amenity": "library", "name": "Biblioteca del Gabinetto dei disegni e delle stampe della Galleria degli Uffizi", "wikidata": "Q86520639"}}, {"type": "node", "id": 7325281904, "lat": 43.7711644, "lon": 11.2520428, "tags": {"addr:city": "Firenze", "amenity": "library", "name": "Biblioteca del Gabinetto Scientifico Letterario G. P. Vieusseux", "wikidata": "Q86520932"}}, {"type": "node", "id": 7325281905, "lat": 43.7633763, "lon": 11.2779706, "tags": {"addr:city": "Firenze", "amenity": "library", "name": "Biblioteca del Forum per i problemi della pace e della guerra", "wikidata": "Q86520439"}}, {"type": "node", "id": 7325281906, "lat": 43.7732116, "lon": 11.2532203, "tags": {"addr:city": "Firenze", "amenity": "library", "name": "Biblioteca del Festival dei Popoli", "wikidata": "Q86118953"}}, {"type": "node", "id": 7325281907, "lat": 43.7709286, "lon": 11.2532042, "tags": {"addr:city": "Firenze", "amenity": "library", "name": "Biblioteca del Dopolavoro dei postelegrafonici", "wikidata": "Q86521005"}}, {"type": "node", "id": 7325281908, "lat": 43.7611596, "lon": 11.2655648, "tags": {"addr:city": "Firenze", "amenity": "library", "name": "Biblioteca del Convento di San Salvatore", "wikidata": "Q85834972"}}, {"type": "node", "id": 7325281909, "lat": 43.7724563, "lon": 11.2474836, "tags": {"addr:city": "Firenze", "amenity": "library", "name": "Biblioteca del Convento di San Paolino dei Carmelitani Scalzi", "wikidata": "Q86521012"}}, {"type": "node", "id": 7325281910, "lat": 43.7671114, "lon": 11.2476691, "tags": {"addr:city": "Firenze", "amenity": "library", "name": "Biblioteca del Convento di Santo Spirito", "wikidata": "Q86521041"}}, {"type": "node", "id": 7325281912, "lat": 43.7681627, "lon": 11.2437271, "tags": {"addr:city": "Firenze", "amenity": "library", "name": "Biblioteca del Convento del Carmine", "wikidata": "Q86521030"}}, {"type": "node", "id": 7325281913, "lat": 43.7764216, "lon": 11.2585435, "tags": {"addr:city": "Firenze", "amenity": "library", "name": "Biblioteca del Conservatorio di musica Luigi Cherubini", "wikidata": "Q86520927"}}, {"type": "node", "id": 7325281914, "lat": 43.7558778, "lon": 11.2959923, "tags": {"addr:city": "Firenze", "amenity": "library", "name": "Biblioteca del Comitato regionale toscano del CONI", "wikidata": "Q86520890"}}, {"type": "node", "id": 7325281915, "lat": 43.7461649, "lon": 11.254303, "tags": {"addr:city": "Firenze", "amenity": "library", "name": "Biblioteca del Collegio teologico dei Carmelitani Scalzi", "wikidata": "Q86520999"}}, {"type": "node", "id": 7325281916, "lat": 43.774274, "lon": 11.2576727, "tags": {"addr:city": "Firenze", "amenity": "library", "name": "Biblioteca del Centro toscano per la storia dello scautismo", "wikidata": "Q85846658"}}, {"type": "node", "id": 7325281917, "lat": 43.7797788, "lon": 11.3025966, "tags": {"addr:city": "Firenze", "amenity": "library", "name": "Biblioteca"}}, {"type": "node", "id": 7325281918, "lat": 43.7702644, "lon": 11.2852532, "tags": {"addr:city": "Firenze", "amenity": "library", "name": "Biblioteca del Centro studi ricerca e documentazione dipendenze e aids Cesda", "wikidata": "Q86520426"}}, {"type": "node", "id": 7325281919, "lat": 43.7568996, "lon": 11.2697812, "tags": {"addr:city": "Firenze", "amenity": "library", "name": "Biblioteca del Centro studi e documentazione Assi Giglio Rosso", "wikidata": "Q86520807"}}, {"type": "node", "id": 7325281920, "lat": 43.7714818, "lon": 11.2644117, "tags": {"addr:city": "Firenze", "amenity": "library", "name": "Biblioteca del Centro regionale di documentazione agricola dell'ARSIA", "wikidata": "Q86520577"}}, {"type": "node", "id": 7325281921, "lat": 43.7724264, "lon": 11.2521287, "tags": {"addr:city": "Firenze", "amenity": "library", "name": "Biblioteca del Centro internazionale studenti Giorgio La Pira"}}, {"type": "node", "id": 7325281922, "lat": 43.7634197, "lon": 11.2779688, "tags": {"addr:city": "Firenze", "amenity": "library", "name": "Biblioteca del Centro fiorentino di storia e filosofia della scienza", "wikidata": "Q86520436"}}, {"type": "node", "id": 7325281923, "lat": 43.7751922, "lon": 11.2671219, "tags": {"addr:city": "Firenze", "amenity": "library", "name": "Biblioteca del Centro di ricerca per l'agrobiologia e la pedologia (CRA-ABP)", "wikidata": "Q86520969"}}, {"type": "node", "id": 7325281924, "lat": 43.7704813, "lon": 11.2909455, "tags": {"addr:city": "Firenze", "amenity": "library", "name": "Biblioteca del Centro di esercitazioni ai metodi per l'educazione attiva"}}, {"type": "node", "id": 7325281925, "lat": 43.7688302, "lon": 11.2564502, "tags": {"addr:city": "Firenze", "amenity": "library", "name": "Biblioteca del Centro di documentazione della sezione didattica degli Uffizi", "wikidata": "Q86520952"}}, {"type": "node", "id": 7325281926, "lat": 43.7312052, "lon": 11.220803, "tags": {"addr:city": "Firenze", "amenity": "library", "name": "Biblioteca del Centro di documentazione dei monaci cistercensi", "wikidata": "Q86520700"}}, {"type": "node", "id": 7325281927, "lat": 43.7744707, "lon": 11.2997155, "tags": {"addr:city": "Firenze", "amenity": "library", "name": "Biblioteca del Centro di azione e documentazione sull'America latina"}}, {"type": "node", "id": 7325281928, "lat": 43.7791291, "lon": 11.2493762, "tags": {"addr:city": "Firenze", "amenity": "library", "name": "Biblioteca del Centro congressi"}}, {"type": "node", "id": 7325281929, "lat": 43.7634465, "lon": 11.2778513, "tags": {"addr:city": "Firenze", "amenity": "library", "name": "Biblioteca del Centro UNESCO Firenze", "wikidata": "Q86520434"}}, {"type": "node", "id": 7325281930, "lat": 43.7694089, "lon": 11.2669907, "tags": {"addr:city": "Firenze", "amenity": "library", "name": "Biblioteca del Centro Ideazione Donna Il Giardino dei Ciliegi", "wikidata": "Q85846674"}}, {"type": "node", "id": 7325281931, "lat": 43.7725449, "lon": 11.2563966, "tags": {"addr:city": "Firenze", "amenity": "library", "name": "Biblioteca del Capitolo metropolitano fiorentino", "wikidata": "Q86118977"}}, {"type": "node", "id": 7325281932, "lat": 43.7734592, "lon": 11.229978, "tags": {"amenity": "library", "name": "Biblioteca del Centro di documentazione internazionale parchi", "short_name": "Biblioteca del CEDIP", "wikidata": "Q86520916"}}, {"type": "node", "id": 7325281933, "lat": 43.7688127, "lon": 11.256585, "tags": {"addr:city": "Firenze", "amenity": "library", "name": "Biblioteca degli Uffizi", "wikidata": "Q28466101", "wikipedia": "it:Biblioteca degli Uffizi"}}, {"type": "node", "id": 7325281934, "lat": 43.7669265, "lon": 11.2636751, "tags": {"addr:city": "Firenze", "amenity": "library", "name": "Biblioteca comunale dei ragazzi Santa Croce", "wikidata": "Q86520625"}}, {"type": "node", "id": 7325281935, "lat": 43.784903, "lon": 11.285702, "tags": {"addr:city": "Firenze", "amenity": "library", "name": "Biblioteca comunale Dino Pieraccioni", "wikidata": "Q86520612"}}, {"type": "node", "id": 7325281936, "lat": 43.7660409, "lon": 11.2786157, "tags": {"addr:city": "Firenze", "amenity": "library", "name": "Biblioteca compartimentale dell'Ente Nazionale per l'Energia Elettrica", "wikidata": "Q86521136"}}, {"type": "node", "id": 7325281937, "lat": 43.7847235, "lon": 11.2594973, "tags": {"addr:city": "Firenze", "amenity": "library", "name": "Biblioteca Unioncamere Toscana", "wikidata": "Q86520497"}}, {"type": "node", "id": 7325281938, "lat": 43.7773926, "lon": 11.2572753, "tags": {"addr:city": "Firenze", "amenity": "library", "name": "Biblioteca Umanistica dell'Universit\u00e0 degli studi di Firenze - Sede di Storia e letteratura nordamericana"}}, {"type": "node", "id": 7325281939, "lat": 43.7761532, "lon": 11.2630543, "tags": {"addr:city": "Firenze", "addr:housenumber": "48", "addr:postcode": "50121", "addr:street": "Via Laura", "amenity": "library", "name": "Biblioteca Umanistica dell'Universit\u00e0 degli Studi di Firenze - Sede di Scienze della formazione"}}, {"type": "node", "id": 7325281940, "lat": 43.7704532, "lon": 11.2911541, "tags": {"addr:city": "Firenze", "amenity": "library", "name": "Biblioteca Umanistica dell'Universit\u00e0 degli studi di Firenze - Sede di Psicologia", "wikidata": "Q86520585"}}, {"type": "node", "id": 7325281941, "lat": 43.7748244, "lon": 11.2606856, "tags": {"addr:city": "Firenze", "addr:housenumber": "4", "addr:postcode": "50121", "addr:street": "Piazza Filippo Brunelleschi", "amenity": "library", "internet_access": "wlan", "name": "Biblioteca Umanistica dell'Universit\u00e0 degli studi di Firenze - Sede di Lettere", "opening_hours": "Mo-Fr 08:30-23:30; Sa 08:30-19:00; Jul 27-Aug 31 Mo,We,Fr 08:30-13:30; Jul 27-Aug 31 Tu,Th 08:30-17:00; Aug 8-Aug 20 off", "phone": "+39 055 2757811", "website": "https://www.sba.unifi.it/p59.html#bib5", "wikidata": "Q86520554"}}, {"type": "node", "id": 7325281942, "lat": 43.7775381, "lon": 11.2567909, "tags": {"addr:city": "Firenze", "amenity": "library", "name": "Biblioteca Umanistica dell'Universit\u00e0 degli studi di Firenze - Sede di Geografia", "wikidata": "Q86520552"}}, {"type": "node", "id": 7325281943, "lat": 43.7906942, "lon": 11.2616716, "tags": {"addr:city": "Firenze", "amenity": "library", "name": "Biblioteca Umanistica dell'Universit\u00e0 degli studi di Firenze - Sede di Filosofia", "wikidata": "Q86520571"}}, {"type": "node", "id": 7325281944, "lat": 43.7669824, "lon": 11.2476211, "tags": {"addr:city": "Firenze", "amenity": "library", "name": "Biblioteca Storico Araldica Genealogica Guelfi Camajani", "wikidata": "Q86521027"}}, {"type": "node", "id": 7325281945, "lat": 43.7816027, "lon": 11.2612872, "tags": {"addr:city": "Firenze", "amenity": "library", "name": "Biblioteca Scuole pie fiorentine", "wikidata": "Q86520872"}}, {"type": "node", "id": 7325281946, "lat": 43.7748346, "lon": 11.2606149, "tags": {"addr:city": "Firenze", "amenity": "library", "name": "Biblioteca Luigi Crocetti di biblioteconomia, archivistica e scienze della documentazione", "wikidata": "Q22812383"}}, {"type": "node", "id": 7325281947, "lat": 43.776221, "lon": 11.2609929, "tags": {"addr:city": "Firenze", "amenity": "library", "name": "Biblioteca Innocenti Library Alfredo Carlo Moro", "wikidata": "Q86520706"}}, {"type": "node", "id": 7325281948, "lat": 43.772995, "lon": 11.2943873, "tags": {"addr:city": "Firenze", "amenity": "library", "name": "Biblioteca Igino Cocchi del Club alpino italiano", "wikidata": "Q86520466"}}, {"type": "node", "id": 7325281949, "lat": 43.7960706, "lon": 11.2376817, "tags": {"addr:city": "Firenze", "amenity": "library", "name": "Biblioteca ITI Leonardo da Vinci", "wikidata": "Q86521193"}}, {"type": "node", "id": 7325281950, "lat": 43.7690301, "lon": 11.248326, "tags": {"addr:city": "Firenze", "amenity": "library", "name": "Biblioteca Harold Acton - British Institute of Florence", "wikidata": "Q86520297"}}, {"type": "node", "id": 7325281951, "lat": 43.763398, "lon": 11.2779688, "tags": {"addr:city": "Firenze", "amenity": "library", "name": "Biblioteca Gianni Rigacci - Archivio Il Sessantotto", "wikidata": "Q86520814"}}, {"type": "node", "id": 7325281952, "lat": 43.8135536, "lon": 11.242832, "tags": {"addr:city": "Firenze", "amenity": "library", "name": "Biblioteca Giacomo Becattini - IRPET"}}, {"type": "node", "id": 7325281953, "lat": 43.7751722, "lon": 11.2486709, "tags": {"addr:city": "Firenze", "amenity": "library", "name": "Biblioteca Domenicana di Santa Maria Novella Jacopo Passavanti", "wikidata": "Q86520943"}}, {"type": "node", "id": 7325281954, "lat": 43.77435, "lon": 11.2558468, "tags": {"addr:city": "Firenze", "amenity": "library", "name": "Biblioteca Cesvot Centro servizi volontariato Toscana", "wikidata": "Q86118944"}}, {"type": "node", "id": 7325281955, "lat": 43.769895, "lon": 11.2635911, "tags": {"addr:city": "Firenze", "amenity": "library", "name": "Biblioteca Casa Buonarroti", "wikidata": "Q86520985"}}, {"type": "node", "id": 7325281958, "lat": 43.7751297, "lon": 11.2908127, "tags": {"addr:city": "Firenze", "amenity": "library", "name": "Biblioteca BIBLIA dell'Associazione laica di cultura biblica", "wikidata": "Q86520354"}}, {"type": "node", "id": 7325281959, "lat": 43.7775086, "lon": 11.2695848, "tags": {"addr:city": "Firenze", "amenity": "library", "name": "Biblioteca Amici della Terra - Toscana", "wikidata": "Q86118893"}}, {"type": "node", "id": 7325281960, "lat": 43.7823427, "lon": 11.2336678, "tags": {"addr:city": "Firenze", "amenity": "library", "name": "Biblioteca Agenzia regionale per la protezione ambientale della Toscana", "short_name": "Biblioteca ARPAT", "wikidata": "Q86520533"}}, {"type": "node", "id": 7325281962, "lat": 43.781269, "lon": 11.2001121, "tags": {"addr:city": "Firenze", "amenity": "library", "name": "Associazione fiorentina battaglie in scala", "short_name": "AFBIS", "wikidata": "Q85834995"}}, {"type": "node", "id": 7917873516, "lat": 43.7813436, "lon": 11.2913737, "tags": {"amenity": "library", "name": "Il Menab\u00f2"}}, {"type": "node", "id": 8415084231, "lat": 43.779193, "lon": 11.215309, "tags": {"amenity": "library", "name": "Punto Lettura \u201cLuciano Gori\u201d"}}, {"type": "node", "id": 8931185320, "lat": 43.7984402, "lon": 11.2161387, "tags": {"amenity": "library", "name": "Biblioteca Comunale Filippo Buonarroti", "website": "https://cultura.comune.fi.it/pagina/le-biblioteche-comunali-fiorentine/biblioteca-filippo-buonarroti", "wikidata": "Q86520899"}}, {"type": "node", "id": 10974946248, "lat": 43.7713882, "lon": 11.2518923, "tags": {"amenity": "library", "name": "Gabinetto Scientifico Letterario G.P. Vieusseux", "website": "https://www.vieusseux.it/"}}, {"type": "node", "id": 11152998932, "lat": 43.7923867, "lon": 11.2302527, "tags": {"entrance": "main"}}, {"type": "node", "id": 11412776864, "lat": 43.7921836, "lon": 11.2301357}, {"type": "node", "id": 11650621033, "lat": 43.8029731, "lon": 11.2449332}, {"type": "node", "id": 11650621034, "lat": 43.8029061, "lon": 11.2447271}, {"type": "node", "id": 11650621035, "lat": 43.8028871, "lon": 11.2448998, "tags": {"entrance": "main"}}, {"type": "node", "id": 11650621045, "lat": 43.8029037, "lon": 11.2449063}, {"type": "node", "id": 11650621048, "lat": 43.8028723, "lon": 11.244894}, {"type": "way", "id": 73028002, "nodes": [866697220, 866697209, 5222141508, 5222141490, 866697226, 5222141511, 5222141502, 5222141494, 5222141513, 866697216, 5222141499, 5222141491, 5222141509, 5222141498, 866697211, 866697221, 5222141504, 5222141496, 5222141488, 5222141506, 866697218, 866697225, 6171640657, 6171640649, 866697220], "tags": {"access": "yes", "amenity": "library", "building": "yes", "name": "Archivio di Stato di Firenze", "website": "https://archiviodistatofirenze.cultura.gov.it/asfi/home", "wikidata": "Q3621652", "wikipedia": "it:Archivio di Stato di Firenze"}}, {"type": "way", "id": 82646719, "nodes": [942246790, 4796237984, 11152998932, 961868950, 961868951, 961868953, 968519085, 11412776864, 942246791, 942246790], "tags": {"amenity": "library", "building": "yes", "internet_access": "yes", "name": "Biblioteca di Scienze sociali dell'Universit\u00e0 degli studi di Firenze", "opening_hours": "Mo-Fr 08:30-23:30; Sa 08:30-19:00", "ref:isil": "IT-FI0597", "toilets:wheelchair": "yes", "wheelchair": "yes", "wikidata": "Q86520546"}}, {"type": "way", "id": 83512491, "nodes": [972446956, 972446470, 972446896, 972446339, 972446956], "tags": {"amenity": "library", "building": "yes", "name": "Biblioteca Biomedica", "ref:AOUC": "5", "wheelchair": "yes", "wikidata": "Q21192708", "wikipedia": "it:Biblioteca biomedica (Universit\u00e0 degli Studi di Firenze)"}}, {"type": "way", "id": 102979687, "nodes": [1189195960, 1189196046, 4406032405, 4406032390, 1189196014, 1189195913, 1305158805, 1305159042, 1305160477, 1189196081, 1189195877, 1189196115, 1305159291, 5600712422, 1305158349, 1189195882, 5600711617, 1305158168, 1305160334, 1189195987, 1305159980, 1189195938, 1189195965, 1305837498, 1189195875, 1189196012, 1305837319, 4406032386, 4406032316, 4406032379, 4406032376, 4406032446, 4406031975, 1305837451, 4406032544, 4406032385, 4406032342, 1189195960], "tags": {"addr:city": "Firenze", "addr:housenumber": "1", "addr:postcode": "50122", "addr:street": "Piazza dei Cavalleggeri", "amenity": "library", "building": "yes", "name": "Biblioteca Nazionale Centrale di Firenze", "wikidata": "Q460907", "wikipedia": "it:Biblioteca Nazionale Centrale di Firenze"}}, {"type": "way", "id": 134663645, "nodes": [1480249446, 1480249448, 3774727630, 1480249442, 4674218082, 4674218176, 1480249450, 1480249446], "tags": {"amenity": "library", "building": "yes", "name": "Biblioteca Villa Bandini", "opening_hours": "Tu-Fr 09:00-19:00; Mo 14:00-19:00; Sa 10:00-19:00,09:00-13:00", "wikidata": "Q86520448"}}, {"type": "way", "id": 179792589, "nodes": [1902294299, 1902294300, 5667782497, 1902294303, 1902294301, 5667782496, 5667782495, 1902294295, 1902294296, 1902294292, 1902294290, 1902294289, 7255515693, 1902294286, 1902294287, 1902294288, 5667782499, 5667782498, 1902294291, 1902294293, 1902294294, 1902294297, 1902294298, 1902294299], "tags": {"addr:city": "Firenze", "addr:housenumber": "4/3A", "addr:street": "Via Chiusi", "amenity": "library", "building": "yes", "name": "BiblioteCaNova Isolotto", "opening_hours": "Tu-Fr 09:00-19:00; Mo 14:00-19:00; Sa 09:00-13:00", "operator": "Comune di Firenze", "wikidata": "Q86520795"}}, {"type": "way", "id": 1253418328, "nodes": [559262505, 11650621033, 11650621045, 11650621035, 7325280156, 11650621048, 11650621034, 559262505], "tags": {"addr:housenumber": "67a", "addr:street": "Viale Giovan Battista Morgagni", "air_conditioning": "yes", "amenity": "library", "check_date": "2024-04-17", "internet_access": "wlan", "level": "0", "name": "Biblioteca di Scienze dell'Universit\u00e0 degli studi di Firenze - Sede di Matematica", "opening_hours": "Mo-Fr 08:30-18:00", "operator:type": "university", "website": "https://www.sba.unifi.it/p346.html", "wheelchair": "yes", "wikidata": "Q86520591"}}]}