{"version": 0.6, "generator": "Overpass API 0.7.62.1 084b4234", "osm3s": {"timestamp_osm_base": "2024-11-06T19:40:27Z", "copyright": "The data included in this document is from www.openstreetmap.org. The data is made available under ODbL."}, "elements": [{"type": "node", "id": 7238911711, "lat": 41.5884485, "lon": 9.2866871, "tags": {"amenity": "charging_station", "bicycle": "yes", "fee": "no", "motorcar": "no", "name": "Bosch eBike Power Station", "operator": "H\u00f4tel Costa Salina"}}, {"type": "node", "id": 7921020499, "lat": 41.629397, "lon": 9.3355861, "tags": {"access": "private", "amenity": "charging_station", "manufacturer": "SCHNEIDER", "model": "EVlink Smart Wallbox", "socket:type2": "1", "socket:typee": "1", "source": "survey 2020;mapillary"}}, {"type": "node", "id": 9082788939, "lat": 41.4925338, "lon": 9.0558627, "tags": {"amenity": "charging_station"}}, {"type": "node", "id": 9462966489, "lat": 41.6958374, "lon": 9.0665972, "tags": {"access": "yes", "amenity": "charging_station", "fee": "yes", "motorcar": "yes", "payment:credit_cards": "yes", "socket:type2": "2"}}, {"type": "node", "id": 9544289324, "lat": 41.6787212, "lon": 9.1468185, "tags": {"access": "yes", "amenity": "charging_station", "capacity": "2", "fee": "yes", "payment:credit_cards": "yes"}}, {"type": "node", "id": 9713349603, "lat": 41.6063558, "lon": 9.2778445, "tags": {"amenity": "charging_station"}}, {"type": "node", "id": 9713349604, "lat": 41.6062976, "lon": 9.2778306, "tags": {"amenity": "charging_station"}}, {"type": "node", "id": 9713349605, "lat": 41.6062477, "lon": 9.2778176, "tags": {"amenity": "charging_station"}}, {"type": "node", "id": 9713349606, "lat": 41.6062022, "lon": 9.2778057, "tags": {"amenity": "charging_station"}}, {"type": "node", "id": 9713349607, "lat": 41.606159, "lon": 9.2777947, "tags": {"amenity": "charging_station"}}, {"type": "node", "id": 9760379494, "lat": 41.721226, "lon": 9.1482222, "tags": {"amenity": "charging_station", "fee": "yes"}}, {"type": "node", "id": 9927814677, "lat": 41.5994856, "lon": 9.2758546, "tags": {"amenity": "charging_station", "capacity": "2", "covered": "no", "fee": "yes", "name": "Driveco Charging Station"}}, {"type": "node", "id": 9954244471, "lat": 41.6727331, "lon": 8.9181289, "tags": {"amenity": "charging_station", "capacity": "2", "operator": "e-motum"}}, {"type": "node", "id": 9956921317, "lat": 41.4891182, "lon": 9.0591713, "tags": {"amenity": "charging_station", "capacity": "2", "opening_hours": "24/7", "operator": "green'up"}}, {"type": "node", "id": 11109169783, "lat": 41.680914, "lon": 8.915746, "tags": {"amenity": "charging_station", "authentication:none": "true", "email": "contact@e-motum.net", "fee": "no", "network": "e-motum", "opening_hours": "24/7", "operator": "sas e-motum", "owner:ref:FR:SIREN": "752982645", "phone": "04 95 30 05 25", "ref": "0a90b56a-3e1d-4a3f-831c-6353d15216ba", "reservation": "no", "socket:type2": "yes", "socket:type2_cable": "no", "start_date": "2022-04-27"}}, {"type": "node", "id": 11109169784, "lat": 41.688053, "lon": 8.930927, "tags": {"amenity": "charging_station", "authentication:none": "true", "email": "contact@e-motum.net", "fee": "no", "network": "e-motum", "opening_hours": "24/7", "operator": "sas e-motum", "owner:ref:FR:SIREN": "752982645", "phone": "04 95 30 05 25", "ref": "b330af16-a9fa-4a3d-b184-904c8fdc1836", "reservation": "no", "socket:type2": "yes", "socket:type2_cable": "no", "start_date": "2021-08-06"}}, {"type": "node", "id": 11109169785, "lat": 41.697897, "lon": 8.896435, "tags": {"amenity": "charging_station", "authentication:none": "true", "email": "contact@e-motum.net", "fee": "no", "network": "e-motum", "opening_hours": "24/7", "operator": "sas e-motum", "owner:ref:FR:SIREN": "752982645", "phone": "04 95 30 05 25", "ref": "0ca6e4b9-08cf-401a-b72a-ed8886381958", "reservation": "no", "socket:type2": "yes", "socket:type2_cable": "no", "start_date": "2021-06-10"}}, {"type": "node", "id": 11109169788, "lat": 41.698015, "lon": 8.896456, "tags": {"amenity": "charging_station", "authentication:none": "true", "email": "contact@e-motum.net", "fee": "no", "network": "e-motum", "opening_hours": "24/7", "operator": "sas e-motum", "owner:ref:FR:SIREN": "752982645", "phone": "04 95 30 05 25", "ref": "4f60a739-4046-41a2-a48f-495ffad74fcb", "reservation": "no", "socket:type2": "yes", "socket:type2_cable": "no", "start_date": "2021-06-10"}}, {"type": "node", "id": 11109169795, "lat": 41.621461, "lon": 8.964013, "tags": {"amenity": "charging_station", "authentication:none": "true", "email": "contact@e-motum.net", "fee": "no", "network": "e-motum", "opening_hours": "24/7", "operator": "sas e-motum", "owner:ref:FR:SIREN": "752982645", "phone": "04 95 30 05 25", "ref": "53a75289-2870-423c-ac4f-df14dbbbcaa7", "reservation": "no", "socket:type2": "yes", "socket:type2_cable": "no", "start_date": "2021-11-25"}}, {"type": "node", "id": 11109169800, "lat": 41.620129, "lon": 9.300442, "tags": {"amenity": "charging_station", "authentication:none": "true", "email": "contact@e-motum.net", "fee": "no", "network": "e-motum", "opening_hours": "24/7", "operator": "sas e-motum", "owner:ref:FR:SIREN": "752982645", "phone": "04 95 30 05 25", "ref": "87513969-02bc-4cb6-8a8d-1e228ff293c7", "reservation": "no", "socket:type2": "yes", "socket:type2_cable": "no", "start_date": "2021-07-13"}}, {"type": "node", "id": 11109169802, "lat": 41.6041186, "lon": 9.2773503, "tags": {"amenity": "charging_station", "authentication:none": "true", "email": "web@freshmile.com", "fee": "no", "network": "Freshmile", "opening_hours": "24/7", "operator": "Freshmile SAS", "phone": "0369246732", "ref": "DCAR0JL1LK", "reservation": "no", "socket:type2_cable": "no", "socket:type2_combo": "yes", "start_date": "2023-06-21"}}, {"type": "node", "id": 11109169803, "lat": 41.599686, "lon": 9.28433, "tags": {"amenity": "charging_station", "authentication:none": "true", "email": "contact@e-motum.net", "fee": "no", "network": "e-motum", "opening_hours": "24/7", "operator": "sas e-motum", "owner:ref:FR:SIREN": "752982645", "phone": "04 95 30 05 25", "ref": "cbe249c5-c3d7-486c-845a-d71f4da570fc", "reservation": "no", "socket:type2": "yes", "socket:type2_cable": "no", "start_date": "2021-07-07"}}, {"type": "node", "id": 11109169804, "lat": 41.645732, "lon": 8.868415, "tags": {"amenity": "charging_station", "authentication:none": "true", "email": "contact@e-motum.net", "fee": "no", "network": "e-motum", "opening_hours": "24/7", "operator": "sas e-motum", "owner:ref:FR:SIREN": "752982645", "phone": "04 95 30 05 25", "ref": "7b298eb5-9b0c-4a7d-800d-d07a5d90f5e6", "reservation": "no", "socket:type2": "yes", "socket:type2_cable": "no", "start_date": "2021-09-02"}}, {"type": "node", "id": 11109169805, "lat": 41.645788, "lon": 8.868565, "tags": {"amenity": "charging_station", "authentication:none": "true", "email": "contact@e-motum.net", "fee": "no", "network": "e-motum", "opening_hours": "24/7", "operator": "sas e-motum", "owner:ref:FR:SIREN": "752982645", "phone": "04 95 30 05 25", "ref": "552ec407-68b9-469f-b566-8bd6035ed9eb", "reservation": "no", "socket:type2": "yes", "socket:type2_cable": "no", "start_date": "2021-09-02"}}, {"type": "node", "id": 11109169806, "lat": 41.570971, "lon": 8.95273, "tags": {"amenity": "charging_station", "authentication:none": "true", "email": "contact@e-motum.net", "fee": "no", "network": "e-motum", "opening_hours": "24/7", "operator": "sas e-motum", "owner:ref:FR:SIREN": "752982645", "phone": "04 95 30 05 25", "ref": "72900b6e-f8f0-4678-b2c2-6e08813108e9", "reservation": "no", "socket:type2": "yes", "socket:type2_cable": "no", "start_date": "2021-07-26"}}, {"type": "node", "id": 11109169807, "lat": 41.697254, "lon": 9.346448, "tags": {"amenity": "charging_station", "authentication:none": "true", "email": "contact@e-motum.net", "fee": "no", "network": "e-motum", "opening_hours": "24/7", "operator": "sas e-motum", "owner:ref:FR:SIREN": "752982645", "phone": "04 95 30 05 25", "ref": "0103fcc1-2f21-4416-82f0-1abd3e740d7f", "reservation": "no", "socket:type2_cable": "no", "socket:type2_combo": "yes", "start_date": "2021-11-18"}}, {"type": "node", "id": 11109169809, "lat": 41.666035, "lon": 9.37966, "tags": {"amenity": "charging_station", "authentication:none": "true", "email": "contact@e-motum.net", "fee": "no", "network": "e-motum", "opening_hours": "24/7", "operator": "sas e-motum", "owner:ref:FR:SIREN": "752982645", "phone": "04 95 30 05 25", "ref": "f72436b4-53d0-40c0-9ce4-f8d7e5676592", "reservation": "no", "socket:type2": "yes", "socket:type2_cable": "no", "start_date": "2021-07-01"}}, {"type": "node", "id": 11109169811, "lat": 41.699134, "lon": 9.394812, "tags": {"amenity": "charging_station", "authentication:none": "true", "email": "contact@e-motum.net", "fee": "no", "network": "e-motum", "opening_hours": "24/7", "operator": "sas e-motum", "owner:ref:FR:SIREN": "752982645", "phone": "04 95 30 05 25", "ref": "abc031c5-c64a-4f7e-8cc7-a4c656095c5b", "reservation": "no", "socket:type2": "yes", "socket:type2_cable": "no", "start_date": "2021-05-26"}}, {"type": "node", "id": 11109169813, "lat": 41.3905216, "lon": 9.1649234, "tags": {"amenity": "charging_station", "authentication:membership_card": "yes", "authentication:nfc": "yes", "authentication:none": "true;yes", "capacity": "2", "email": "web@freshmile.com", "fee": "no", "level": "0", "motorcar": "yes", "network": "Freshmile", "opening_hours": "24/7", "operator": "Freshmile SAS", "payment:app": "yes", "payment:cb": "yes", "payment:contactless": "yes", "payment:mastercard": "yes", "payment:qr_code": "yes", "payment:visa": "yes", "phone": "0369246732", "ref": "LLHU7YHXF1J6VY", "reservation": "no", "socket:schuko": "1", "socket:type2": "yes;2", "socket:type2:output": "22 kW", "socket:type2_cable": "no", "socket:typee": "yes", "start_date": "2023-05-19"}}, {"type": "node", "id": 11109169814, "lat": 41.390111, "lon": 9.16492, "tags": {"amenity": "charging_station", "authentication:membership_card": "yes", "authentication:nfc": "yes", "authentication:none": "true;yes", "capacity": "2", "email": "contact@e-motum.net", "fee": "no;yes", "level": "0", "motorcar": "yes", "network": "e-motum", "opening_hours": "24/7", "operator": "sas e-motum", "owner:ref:FR:SIREN": "752982645", "parking:fee": "yes", "payment:apple_pay": "yes", "payment:mastercard": "yes", "payment:samsung_pay": "yes", "phone": "04 95 30 05 25", "ref": "8dbb656e-d5e4-443c-ad35-6b21f0bda600", "reservation": "no", "socket:type2_cable": "no", "socket:type2_combo": "yes;2", "socket:type2_combo:output": "75", "start_date": "2021-12-01"}}, {"type": "node", "id": 11109169816, "lat": 41.593491, "lon": 9.27674, "tags": {"amenity": "charging_station", "authentication:none": "true", "email": "contact@e-motum.net", "fee": "no", "network": "e-motum", "opening_hours": "24/7", "operator": "sas e-motum", "owner:ref:FR:SIREN": "752982645", "phone": "04 95 30 05 25", "ref": "aca2ec4c-fd6e-4ded-aace-52a1ca9d252a", "reservation": "no", "socket:type2": "yes", "socket:type2_cable": "no", "start_date": "2021-08-10"}}, {"type": "node", "id": 11109169818, "lat": 41.5930127, "lon": 9.2785984, "tags": {"amenity": "charging_station", "authentication:none": "true", "email": "contact@car2plug.fr", "fee": "no", "network": "HOTEL LE TILBURY", "opening_hours": "24/7", "operator": "CAR2PLUG", "owner:ref:FR:SIREN": "340119411", "phone": "0988991011", "reservation": "no", "socket:type2": "yes", "start_date": "2022-02-16"}}, {"type": "node", "id": 11109169819, "lat": 41.591126, "lon": 9.276693, "tags": {"amenity": "charging_station", "authentication:none": "true", "email": "contact@e-motum.net", "fee": "no", "network": "e-motum", "opening_hours": "24/7", "operator": "sas e-motum", "owner:ref:FR:SIREN": "752982645", "phone": "04 95 30 05 25", "ref": "f658a7b8-b650-48cb-b5f6-d0df6e9cdca3", "reservation": "no", "socket:type2": "yes", "socket:type2_cable": "no", "start_date": "2021-08-04"}}, {"type": "node", "id": 11109169820, "lat": 41.5372318, "lon": 9.2747532, "tags": {"amenity": "charging_station", "authentication:none": "true", "email": "secretariat@lumi-in.fr", "fee": "no", "network": "LUMI'IN", "opening_hours": "24/7", "operator": "LUMI'IN", "owner:ref:FR:SIREN": "807940069", "phone": "754374751", "ref": "1b3689d8-f9f9-11ed-be56-0242ac120002", "reservation": "no", "socket:type2": "yes", "socket:type2_cable": "no", "start_date": "2023-05-24"}}, {"type": "node", "id": 11109169821, "lat": 41.580418, "lon": 9.254713, "tags": {"amenity": "charging_station", "authentication:none": "true", "email": "contact@e-motum.net", "fee": "no", "network": "e-motum", "opening_hours": "24/7", "operator": "sas e-motum", "owner:ref:FR:SIREN": "752982645", "phone": "04 95 30 05 25", "ref": "fa741161-be34-4647-9504-3856b861d9fd", "reservation": "no", "socket:type2": "yes", "socket:type2_cable": "no", "start_date": "2021-05-07"}}, {"type": "node", "id": 11109169822, "lat": 41.565514, "lon": 9.326701, "tags": {"amenity": "charging_station", "authentication:none": "true", "email": "contact@e-motum.net", "fee": "no", "network": "e-motum", "opening_hours": "24/7", "operator": "sas e-motum", "owner:ref:FR:SIREN": "752982645", "phone": "04 95 30 05 25", "ref": "6d3fcb21-d301-4fdd-ad7e-43400fe49982", "reservation": "no", "socket:type2": "yes", "socket:type2_cable": "no", "start_date": "2021-07-02"}}, {"type": "node", "id": 11805593670, "lat": 41.6010087, "lon": 9.2757806, "tags": {"amenity": "charging_station", "capacity": "2", "name": "Ozecar SAS", "opening_hours": "24/7", "operator": "Ozecar SAS"}}, {"type": "node", "id": 11806989369, "lat": 41.6935106, "lon": 9.336012, "tags": {"amenity": "charging_station", "name": "Freshmile", "opening_hours": "24/7", "operator": "Freshmile"}}, {"type": "node", "id": 11807384970, "lat": 41.4763683, "lon": 9.0472588, "tags": {"amenity": "charging_station", "capacity": "2", "name": "Le Damier", "name:fr": "Le Damier Camping", "opening_hours": "24/7", "operator": "Electromaps S.L."}}, {"type": "node", "id": 11807396169, "lat": 41.4919627, "lon": 9.0541031, "tags": {"amenity": "charging_station", "capacity": "1", "name": "Spar Supermarch\u00e9", "opening_hours": "24/7", "operator": "Renault Mobility"}}, {"type": "node", "id": 11809474269, "lat": 41.3885364, "lon": 9.1683903, "tags": {"amenity": "charging_station", "capacity": "6", "name": "Parking P5", "operator": "Ozecar"}}, {"type": "node", "id": 12118557546, "lat": 41.623565, "lon": 9.3002134, "tags": {"amenity": "charging_station"}}, {"type": "node", "id": 12172973312, "lat": 41.5970182, "lon": 9.2765957, "tags": {"amenity": "charging_station"}}, {"type": "node", "id": 12219182279, "lat": 41.3887193, "lon": 9.1657673, "tags": {"amenity": "charging_station", "capacity": "2", "fee": "yes", "level": "0", "motorcar": "yes", "operator": "Autel", "parking:fee": "yes", "payment:contactless": "yes", "payment:qr_code": "yes", "socket:type2_combo": "2", "socket:type2_combo:output": "35"}}, {"type": "node", "id": 12219229499, "lat": 41.3897815, "lon": 9.1647854, "tags": {"amenity": "charging_station", "capacity": "2", "operator": "Ozecar"}}]}