{"version": 0.6, "generator": "Overpass API 0.7.62.1 084b4234", "osm3s": {"timestamp_osm_base": "2024-11-11T18:34:24Z", "copyright": "The data included in this document is from www.openstreetmap.org. The data is made available under ODbL."}, "elements": [{"type": "node", "id": 1203835703, "lat": 45.0711348, "lon": 7.6991551}, {"type": "node", "id": 1203835704, "lat": 45.0712453, "lon": 7.6994044}, {"type": "node", "id": 1203835714, "lat": 45.0711203, "lon": 7.6991453}, {"type": "node", "id": 1203835715, "lat": 45.0711186, "lon": 7.6990335}, {"type": "node", "id": 1203835716, "lat": 45.0710708, "lon": 7.6992862}, {"type": "node", "id": 1203835717, "lat": 45.0711651, "lon": 7.6990647}, {"type": "node", "id": 1203835719, "lat": 45.0711578, "lon": 7.6989225}, {"type": "node", "id": 1203835721, "lat": 45.0713246, "lon": 7.6991723, "tags": {"entrance": "yes"}}, {"type": "node", "id": 1203835724, "lat": 45.0713623, "lon": 7.6990573}, {"type": "node", "id": 2048562832, "lat": 45.0540124, "lon": 7.6782834}, {"type": "node", "id": 2048562843, "lat": 45.05403, "lon": 7.6781869}, {"type": "node", "id": 2048562858, "lat": 45.0540477, "lon": 7.6781935}, {"type": "node", "id": 2048562860, "lat": 45.054049, "lon": 7.6781854}, {"type": "node", "id": 2048562882, "lat": 45.0540665, "lon": 7.67817}, {"type": "node", "id": 2048562884, "lat": 45.0540703, "lon": 7.6781718}, {"type": "node", "id": 2048562886, "lat": 45.0541318, "lon": 7.6778229}, {"type": "node", "id": 2048562914, "lat": 45.0540951, "lon": 7.6783151}, {"type": "node", "id": 2048562945, "lat": 45.0541194, "lon": 7.67829}, {"type": "node", "id": 2048562960, "lat": 45.0542007, "lon": 7.677849}, {"type": "node", "id": 3352189835, "lat": 45.0702031, "lon": 7.6996732, "tags": {"amenity": "community_centre", "contact:email": "oratorio@parrocchiasantagiulia.eu", "elevator": "no", "name": "Oratorio Santa Giulia", "phone": "+39 011 8171790", "ramp:wheelchair": "no", "toilets:wheelchair": "no"}}, {"type": "node", "id": 3363460993, "lat": 45.068572, "lon": 7.687629, "tags": {"amenity": "community_centre", "name": "Palazzo Graneri della Roccia, Circolo degli Artisti", "wheelchair": "limited"}}, {"type": "node", "id": 3371757496, "lat": 45.0855257, "lon": 7.6821793, "tags": {"addr:city": "Torino", "addr:housenumber": "17", "addr:street": "Via Antonio Cecchi", "amenity": "community_centre", "name": "Cecchi Point", "wheelchair": "yes"}}, {"type": "node", "id": 3373834396, "lat": 45.0139597, "lon": 7.6323597}, {"type": "node", "id": 3373834397, "lat": 45.0139188, "lon": 7.6325688}, {"type": "node", "id": 3373834398, "lat": 45.0134612, "lon": 7.632405}, {"type": "node", "id": 3373834399, "lat": 45.0135009, "lon": 7.6321967}, {"type": "node", "id": 3911380820, "lat": 45.1267787, "lon": 7.7103842}, {"type": "node", "id": 3911380823, "lat": 45.1268167, "lon": 7.7102911}, {"type": "node", "id": 4228552205, "lat": 45.0802766, "lon": 7.6665551}, {"type": "node", "id": 4228552207, "lat": 45.0806757, "lon": 7.6668262}, {"type": "node", "id": 4228552208, "lat": 45.0806925, "lon": 7.666881}, {"type": "node", "id": 4228552225, "lat": 45.0805573, "lon": 7.6670238}, {"type": "node", "id": 4228552226, "lat": 45.0806385, "lon": 7.6670796}, {"type": "node", "id": 4228552227, "lat": 45.0802017, "lon": 7.6667931}, {"type": "node", "id": 4228552228, "lat": 45.0803206, "lon": 7.6668557}, {"type": "node", "id": 4228552229, "lat": 45.0804077, "lon": 7.6669237}, {"type": "node", "id": 4228552230, "lat": 45.0804567, "lon": 7.6667805}, {"type": "node", "id": 4228552231, "lat": 45.0805649, "lon": 7.6668566}, {"type": "node", "id": 4228552232, "lat": 45.0805777, "lon": 7.6668658}, {"type": "node", "id": 4228552233, "lat": 45.0805927, "lon": 7.6669099}, {"type": "node", "id": 4228552234, "lat": 45.0805734, "lon": 7.6668818}, {"type": "node", "id": 4228552235, "lat": 45.0805596, "lon": 7.6668739}, {"type": "node", "id": 4228552236, "lat": 45.0806884, "lon": 7.6668443, "tags": {"addr:city": "Torino", "addr:housenumber": "20", "addr:postcode": "10144", "addr:street": "Via Gaspare Saccarelli"}}, {"type": "node", "id": 4228552237, "lat": 45.0803924, "lon": 7.6666312, "tags": {"addr:city": "Torino", "addr:housenumber": "18", "addr:postcode": "10144", "addr:street": "Via Gaspare Saccarelli"}}, {"type": "node", "id": 4228552238, "lat": 45.0802152, "lon": 7.6667469, "tags": {"addr:city": "Torino", "addr:housenumber": "24", "addr:postcode": "10144", "addr:street": "Via Vincenzo Maria Miglietti"}}, {"type": "node", "id": 4228552239, "lat": 45.0802551, "lon": 7.6668276}, {"type": "node", "id": 4228552240, "lat": 45.0802662, "lon": 7.6668057}, {"type": "node", "id": 4228552241, "lat": 45.0803037, "lon": 7.6668329}, {"type": "node", "id": 4314551957, "lat": 45.0703534, "lon": 7.6236631}, {"type": "node", "id": 4314551958, "lat": 45.0703682, "lon": 7.6238663}, {"type": "node", "id": 4314551961, "lat": 45.0699384, "lon": 7.6237946}, {"type": "node", "id": 4314551962, "lat": 45.0703387, "lon": 7.6239845}, {"type": "node", "id": 4477469394, "lat": 45.0486841, "lon": 7.6138985, "tags": {"addr:street": "Strada del Barocchio", "amenity": "community_centre", "name": "Barocchio", "name:en": "Barocchio (squat)", "name:it": "Barocchio", "name:nl": "Barocchio (kraakpand)"}}, {"type": "node", "id": 4733552387, "lat": 45.0707012, "lon": 7.7129916, "tags": {"addr:housenumber": "7B", "addr:postcode": "10153", "addr:street": "Via Cigliano", "amenity": "community_centre", "name": "Kontiki"}}, {"type": "node", "id": 5190977812, "lat": 45.1269119, "lon": 7.7100695}, {"type": "node", "id": 5190977813, "lat": 45.1269152, "lon": 7.7101396}, {"type": "node", "id": 5190977814, "lat": 45.1268295, "lon": 7.7103731}, {"type": "node", "id": 5191557962, "lat": 45.1268693, "lon": 7.7100282}, {"type": "node", "id": 5191557963, "lat": 45.1268253, "lon": 7.7100512}, {"type": "node", "id": 5191557964, "lat": 45.1267712, "lon": 7.7102299}, {"type": "node", "id": 5191557965, "lat": 45.1266822, "lon": 7.7103381}, {"type": "node", "id": 5191557966, "lat": 45.1266587, "lon": 7.7103891}, {"type": "node", "id": 5191557967, "lat": 45.126992, "lon": 7.7107566}, {"type": "node", "id": 5191557968, "lat": 45.1270383, "lon": 7.7106582}, {"type": "node", "id": 5191557969, "lat": 45.1268022, "lon": 7.7104219}, {"type": "node", "id": 8069412590, "lat": 45.0856016, "lon": 7.6815811, "tags": {"addr:city": "Torino", "amenity": "community_centre", "name": "Officine Creative", "service:bicycle:tools": "yes", "website": "https://officinecreativetorino.it/"}}, {"type": "node", "id": 8946309629, "lat": 45.0541065, "lon": 7.6783033, "tags": {"addr:city": "Torino", "addr:housenumber": "14", "addr:postcode": "10125", "addr:street": "Via Oddino Morgari", "entrance": "main"}}, {"type": "node", "id": 9528544046, "lat": 45.1034663, "lon": 7.6301796, "tags": {"addr:city": "Torino", "addr:housenumber": "18a", "addr:postcode": "10151", "addr:street": "Piazza Eugenio Montale", "amenity": "community_centre", "community_centre": "cultural_centre", "name": "Casa di Quartiere Vallette", "operator": "Casa di Quartiere Vallette", "website": "https://www.officinecaos.net/"}}, {"type": "node", "id": 10587762490, "lat": 45.1262506, "lon": 7.7101865, "tags": {"amenity": "community_centre", "community_centre": "youth_centre", "name": "Oratorio San Pio X", "opening_hours": "Tu-Su 16:00-19:00"}}, {"type": "node", "id": 10931712505, "lat": 45.084136, "lon": 7.6571113, "tags": {"amenity": "community_centre", "name": "Casa del popolo", "name:it": "Casa del popolo Estella - PAP"}}, {"type": "way", "id": 104339324, "nodes": [1203835704, 1203835716, 1203835714, 1203835703, 1203835717, 1203835715, 1203835719, 1203835724, 1203835721, 1203835704], "tags": {"amenity": "community_centre", "building": "yes", "name": "C.S.O.A. Askatasuna", "website": "http://www.csoaskatasuna.org"}}, {"type": "way", "id": 194336591, "nodes": [2048562960, 2048562945, 8946309629, 2048562914, 2048562832, 2048562843, 2048562858, 2048562860, 2048562882, 2048562884, 2048562886, 2048562960], "tags": {"amenity": "community_centre", "building": "yes", "internet_access": "wlan", "name": "Casa del Quartiere San Salvario", "name:etymology:wikidata": "Q3947924", "opening_hours": "Su-Th 09:00-24:00, Fr,Sa 09:00-02:00", "website": "https://www.casadelquartiere.it/", "wheelchair": "yes"}}, {"type": "way", "id": 330424276, "nodes": [3373834396, 3373834397, 3373834398, 3373834399, 3373834396], "tags": {"amenity": "community_centre", "building": "yes", "name": "Spazio Anziani"}}, {"type": "way", "id": 423150315, "nodes": [4228552225, 4228552226, 4228552208, 4228552236, 4228552207, 4228552237, 4228552205, 4228552238, 4228552227, 4228552239, 4228552240, 4228552241, 4228552228, 4228552229, 4228552230, 4228552231, 4228552235, 4228552234, 4228552232, 4228552233, 4228552225], "tags": {"amenity": "community_centre", "branch": "Casa del Quartiere San Donato", "brand": "Rete delle Case del Quartiere", "brand:website": "https://www.retecasedelquartiere.org/", "building": "yes", "contact:city": "Torino", "contact:email": "info@piuspazioquattro.it", "contact:housenumber": "18", "contact:postcode": "10144", "contact:street": "Via Gaspare Saccarelli", "name": "Pi\u00f9 SpazioQuattro", "opening_hours": "Mo-Sa 09:00-24:00", "start_date": "2011", "website": "https://www.piuspazioquattro.it/"}}, {"type": "way", "id": 432388873, "nodes": [4314551957, 4314551958, 4314551962, 4314551961, 4314551957], "tags": {"amenity": "community_centre", "name": "Associazione Bocciofila Trecate"}}, {"type": "way", "id": 535695573, "nodes": [5190977812, 5191557962, 5191557963, 5191557964, 3911380823, 3911380820, 5191557965, 5191557966, 5191557967, 5191557968, 5191557969, 5190977814, 5190977813, 5190977812], "tags": {"amenity": "community_centre", "building": "civic"}}]}