{"version": 0.6, "generator": "Overpass API 0.7.62.1 084b4234", "osm3s": {"timestamp_osm_base": "2024-11-06T19:39:26Z", "copyright": "The data included in this document is from www.openstreetmap.org. The data is made available under ODbL."}, "elements": [{"type": "node", "id": 9970955476, "lat": 40.5614471, "lon": 15.7579048, "tags": {"amenity": "charging_station", "bicycle": "yes", "network": "DINAclub", "operator": "Repower", "operator:wikidata": "Q674712", "operator:wikipedia": "it:Repower", "website": "https://www.repower.com/it/dina/"}}, {"type": "node", "id": 9983653861, "lat": 40.1417087, "lon": 15.6031017, "tags": {"amenity": "charging_station", "brand": "Enel X", "brand:wikidata": "Q5376815", "name": "Enel X", "operator": "Enel X", "operator:wikidata": "Q5376815"}}, {"type": "node", "id": 10068627645, "lat": 40.479494, "lon": 15.6306635, "tags": {"amenity": "charging_station", "brand": "Enel X", "brand:wikidata": "Q5376815", "fee": "yes", "name": "Enel X", "operator": "Enel X", "operator:wikidata": "Q5376815"}}, {"type": "node", "id": 10284286361, "lat": 40.3397953, "lon": 15.3393399, "tags": {"amenity": "charging_station"}}, {"type": "node", "id": 10931190958, "lat": 40.1401651, "lon": 15.5556875, "tags": {"amenity": "charging_station", "motorcar": "yes"}}, {"type": "node", "id": 11173113641, "lat": 40.1723339, "lon": 15.5440066, "tags": {"amenity": "charging_station", "brand": "HeCharge Potenza 22 kw", "capacity": "2", "operator": "Helios Spa"}}, {"type": "node", "id": 12133060896, "lat": 40.5232888, "lon": 15.4965472, "tags": {"amenity": "charging_station", "authentication:app": "yes", "authentication:contactless": "yes", "fee": "yes", "motorcar": "yes", "motorcycle": "yes", "name": "Atlante - Polla", "opening_hours": "24/7", "operator": "Atlante", "socket:type2_combo": "8", "socket:type2_combo:output": "150-300 kW"}}]}