{"version": 0.6, "generator": "Overpass API 0.7.62.1 084b4234", "osm3s": {"timestamp_osm_base": "2024-11-06T19:37:16Z", "copyright": "The data included in this document is from www.openstreetmap.org. The data is made available under ODbL."}, "elements": [{"type": "node", "id": 3075301461, "lat": 46.1509629, "lon": 11.7992618, "tags": {"amenity": "charging_station", "operator": "Azienda Consorziale Servizi Municipalizzati S.p.A."}}, {"type": "node", "id": 5126778920, "lat": 46.0625486, "lon": 11.6339719, "tags": {"amenity": "charging_station"}}, {"type": "node", "id": 6556159270, "lat": 45.8733988, "lon": 11.80283, "tags": {"amenity": "charging_station", "description": "Nel ristorante si pu\u00f2 attivare una presa a 3\u20ac", "description:de": "Im Restaurant kann man f\u00fcr 3 \u20ac eine Doppelsteckdose im Au\u00dfenbereich freischalten.", "fee": "yes", "operator": "Rifugio Bassano"}}, {"type": "node", "id": 6766229171, "lat": 45.8213277, "lon": 11.7092564, "tags": {"access": "yes", "amenity": "charging_station", "brand": "Enel X", "brand:wikidata": "Q5376815", "brand:wikipedia": "en:Enel", "capacity": "2", "name": "Enel", "operator": "Enel X", "operator:wikidata": "Q5376815"}}, {"type": "node", "id": 7783481507, "lat": 46.0811366, "lon": 12.0382394, "tags": {"amenity": "charging_station", "capacity": "4"}}, {"type": "node", "id": 8183790013, "lat": 45.9454858, "lon": 11.9662544, "tags": {"amenity": "charging_station"}}, {"type": "node", "id": 8244609531, "lat": 45.9243768, "lon": 12.0164064, "tags": {"amenity": "charging_station"}}, {"type": "node", "id": 8773389007, "lat": 45.7789619, "lon": 12.1195483, "tags": {"amenity": "charging_station"}}, {"type": "node", "id": 9006691977, "lat": 46.201604, "lon": 11.7925149, "tags": {"amenity": "charging_station", "bicycle": "yes"}}, {"type": "node", "id": 9007027558, "lat": 46.1742935, "lon": 11.8289387, "tags": {"amenity": "charging_station", "motorcar": "yes"}}, {"type": "node", "id": 9036343321, "lat": 46.0682586, "lon": 11.6097389, "tags": {"amenity": "charging_station"}}, {"type": "node", "id": 9110094196, "lat": 45.8749099, "lon": 12.0459132, "tags": {"amenity": "charging_station", "operator": "Be Charge"}}, {"type": "node", "id": 9180226531, "lat": 45.8383433, "lon": 11.6856176, "tags": {"access": "yes", "amenity": "charging_station", "brand": "Repower", "fee": "yes", "operator": "Repower", "operator:wikidata": "Q674712", "operator:wikipedia": "it:Repower", "website": "https://www.repower.com/it/la-mobilita-elettrica/"}}, {"type": "node", "id": 9596783418, "lat": 45.8741726, "lon": 11.9477458, "tags": {"amenity": "charging_station"}}, {"type": "node", "id": 9661725957, "lat": 45.780933, "lon": 11.721078, "tags": {"amenity": "charging_station", "bicycle": "yes", "network": "DINAclub", "operator": "Repower", "operator:wikidata": "Q674712", "operator:wikipedia": "it:Repower", "website": "https://www.repower.com/it/dina/"}}, {"type": "node", "id": 9729601048, "lat": 45.7856303, "lon": 12.0009486, "tags": {"amenity": "charging_station", "capacity": "2", "fee": "yes", "motorcar": "yes", "operator": "becharge"}}, {"type": "node", "id": 9828411219, "lat": 45.9425671, "lon": 12.0907998, "tags": {"amenity": "charging_station", "bicycle": "yes"}}, {"type": "node", "id": 9963992883, "lat": 45.7912815, "lon": 11.835635, "tags": {"amenity": "charging_station", "bicycle": "yes", "name": "DINAclub - Stazione di Ricarica e-Bike", "network": "DINAclub", "operator": "Repower", "operator:wikidata": "Q674712", "website": "https://www.repower.com/it/dina/"}}, {"type": "node", "id": 9967408276, "lat": 45.7948654, "lon": 11.7233606, "tags": {"amenity": "charging_station", "bicycle": "yes", "name": "DINAclub - Stazione di Ricarica e-Bike", "network": "DINAclub", "operator": "Repower", "operator:wikidata": "Q674712", "website": "https://www.repower.com/it/dina/"}}, {"type": "node", "id": 9967415577, "lat": 45.9405798, "lon": 11.709772, "tags": {"amenity": "charging_station", "bicycle": "yes", "name": "DINAclub - Stazione di Ricarica e-Bike", "network": "DINAclub", "operator": "Repower", "operator:wikidata": "Q674712", "website": "https://www.repower.com/it/dina/"}}, {"type": "node", "id": 9967415949, "lat": 45.8970216, "lon": 11.6309195, "tags": {"amenity": "charging_station", "bicycle": "yes", "network": "DINAclub", "operator": "Repower", "operator:wikidata": "Q674712", "operator:wikipedia": "it:Repower", "website": "https://www.repower.com/it/dina/"}}, {"type": "node", "id": 9970842566, "lat": 45.908043, "lon": 12.1531671, "tags": {"amenity": "charging_station", "capacity": "4", "name": "Stazione di ricarica auto elettriche"}}, {"type": "node", "id": 9970930548, "lat": 45.9364837, "lon": 11.7243502, "tags": {"amenity": "charging_station", "bicycle": "yes", "motorcar": "no", "motorcycle": "no", "name": "DINAclub - Stazione di Ricarica e-Bike", "network": "DINAclub", "operator": "Repower", "operator:wikidata": "Q674712", "website": "https://www.repower.com/it/dina/"}}, {"type": "node", "id": 10214402290, "lat": 46.1476919, "lon": 11.7964581, "tags": {"amenity": "charging_station"}}, {"type": "node", "id": 10250646986, "lat": 45.8714299, "lon": 11.9650219, "tags": {"amenity": "charging_station"}}, {"type": "node", "id": 10250646987, "lat": 45.8714038, "lon": 11.9650406, "tags": {"amenity": "charging_station"}}, {"type": "node", "id": 10250646988, "lat": 45.8713708, "lon": 11.9650631, "tags": {"amenity": "charging_station"}}, {"type": "node", "id": 10250646989, "lat": 45.8713364, "lon": 11.9650888, "tags": {"amenity": "charging_station"}}, {"type": "node", "id": 10250646990, "lat": 45.8713023, "lon": 11.9651131, "tags": {"amenity": "charging_station"}}, {"type": "node", "id": 10250646991, "lat": 45.8712641, "lon": 11.9651404, "tags": {"amenity": "charging_station"}}, {"type": "node", "id": 10260875612, "lat": 45.8604191, "lon": 11.8945174, "tags": {"amenity": "charging_station"}}, {"type": "node", "id": 10600926732, "lat": 45.9174476, "lon": 12.1630055, "tags": {"access": "yes", "amenity": "charging_station", "bicycle": "yes", "network": "DINAclub", "operator": "Repower", "operator:wikidata": "Q674712", "operator:wikipedia": "it:Repower", "video": "https://www.youtube.com/watch?v=BDntH6UpU-Q", "website": "https://www.repower.com/it/dina/"}}, {"type": "node", "id": 11050365245, "lat": 46.1334923, "lon": 11.5984005, "tags": {"access": "yes", "amenity": "charging_station", "bicycle": "yes", "capacity": "4", "motorcar": "no"}}, {"type": "node", "id": 11096761364, "lat": 46.0632538, "lon": 12.0793238, "tags": {"amenity": "charging_station", "brand": "Enel X", "fee": "yes", "name": "Enel X", "operator": "Enel X", "operator:wikidata": "Q5376815"}}, {"type": "node", "id": 11126483040, "lat": 45.786464, "lon": 11.5773266, "tags": {"amenity": "charging_station", "bicycle": "yes", "motor_vehicle": "no"}}, {"type": "node", "id": 11252914457, "lat": 45.7701782, "lon": 11.7366, "tags": {"amenity": "charging_station"}}, {"type": "node", "id": 12252927033, "lat": 45.8035643, "lon": 11.8942585, "tags": {"access": "yes", "amenity": "charging_station", "authentication:none": "yes", "bicycle": "yes", "capacity": "4", "fee": "no", "level": "0", "mapillary": "850959420557413; 518760867626639", "motorcar": "no", "opening_hours": "24/7", "operator": "Comune di Asolo"}}, {"type": "node", "id": 12252949514, "lat": 45.8026134, "lon": 11.9137861, "tags": {"access": "yes", "amenity": "charging_station", "authentication:none": "yes", "bicycle": "yes", "capacity": "4", "fee": "no", "mapillary": "2664124977121098", "motorcar": "no", "operator": "Comune di Asolo"}}]}