{"version": 0.6, "generator": "Overpass API 0.7.62.1 084b4234", "osm3s": {"timestamp_osm_base": "2024-11-06T19:38:22Z", "copyright": "The data included in this document is from www.openstreetmap.org. The data is made available under ODbL."}, "elements": [{"type": "node", "id": 6371000923, "lat": 37.0710977, "lon": 15.2804225, "tags": {"amenity": "charging_station", "name": "Enel X Way", "operator": "Enel X Way", "operator:wikidata": "Q116116836", "operator:wikipedia": "it:Enel X Way"}}, {"type": "node", "id": 6397417156, "lat": 37.0746247, "lon": 15.2819543, "tags": {"amenity": "charging_station", "name": "Enel X Way", "operator": "Enel X Way", "operator:wikidata": "Q116116836", "operator:wikipedia": "it:Enel X Way"}}, {"type": "node", "id": 6397417157, "lat": 37.0746221, "lon": 15.2817725, "tags": {"amenity": "charging_station", "name": "Enel X Way", "operator": "Enel X Way", "operator:wikidata": "Q116116836", "operator:wikipedia": "it:Enel X Way"}}, {"type": "node", "id": 6407873264, "lat": 37.0825524, "lon": 15.2948342, "tags": {"amenity": "charging_station", "name": "Tesla"}}, {"type": "node", "id": 6407873265, "lat": 37.091677, "lon": 15.2751964, "tags": {"amenity": "charging_station", "name": "Enel X Way", "operator": "Enel X Way", "operator:wikidata": "Q116116836", "operator:wikipedia": "it:Enel X Way"}}, {"type": "node", "id": 6407873266, "lat": 37.0762583, "lon": 15.2843542, "tags": {"amenity": "charging_station", "name": "Enel X Way", "operator": "Enel X Way", "operator:wikidata": "Q116116836", "operator:wikipedia": "it:Enel X Way"}}, {"type": "node", "id": 6407873267, "lat": 37.0810234, "lon": 15.2928846, "tags": {"amenity": "charging_station", "name": "Enel X Way", "operator": "Enel X Way", "operator:wikidata": "Q116116836", "operator:wikipedia": "it:Enel X Way"}}, {"type": "node", "id": 6407873268, "lat": 37.0854076, "lon": 15.288644, "tags": {"amenity": "charging_station", "name": "Enel X Way", "operator": "Enel X Way", "operator:wikidata": "Q116116836", "operator:wikipedia": "it:Enel X Way"}}, {"type": "node", "id": 6407873269, "lat": 37.0830617, "lon": 15.2969239, "tags": {"amenity": "charging_station", "name": "Enel X Way", "operator": "Enel X Way", "operator:wikidata": "Q116116836", "operator:wikipedia": "it:Enel X Way"}}, {"type": "node", "id": 6407873277, "lat": 37.0825781, "lon": 15.2523511, "tags": {"amenity": "charging_station", "name": "Enel X Way", "operator": "Enel X Way", "operator:wikidata": "Q116116836", "operator:wikipedia": "it:Enel X Way"}}, {"type": "node", "id": 6407873278, "lat": 37.0938692, "lon": 15.2091851, "tags": {"amenity": "charging_station", "name": "Enel X Way", "operator": "Enel X Way", "operator:wikidata": "Q116116836", "operator:wikipedia": "it:Enel X Way"}}, {"type": "node", "id": 6409731246, "lat": 37.0997985, "lon": 15.2683643, "tags": {"amenity": "charging_station", "name": "Enel X Way", "operator": "Enel X Way", "operator:wikidata": "Q116116836", "operator:wikipedia": "it:Enel X Way"}}, {"type": "node", "id": 6521835996, "lat": 37.0665448, "lon": 15.2835127, "tags": {"amenity": "charging_station", "name": "Enel X Way", "operator": "Enel X Way", "operator:wikidata": "Q116116836", "operator:wikipedia": "it:Enel X Way"}}, {"type": "node", "id": 6530577489, "lat": 37.0843838, "lon": 15.2657067, "tags": {"amenity": "charging_station", "name": "Enel X Way", "operator": "Enel X Way", "operator:wikidata": "Q116116836", "operator:wikipedia": "it:Enel X Way"}}, {"type": "node", "id": 6568108730, "lat": 37.0691417, "lon": 15.2631213, "tags": {"amenity": "charging_station", "name": "Scame", "operator": "Scame"}}, {"type": "node", "id": 6568108731, "lat": 37.0764154, "lon": 15.2840919, "tags": {"amenity": "charging_station", "name": "Enel X Way", "operator": "Enel X Way", "operator:wikidata": "Q116116836", "operator:wikipedia": "it:Enel X Way"}}, {"type": "node", "id": 6704288557, "lat": 37.4950057, "lon": 15.0899855, "tags": {"access": "private", "amenity": "charging_station", "capacity": "2", "motorcar": "yes", "name": "Enel X Way", "operator": "Enel X Way", "operator:wikidata": "Q116116836", "operator:wikipedia": "it:Enel X Way"}}, {"type": "node", "id": 6704288558, "lat": 37.4884291, "lon": 15.0835968, "tags": {"amenity": "charging_station", "name": "Enel X Way", "operator": "Enel X Way", "operator:wikidata": "Q116116836", "operator:wikipedia": "it:Enel X Way"}}, {"type": "node", "id": 6704288559, "lat": 37.4884132, "lon": 15.0835405, "tags": {"amenity": "charging_station", "name": "Enel X Way", "operator": "Enel X Way", "operator:wikidata": "Q116116836", "operator:wikipedia": "it:Enel X Way"}}, {"type": "node", "id": 6704288560, "lat": 37.4480136, "lon": 15.0348524, "tags": {"amenity": "charging_station", "name": "Eva+", "operator": "Enel"}}, {"type": "node", "id": 6704288561, "lat": 37.4480205, "lon": 15.0348973, "tags": {"amenity": "charging_station", "name": "Enel X Way", "operator": "Enel X Way", "operator:wikidata": "Q116116836", "operator:wikipedia": "it:Enel X Way"}}, {"type": "node", "id": 6704288562, "lat": 37.4135495, "lon": 15.046812, "tags": {"amenity": "charging_station", "name": "Eva+", "operator": "Enel"}}, {"type": "node", "id": 6704288563, "lat": 37.4135294, "lon": 15.0467331, "tags": {"amenity": "charging_station", "name": "Eva+", "operator": "Enel"}}, {"type": "node", "id": 6704288564, "lat": 37.413507, "lon": 15.0466451, "tags": {"amenity": "charging_station", "name": "Enel X Way", "operator": "Enel X Way", "operator:wikidata": "Q116116836", "operator:wikipedia": "it:Enel X Way"}}, {"type": "node", "id": 6704288565, "lat": 37.4134882, "lon": 15.0465712, "tags": {"amenity": "charging_station", "name": "Enel X Way", "operator": "Enel X Way", "operator:wikidata": "Q116116836", "operator:wikipedia": "it:Enel X Way"}}, {"type": "node", "id": 6704288566, "lat": 37.413469, "lon": 15.0464957, "tags": {"amenity": "charging_station", "name": "Enel X Way", "operator": "Enel X Way", "operator:wikidata": "Q116116836", "operator:wikipedia": "it:Enel X Way"}}, {"type": "node", "id": 6704288567, "lat": 37.4134524, "lon": 15.0464303, "tags": {"amenity": "charging_station", "name": "Enel X Way", "operator": "Enel X Way", "operator:wikidata": "Q116116836", "operator:wikipedia": "it:Enel X Way"}}, {"type": "node", "id": 6704316724, "lat": 37.4983585, "lon": 15.0848387, "tags": {"amenity": "charging_station", "capacity": "2", "name": "Enel X Way", "operator": "Enel X Way", "operator:wikidata": "Q116116836", "operator:wikipedia": "it:Enel X Way"}}, {"type": "node", "id": 6704316730, "lat": 37.4949846, "lon": 15.0899774, "tags": {"access": "private", "amenity": "charging_station", "capacity": "2", "motorcar": "yes", "name": "Enel X Way", "operator": "Enel X Way", "operator:wikidata": "Q116116836", "operator:wikipedia": "it:Enel X Way"}}, {"type": "node", "id": 6704316731, "lat": 37.448045, "lon": 15.034843, "tags": {"amenity": "charging_station", "name": "Enel X Way", "operator": "Enel X Way", "operator:wikidata": "Q116116836", "operator:wikipedia": "it:Enel X Way"}}, {"type": "node", "id": 6704327131, "lat": 37.0726229, "lon": 15.2908784, "tags": {"amenity": "charging_station", "name": "Enel X Way", "operator": "Enel X Way", "operator:wikidata": "Q116116836", "operator:wikipedia": "it:Enel X Way"}}, {"type": "node", "id": 6704327132, "lat": 37.0726414, "lon": 15.2862233, "tags": {"amenity": "charging_station", "name": "Enel X Way", "operator": "Enel X Way", "operator:wikidata": "Q116116836", "operator:wikipedia": "it:Enel X Way"}}, {"type": "node", "id": 6710218685, "lat": 37.0804287, "lon": 15.2811728, "tags": {"amenity": "charging_station", "name": "Enel X Way", "operator": "Enel X Way", "operator:wikidata": "Q116116836", "operator:wikipedia": "it:Enel X Way"}}, {"type": "node", "id": 6981256302, "lat": 37.1053991, "lon": 15.2533726, "tags": {"amenity": "charging_station", "name": "Circontrol", "operator": "Circontrol"}}, {"type": "node", "id": 6981256303, "lat": 37.086629, "lon": 15.290056, "tags": {"amenity": "charging_station", "name": "Enel X Way", "operator": "Enel X Way", "operator:wikidata": "Q116116836", "operator:wikipedia": "it:Enel X Way"}}, {"type": "node", "id": 6981256304, "lat": 37.0647591, "lon": 15.2862352, "tags": {"amenity": "charging_station", "capacity": "2", "name": "Enel X Way", "operator": "Enel X Way", "operator:wikidata": "Q116116836", "operator:wikipedia": "it:Enel X Way"}}, {"type": "node", "id": 6981256305, "lat": 37.066491, "lon": 15.2914628, "tags": {"amenity": "charging_station", "name": "Enel X Way", "operator": "Enel X Way", "operator:wikidata": "Q116116836", "operator:wikipedia": "it:Enel X Way"}}, {"type": "node", "id": 7039557669, "lat": 37.0868706, "lon": 15.2784541, "tags": {"amenity": "charging_station", "name": "Swarco"}}, {"type": "node", "id": 7204814868, "lat": 37.0685953, "lon": 15.2885339, "tags": {"amenity": "charging_station", "name": "Enel X Way", "operator": "Enel X Way", "operator:wikidata": "Q116116836", "operator:wikipedia": "it:Enel X Way"}}, {"type": "node", "id": 7776054679, "lat": 37.3047856, "lon": 15.0022548, "tags": {"amenity": "charging_station", "name": "Enel X Way", "operator": "Enel X Way", "operator:wikidata": "Q116116836", "operator:wikipedia": "it:Enel X Way"}}, {"type": "node", "id": 8150078402, "lat": 37.1105831, "lon": 15.2261672, "tags": {"amenity": "charging_station", "name": "Atlante", "note": "prossima apertura"}}, {"type": "node", "id": 8150078403, "lat": 37.1106314, "lon": 15.2261395, "tags": {"amenity": "charging_station", "name": "Atlante", "note": "prossima apertura"}}, {"type": "node", "id": 8150078405, "lat": 37.1106791, "lon": 15.2261121, "tags": {"amenity": "charging_station", "name": "Atlante", "note": "prossima apertura"}}, {"type": "node", "id": 8150078407, "lat": 37.1107277, "lon": 15.2260841, "tags": {"amenity": "charging_station", "name": "Atlante", "note": "prossima apertura"}}, {"type": "node", "id": 8400964229, "lat": 37.5008019, "lon": 15.0885643, "tags": {"amenity": "charging_station", "capacity": "2", "name": "Enel X Way", "operator": "Enel X Way", "operator:wikidata": "Q116116836", "operator:wikipedia": "it:Enel X Way"}}, {"type": "node", "id": 8400964230, "lat": 37.500754, "lon": 15.0886394, "tags": {"amenity": "charging_station", "capacity": "2", "name": "Enel X Way", "operator": "Enel X Way", "operator:wikidata": "Q116116836", "operator:wikipedia": "it:Enel X Way"}}, {"type": "node", "id": 8459476550, "lat": 37.2482546, "lon": 15.219892, "tags": {"amenity": "charging_station", "capacity": "3", "name": "Enel X Way", "operator": "Enel X Way", "operator:wikidata": "Q116116836", "operator:wikipedia": "it:Enel X Way"}}, {"type": "node", "id": 8843002674, "lat": 37.0691356, "lon": 15.2631115, "tags": {"amenity": "charging_station", "name": "Scame", "operator": "Scame"}}, {"type": "node", "id": 8843002675, "lat": 37.0691296, "lon": 15.2631018, "tags": {"amenity": "charging_station", "name": "Scame", "operator": "Scame"}}, {"type": "node", "id": 8843002676, "lat": 37.0691235, "lon": 15.263092, "tags": {"amenity": "charging_station", "name": "Scame", "operator": "Scame"}}, {"type": "node", "id": 9300841255, "lat": 37.0900483, "lon": 15.2593694, "tags": {"amenity": "charging_station", "name": "Enel X Way", "operator": "Enel X Way", "operator:wikidata": "Q116116836", "operator:wikipedia": "it:Enel X Way"}}, {"type": "node", "id": 9346987087, "lat": 37.0795648, "lon": 15.1624927, "tags": {"amenity": "charging_station", "name": "Eurospin", "operator": "Driwe"}}, {"type": "node", "id": 9346987088, "lat": 37.0795241, "lon": 15.1624766, "tags": {"amenity": "charging_station", "name": "Eurospin", "operator": "Driwe"}}, {"type": "node", "id": 9346987107, "lat": 37.0772708, "lon": 15.161739, "tags": {"amenity": "charging_station", "name": "Enel X Way", "operator": "Enel X Way", "operator:wikidata": "Q116116836", "operator:wikipedia": "it:Enel X Way"}}, {"type": "node", "id": 9709326049, "lat": 37.0712574, "lon": 15.267359, "tags": {"amenity": "charging_station", "name": "Be Charge", "operator": "Be Charge"}}, {"type": "node", "id": 9711444001, "lat": 37.0895201, "lon": 15.2609082, "tags": {"amenity": "charging_station", "name": "Enel X Way", "operator": "Enel X Way", "operator:wikidata": "Q116116836", "operator:wikipedia": "it:Enel X Way"}}, {"type": "node", "id": 9711444002, "lat": 37.0903335, "lon": 15.2594636, "tags": {"amenity": "charging_station", "name": "Enel X Way", "operator": "Enel X Way", "operator:wikidata": "Q116116836", "operator:wikipedia": "it:Enel X Way"}}, {"type": "node", "id": 9737966051, "lat": 37.4891464, "lon": 15.0798136, "tags": {"amenity": "charging_station", "name": "Enel X Way", "operator": "Enel X Way", "operator:wikidata": "Q116116836", "operator:wikipedia": "it:Enel X Way"}}, {"type": "node", "id": 9757489484, "lat": 37.1202626, "lon": 14.9359815, "tags": {"amenity": "charging_station", "name": "Be Charge", "operator": "Be Charge"}}, {"type": "node", "id": 9757489494, "lat": 37.301164, "lon": 15.0023876, "tags": {"amenity": "charging_station", "name": "Wirelane"}}, {"type": "node", "id": 9876583945, "lat": 37.2946057, "lon": 15.000603, "tags": {"amenity": "charging_station", "name": "Enel X Way", "operator": "Enel X Way", "operator:wikidata": "Q116116836", "operator:wikipedia": "it:Enel X Way"}}, {"type": "node", "id": 9876583946, "lat": 37.2846578, "lon": 14.9980194, "tags": {"amenity": "charging_station", "name": "Enel X Way", "operator": "Enel X Way", "operator:wikidata": "Q116116836", "operator:wikipedia": "it:Enel X Way", "toilets:wheelchair": "no", "wheelchair": "yes"}}, {"type": "node", "id": 10267874046, "lat": 37.111072, "lon": 15.1959935, "tags": {"amenity": "charging_station", "name": "Ewiva"}}, {"type": "node", "id": 10267874047, "lat": 37.1111404, "lon": 15.1959667, "tags": {"amenity": "charging_station", "name": "Ewiva"}}, {"type": "node", "id": 10267965997, "lat": 37.2849712, "lon": 14.9926617, "tags": {"amenity": "charging_station", "name": "Enel X Way", "operator": "Enel X Way", "operator:wikidata": "Q116116836", "operator:wikipedia": "it:Enel X Way"}}, {"type": "node", "id": 10281425010, "lat": 37.2638637, "lon": 15.1418182, "tags": {"amenity": "charging_station", "name": "Alpha Mobility"}}, {"type": "node", "id": 10756497712, "lat": 37.5013999, "lon": 15.0645022, "tags": {"amenity": "charging_station", "fee": "yes"}}, {"type": "node", "id": 10869477064, "lat": 37.1725767, "lon": 15.1585056, "tags": {"amenity": "charging_station", "name": "Enel X Way", "operator": "Enel X Way", "operator:wikidata": "Q116116836", "operator:wikipedia": "it:Enel X Way"}}, {"type": "node", "id": 11008013469, "lat": 37.1245506, "lon": 14.8531602, "tags": {"amenity": "charging_station", "name": "Enel X Way", "operator": "Enel X Way", "operator:wikidata": "Q116116836", "operator:wikipedia": "it:Enel X Way"}}, {"type": "node", "id": 11008013470, "lat": 37.0879044, "lon": 14.8875703, "tags": {"amenity": "charging_station", "name": "Enel X Way", "operator": "Enel X Way", "operator:wikidata": "Q116116836", "operator:wikipedia": "it:Enel X Way"}}, {"type": "node", "id": 11008013471, "lat": 37.3046522, "lon": 15.0023715, "tags": {"amenity": "charging_station", "name": "Enel X Way", "operator": "Enel X Way", "operator:wikidata": "Q116116836", "operator:wikipedia": "it:Enel X Way"}}, {"type": "node", "id": 11008013472, "lat": 37.2469981, "lon": 15.2216984, "tags": {"amenity": "charging_station", "capacity": "2", "name": "Enel X Way", "operator": "Enel X Way", "operator:wikidata": "Q116116836", "operator:wikipedia": "it:Enel X Way"}}, {"type": "node", "id": 11078850317, "lat": 37.0997988, "lon": 15.2683105, "tags": {"amenity": "charging_station", "name": "Enel X Way", "operator": "Enel X Way", "operator:wikidata": "Q116116836", "operator:wikipedia": "it:Enel X Way"}}, {"type": "node", "id": 11078850318, "lat": 37.0997774, "lon": 15.2682374, "tags": {"amenity": "charging_station", "name": "Enel X Way", "operator": "Enel X Way", "operator:wikidata": "Q116116836", "operator:wikipedia": "it:Enel X Way"}}, {"type": "node", "id": 11083779042, "lat": 37.0906029, "lon": 15.2625938, "tags": {"amenity": "charging_station", "name": "Enel X Way", "operator": "Enel X Way", "operator:wikidata": "Q116116836", "operator:wikipedia": "it:Enel X Way"}}, {"type": "node", "id": 11293532232, "lat": 37.0672671, "lon": 14.9051683, "tags": {"amenity": "charging_station", "name": "Ewiva"}}, {"type": "node", "id": 11293532233, "lat": 37.0672489, "lon": 14.905116, "tags": {"amenity": "charging_station", "name": "Ewiva"}}, {"type": "node", "id": 11406465046, "lat": 37.2217876, "lon": 15.2215362, "tags": {"amenity": "charging_station", "capacity": "2", "name": "Enel X Way", "operator": "Enel X Way", "operator:wikidata": "Q116116836", "operator:wikipedia": "it:Enel X Way"}}, {"type": "node", "id": 11406465059, "lat": 37.2414444, "lon": 15.2354166, "tags": {"amenity": "charging_station", "capacity": "2", "name": "Enel X Way", "operator": "Enel X Way", "operator:wikidata": "Q116116836", "operator:wikipedia": "it:Enel X Way"}}, {"type": "node", "id": 11406465062, "lat": 37.1559605, "lon": 15.1858143, "tags": {"amenity": "charging_station", "name": "Enel X Way", "operator": "Enel X Way", "operator:wikidata": "Q116116836", "operator:wikipedia": "it:Enel X Way"}}, {"type": "node", "id": 11438860808, "lat": 37.0693996, "lon": 15.2718421, "tags": {"amenity": "charging_station", "name": "Eurospin", "operator": "Driwe"}}, {"type": "node", "id": 11438860809, "lat": 37.0693667, "lon": 15.271885, "tags": {"amenity": "charging_station", "name": "Eurospin", "operator": "Driwe"}}, {"type": "node", "id": 11488334751, "lat": 37.4205458, "lon": 15.0645404, "tags": {"amenity": "charging_station", "name": "Eurospin"}}, {"type": "node", "id": 11488334752, "lat": 37.4205967, "lon": 15.0645411, "tags": {"amenity": "charging_station", "name": "Eurospin"}}, {"type": "node", "id": 11502698757, "lat": 37.4947723, "lon": 15.0898677, "tags": {"access": "private", "amenity": "charging_station", "capacity": "2", "motorcar": "yes", "name": "Enel X Way", "operator": "Enel X Way"}}, {"type": "node", "id": 11502698758, "lat": 37.4947554, "lon": 15.0899164, "tags": {"access": "yes", "amenity": "charging_station", "capacity": "2", "fee": "yes", "motorcar": "yes", "name": "Enel X Way", "opening_hours": "24/7", "operator": "Enel X Way"}}, {"type": "node", "id": 11502698760, "lat": 37.4947787, "lon": 15.0898093, "tags": {"access": "private", "amenity": "charging_station", "capacity": "2", "motorcar": "yes", "operator": "Enel X Way"}}, {"type": "node", "id": 11502698761, "lat": 37.4947451, "lon": 15.0899739, "tags": {"access": "yes", "amenity": "charging_station", "capacity": "2", "fee": "yes", "motorcar": "yes", "name": "Enel X Way", "opening_hours": "24/7", "operator": "Enel X Way"}}, {"type": "node", "id": 11528590240, "lat": 37.1267202, "lon": 14.8487185, "tags": {"amenity": "charging_station", "name": "Enel X Way", "operator": "Enel X Way", "operator:wikidata": "Q116116836", "operator:wikipedia": "it:Enel X Way"}}, {"type": "node", "id": 11528590241, "lat": 37.1563395, "lon": 15.1731518, "tags": {"amenity": "charging_station", "name": "Enel X Way", "operator": "Enel X Way", "operator:wikidata": "Q116116836", "operator:wikipedia": "it:Enel X Way"}}, {"type": "node", "id": 11528590242, "lat": 37.1595059, "lon": 15.1859473, "tags": {"amenity": "charging_station", "name": "Enel X Way", "operator": "Enel X Way", "operator:wikidata": "Q116116836", "operator:wikipedia": "it:Enel X Way"}}, {"type": "node", "id": 11577634217, "lat": 37.0792588, "lon": 15.2812569, "tags": {"amenity": "charging_station", "name": "Circontrol", "operator": "Circontrol"}}, {"type": "node", "id": 11646070469, "lat": 37.098451, "lon": 15.2752849, "tags": {"amenity": "charging_station", "name": "Enel X Way", "operator": "Enel X Way", "operator:wikidata": "Q116116836", "operator:wikipedia": "it:Enel X Way"}}, {"type": "node", "id": 11694118922, "lat": 37.4891009, "lon": 15.0827813, "tags": {"amenity": "charging_station", "capacity": "2", "operator": "Lidl", "operator:wikidata": "Q151954"}}, {"type": "node", "id": 11734520105, "lat": 37.1100549, "lon": 15.2402419, "tags": {"amenity": "charging_station", "name": "Enel X Way", "operator": "Enel X Way", "operator:wikidata": "Q116116836", "operator:wikipedia": "it:Enel X Way"}}, {"type": "node", "id": 11778868219, "lat": 37.1546354, "lon": 15.0212107, "tags": {"amenity": "charging_station", "name": "Enel X Way", "operator": "Enel X Way", "operator:wikidata": "Q116116836", "operator:wikipedia": "it:Enel X Way"}}, {"type": "node", "id": 11778884957, "lat": 37.1604749, "lon": 15.0271759, "tags": {"amenity": "charging_station"}}, {"type": "node", "id": 11787306514, "lat": 37.0861916, "lon": 15.1552574, "tags": {"amenity": "charging_station", "name": "Enel X Way", "operator": "Enel X Way", "operator:wikidata": "Q116116836", "operator:wikipedia": "it:Enel X Way"}}, {"type": "node", "id": 11802220402, "lat": 37.156829, "lon": 15.1903474, "tags": {"amenity": "charging_station", "name": "Enel X Way", "operator": "Enel X Way", "operator:wikidata": "Q116116836", "operator:wikipedia": "it:Enel X Way"}}, {"type": "node", "id": 11805320172, "lat": 37.0854487, "lon": 15.2726529, "tags": {"amenity": "charging_station", "name": "Enel X Way", "operator": "Enel X Way", "operator:wikidata": "Q116116836", "operator:wikipedia": "it:Enel X Way"}}, {"type": "node", "id": 11805320173, "lat": 37.0991388, "lon": 15.2644421, "tags": {"amenity": "charging_station", "name": "Enel X Way", "operator": "Enel X Way", "operator:wikidata": "Q116116836", "operator:wikipedia": "it:Enel X Way"}}, {"type": "node", "id": 11819362449, "lat": 37.0913855, "lon": 15.2613831, "tags": {"amenity": "charging_station", "name": "Enel X Way", "operator": "Enel X Way", "operator:wikidata": "Q116116836", "operator:wikipedia": "it:Enel X Way"}}, {"type": "node", "id": 11822117755, "lat": 37.0922018, "lon": 15.29274, "tags": {"amenity": "charging_station", "name": "Enel X Way", "operator": "Enel X Way", "operator:wikidata": "Q116116836", "operator:wikipedia": "it:Enel X Way"}}, {"type": "node", "id": 11905267377, "lat": 37.0687812, "lon": 15.2803228, "tags": {"amenity": "charging_station", "name": "Enel X Way", "operator": "Enel X Way", "operator:wikidata": "Q116116836", "operator:wikipedia": "it:Enel X Way"}}, {"type": "node", "id": 11913559964, "lat": 37.1548409, "lon": 15.1891606, "tags": {"amenity": "charging_station", "name": "Enel X Way", "operator": "Enel X Way", "operator:wikidata": "Q116116836", "operator:wikipedia": "it:Enel X Way"}}, {"type": "node", "id": 11922676099, "lat": 37.0947381, "lon": 15.2859896, "tags": {"amenity": "charging_station", "name": "Enel X Way", "operator": "Enel X Way", "operator:wikidata": "Q116116836", "operator:wikipedia": "it:Enel X Way"}}, {"type": "node", "id": 11931450180, "lat": 37.2329989, "lon": 15.2206711, "tags": {"amenity": "charging_station", "capacity": "2", "name": "Be Charge", "operator": "Be Charge"}}, {"type": "node", "id": 11931450181, "lat": 37.2461174, "lon": 15.2248245, "tags": {"amenity": "charging_station", "capacity": "2", "name": "Be Charge", "operator": "Be Charge"}}, {"type": "node", "id": 11931450182, "lat": 37.2460458, "lon": 15.2248353, "tags": {"amenity": "charging_station", "capacity": "3", "name": "Be Charge", "operator": "Be Charge"}}, {"type": "node", "id": 11935663402, "lat": 37.2501634, "lon": 15.2210627, "tags": {"amenity": "charging_station", "capacity": "2", "name": "Enel X Way", "operator": "Enel X Way", "operator:wikidata": "Q116116836", "operator:wikipedia": "it:Enel X Way"}}, {"type": "node", "id": 11935663407, "lat": 37.2325515, "lon": 15.2199268, "tags": {"amenity": "charging_station", "capacity": "2", "name": "Enel X Way", "operator": "Enel X Way", "operator:wikidata": "Q116116836", "operator:wikipedia": "it:Enel X Way"}}, {"type": "node", "id": 11954566913, "lat": 37.1636105, "lon": 15.0416659, "tags": {"amenity": "charging_station", "name": "Enel X Way", "operator": "Enel X Way", "operator:wikidata": "Q116116836", "operator:wikipedia": "it:Enel X Way"}}, {"type": "node", "id": 12031496695, "lat": 37.0860259, "lon": 15.2777915, "tags": {"amenity": "charging_station", "name": "Enel X Way", "operator": "Enel X Way", "operator:wikidata": "Q116116836", "operator:wikipedia": "it:Enel X Way"}}, {"type": "node", "id": 12046019485, "lat": 37.0759708, "lon": 15.2817142, "tags": {"amenity": "charging_station", "name": "Enel X Way", "operator": "Enel X Way", "operator:wikidata": "Q116116836", "operator:wikipedia": "it:Enel X Way"}}, {"type": "node", "id": 12046019486, "lat": 37.0759638, "lon": 15.2817015, "tags": {"amenity": "charging_station", "name": "Enel X Way", "operator": "Enel X Way", "operator:wikidata": "Q116116836", "operator:wikipedia": "it:Enel X Way"}}, {"type": "node", "id": 12054055296, "lat": 37.1924835, "lon": 14.9362376, "tags": {"amenity": "charging_station", "name": "Enel X Way", "operator": "Enel X Way", "operator:wikidata": "Q116116836", "operator:wikipedia": "it:Enel X Way"}}, {"type": "node", "id": 12076073802, "lat": 37.2965622, "lon": 15.0059603, "tags": {"amenity": "charging_station", "name": "Enel X Way", "operator": "Enel X Way", "operator:wikidata": "Q116116836", "operator:wikipedia": "it:Enel X Way"}}, {"type": "node", "id": 12083447220, "lat": 37.1100868, "lon": 15.2286523, "tags": {"amenity": "charging_station", "name": "Electrip"}}, {"type": "node", "id": 12083447221, "lat": 37.1101033, "lon": 15.2286331, "tags": {"amenity": "charging_station", "name": "Electrip"}}, {"type": "node", "id": 12083447222, "lat": 37.1101197, "lon": 15.228614, "tags": {"amenity": "charging_station", "name": "Electrip"}}, {"type": "node", "id": 12083447223, "lat": 37.1101361, "lon": 15.2285949, "tags": {"amenity": "charging_station", "name": "Electrip"}}, {"type": "node", "id": 12083447224, "lat": 37.1101526, "lon": 15.2285758, "tags": {"amenity": "charging_station", "name": "Electrip"}}, {"type": "node", "id": 12088132172, "lat": 37.2959439, "lon": 14.9991314, "tags": {"amenity": "charging_station", "name": "Enel X Way", "operator": "Enel X Way", "operator:wikidata": "Q116116836", "operator:wikipedia": "it:Enel X Way"}}, {"type": "node", "id": 12132445593, "lat": 37.267476, "lon": 15.0085768, "tags": {"amenity": "charging_station", "name": "Enel X Way", "operator": "Enel X Way", "operator:wikidata": "Q116116836", "operator:wikipedia": "it:Enel X Way"}}, {"type": "node", "id": 12140563107, "lat": 37.1452558, "lon": 15.0741126, "tags": {"amenity": "charging_station", "name": "Sagelio", "note": "posizione da individuare con esattezza", "operator": "Sagelio srl"}}, {"type": "node", "id": 12140563143, "lat": 37.1629062, "lon": 15.0334959, "tags": {"amenity": "charging_station", "name": "Enel X Way", "operator": "Enel X Way", "operator:wikidata": "Q116116836", "operator:wikipedia": "it:Enel X Way"}}, {"type": "node", "id": 12160816618, "lat": 37.1767132, "lon": 15.1456229, "tags": {"amenity": "charging_station", "name": "Eurospin", "operator": "Driwe"}}, {"type": "node", "id": 12175679315, "lat": 37.2685739, "lon": 15.2140261, "tags": {"amenity": "charging_station", "capacity": "2", "name": "Enel X Way", "operator": "Enel X Way", "operator:wikidata": "Q116116836", "operator:wikipedia": "it:Enel X Way"}}, {"type": "node", "id": 12175679347, "lat": 37.2410281, "lon": 15.2189512, "tags": {"amenity": "charging_station", "capacity": "2", "name": "Enel X Way", "operator": "Enel X Way", "operator:wikidata": "Q116116836", "operator:wikipedia": "it:Enel X Way"}}, {"type": "node", "id": 12238664374, "lat": 37.0773285, "lon": 15.1700207, "tags": {"amenity": "charging_station", "name": "Enel X Way", "operator": "Enel X Way", "operator:wikidata": "Q116116836", "operator:wikipedia": "it:Enel X Way"}}]}