{"version": 0.6, "generator": "Overpass API 0.7.62.1 084b4234", "osm3s": {"timestamp_osm_base": "2024-11-06T19:41:29Z", "copyright": "The data included in this document is from www.openstreetmap.org. The data is made available under ODbL."}, "elements": [{"type": "node", "id": 6168892127, "lat": 46.1954828, "lon": 7.8388165, "tags": {"amenity": "charging_station", "capacity": "2", "covered": "no", "fee": "yes", "motorcar": "yes", "operator": "enalpin", "socket:schuko": "2", "socket:type2": "1", "socket:type2:output": "22 kW", "socket:type2_cable": "1", "socket:type2_cable:output": "22 kw"}}, {"type": "node", "id": 6611508434, "lat": 46.176708, "lon": 7.8016945, "tags": {"amenity": "charging_station"}}, {"type": "node", "id": 8909516110, "lat": 46.3687948, "lon": 8.2125958, "tags": {"amenity": "charging_station", "name": "Ewooms"}}, {"type": "node", "id": 8922854588, "lat": 46.3640045, "lon": 8.1839631, "tags": {"amenity": "charging_station", "bicycle": "yes", "description": "Ladekabel f\u00fcr viele Marken ausleihbar", "fee": "no", "opening_hours": "24/7"}}, {"type": "node", "id": 9891122728, "lat": 46.1277625, "lon": 7.9387722, "tags": {"access": "yes", "amenity": "charging_station", "authentication:app": "yes", "authentication:contactless": "yes", "bicycle": "no", "capacity": "2", "covered": "no", "fee": "yes", "motorcar": "yes", "network": "evpass", "opening_hours": "24/7", "operator": "evpass", "parking:fee": "yes", "socket:type1": "2", "socket:type1:output": "7.4 kW", "socket:type2_cable": "2", "socket:type2_cable:output": "22 kW"}}, {"type": "node", "id": 9914675976, "lat": 46.2389522, "lon": 8.3125539, "tags": {"amenity": "charging_station", "brand": "Enel X", "brand:wikidata": "Q5376815", "capacity": "2", "operator": "Enel X", "operator:wikidata": "Q5376815"}}, {"type": "node", "id": 10290024863, "lat": 46.2069213, "lon": 7.8674865, "tags": {"amenity": "charging_station", "bicycle": "yes", "motor_vehicle": "no"}}, {"type": "node", "id": 10845838392, "lat": 46.0681332, "lon": 7.7754934, "tags": {"access": "yes", "amenity": "charging_station", "authentication:app": "no", "authentication:contactless": "no", "bicycle": "no", "capacity": "131", "covered": "yes", "description:de": "Im Parkhaus, Stockwerk 2", "fee": "yes", "motorcar": "yes", "network": "no", "opening_hours": "24/7", "operator": "Matterhorn Terminal AG T\u00e4sch", "parking:fee": "yes", "socket:type2_cable": "131", "socket:type2_cable:output": "22 kW"}}, {"type": "node", "id": 10857899372, "lat": 46.2473935, "lon": 7.8769628, "tags": {"amenity": "charging_station", "capacity": "2", "charge": "Adhoc \u00fcber QR-Code/Webseite: 0.49 CHF/kWh + 0.09 CHF/min", "connector": "CCS (Combo 2)", "fee": "yes", "network": "Migrol", "operator": "Migrol", "power": "128 kW"}}, {"type": "node", "id": 11694405099, "lat": 46.19543, "lon": 7.8387286, "tags": {"amenity": "charging_station", "authentication:contactless": "yes", "authentication:none": "yes", "capacity": "2", "covered": "no", "fee": "yes", "motorcar": "yes", "operator": "enalpin", "socket:type2_combo": "2", "socket:type2_combo:output": "75 kw"}}]}