{"version": 0.6, "generator": "Overpass API 0.7.62.1 084b4234", "osm3s": {"timestamp_osm_base": "2024-11-06T19:37:16Z", "copyright": "The data included in this document is from www.openstreetmap.org. The data is made available under ODbL."}, "elements": [{"type": "node", "id": 4373088990, "lat": 46.8187835, "lon": 12.7543126, "tags": {"amenity": "charging_station", "authentication:app": "yes", "authentication:membership_card": "yes", "authentication:nfc": "yes", "authentication:phone_call": "yes", "authentication:phone_call:number": "+43 0800 818 819", "bicycle": "yes", "capacity": "2", "car": "yes", "charging_station:output": "22.2 kW", "fee": "yes", "opening_hours": "24/7", "operator": "TIWAG-Tiroler Wasserkraft AG", "phone": "+43 0800 818 819", "scooter": "yes", "socket:schuko": "2", "socket:schuko:output": "3.7 kW", "socket:type2": "2", "socket:type2:output": "22.2 kW", "website": "https://www.tiwag.at/mobilitaet"}}, {"type": "node", "id": 4956464734, "lat": 46.8252719, "lon": 12.7662713, "tags": {"amenity": "charging_station", "authentication:app": "yes", "authentication:membership_card": "yes", "authentication:nfc": "yes", "authentication:phone_call": "yes", "authentication:phone_call:number": "+43 0800 818 819", "bicycle": "yes", "capacity": "2", "charging_station:output": "22.2 kW", "fee": "yes", "motorcar": "yes", "opening_hours": "24/7", "operator": "TIWAG-Tiroler Wasserkraft AG", "phone": "+43 0800 818 819", "scooter": "yes", "socket:schuko": "2", "socket:schuko:output": "3.7 kW", "socket:type2": "2", "socket:type2:output": "22.2 kW", "website": "https://www.tiwag.at/mobilitaet"}}, {"type": "node", "id": 5065951390, "lat": 46.9158111, "lon": 12.3313788, "tags": {"amenity": "charging_station", "capacity": "2", "car": "yes", "fee": "yes", "operator": "da emobil"}}, {"type": "node", "id": 5252154946, "lat": 46.783218, "lon": 12.6624466, "tags": {"amenity": "charging_station", "bicycle": "no", "capacity": "2", "description": "E- Tankstelle Elektrowerk Assling", "motorcar": "yes", "object:city": "Assling", "object:country": "AT", "object:housenumber": "1", "object:place": "Thal-Aue", "object:postcode": "9911", "opening_hours": "24/7", "operator": "Elektrowerk Assling reg.Gen.m.b.H", "parking:fee": "no", "payment:bancomat": "yes", "payment:mastercard": "yes", "payment:visa": "yes", "scooter": "yes", "socket:chademo": "1", "socket:chademo:output": "50 kW", "socket:type2": "1", "socket:type2:output": "43kW", "socket:type2_combo": "1", "socket:type2_combo:output": "50 kW", "truck": "no"}}, {"type": "node", "id": 5356228031, "lat": 46.8078466, "lon": 12.3719472, "tags": {"amenity": "charging_station", "capacity": "2", "fee": "yes", "operator": "TIWAG", "socket:schuko": "2", "socket:type2": "2", "socket:type2:output": "11 kW"}}, {"type": "node", "id": 5617782838, "lat": 46.70166, "lon": 12.7834421, "tags": {"access": "yes", "amenity": "charging_station", "capacity": "1", "description": "Ladestation St. Lorenzen im Lesachtal", "fee": "yes", "operator": "AAE Naturstrom", "payment:maestro": "yes", "payment:mastercard": "yes", "payment:visa": "yes", "socket:type2": "1", "socket:type2:output": "11 kW"}}, {"type": "node", "id": 5698910207, "lat": 46.7471671, "lon": 12.4202663, "tags": {"amenity": "charging_station", "capacity": "3", "operator": "AAE Naturstrom", "power": "22kW"}}, {"type": "node", "id": 5736612409, "lat": 46.7355674, "lon": 12.2231215, "tags": {"access": "yes", "amenity": "charging_station", "bicycle": "yes", "brand": "bike-energy", "brand:wikidata": "Q67770877", "capacity": "3", "description": "POINT P2B f\u00fcr 2 E-Bikes. Das passende Ladekabel f\u00fcr Ihr E-Bike kann vor Ort (Patisserie Birgit oder Bar/Pizzeria Ariston) ausgeliehen oder direkt auf www.bike-energy.com bestellt werden. Bei der Ladestation steht auch eine normale Steckdose zur Verf\u00fcgung.", "fee": "no", "motorcar": "no", "motorcycle": "no", "name": "bike-energy Gemeinde Toblach", "opening_hours": "24/7", "operator": "bike-energy", "operator:wikidata": "Q67770877", "scooter": "no", "socket:ropd": "2", "socket:schuko": "1", "truck": "no"}}, {"type": "node", "id": 5776556880, "lat": 46.7323863, "lon": 12.2818613, "tags": {"amenity": "charging_station"}}, {"type": "node", "id": 5776568975, "lat": 46.7294803, "lon": 12.2190152, "tags": {"amenity": "charging_station", "bicycle": "no", "capacity": "2", "fee": "yes", "motorcar": "yes", "name": "Sennerei Drei Zinnen", "opening_hours": "24/7", "operator": "Alperia", "scooter": "yes", "socket:chademo": "1", "socket:chademo:output": "50kW", "socket:type2": "1", "socket:type2:output": "43kW", "socket:type2_combo": "1", "socket:type2_combo:output": "50kW", "truck": "no"}}, {"type": "node", "id": 5839798886, "lat": 46.789761, "lon": 12.7837167, "tags": {"amenity": "charging_station"}}, {"type": "node", "id": 5860315943, "lat": 46.7250942, "lon": 12.2222289, "tags": {"amenity": "charging_station", "bicycle": "yes", "capacity": "2", "car": "no", "operator": "Hotel Union", "phone": "+390474970100", "website": "https://www.hotelunion.it/"}}, {"type": "node", "id": 5860322457, "lat": 46.7296519, "lon": 12.2186176, "tags": {"access": "yes", "amenity": "charging_station", "authentication:none": "yes", "bicycle": "yes", "brand": "bike-energy", "brand:wikidata": "Q67770877", "capacity": "3", "description": "bike-energy Ladestation LINE L3B \u2013 Anschlu\u00df f\u00fcr 3 E-Bikes. Das passende Ladekabel f\u00fcr Ihr E-Bike k\u00f6nnen Sie ganz einfach vor Ort ausleihen, im lokalen Sportartikelhandel erwerben oder direkt auf www.bike-energy.com bestellen.", "fee": "no", "image": "https://i.imgur.com/GStNPKG.jpeg", "image:0": "https://i.imgur.com/vICIpNE.jpeg", "image:1": "https://i.imgur.com/sFkvila.jpeg", "image:2": "https://i.imgur.com/0meRnTK.jpeg", "motorcar": "no", "name": "bike-energy Sennerei Drei Zinnen", "opening_hours": "24/7", "operator": "bike-energy", "operator:wikidata": "Q67770877", "socket:ropd": "3"}}, {"type": "node", "id": 5860325013, "lat": 46.7312159, "lon": 12.2048841, "tags": {"amenity": "charging_station", "bicycle": "yes", "capacity": "2", "car": "no", "fee": "no"}}, {"type": "node", "id": 5860325157, "lat": 46.7472438, "lon": 12.2195327, "tags": {"addr:city": "Toblach", "addr:country": "IT", "addr:housenumber": "2", "addr:postcode": "39034", "addr:street": "Ratsberg", "amenity": "charging_station", "bicycle": "yes", "capacity": "2", "description": "POINT P2B f\u00fcr 2 E-Bikes. Das passende Ladekabel f\u00fcr Ihr E-Bike kann vor Ort ausgeliehen oder direkt auf www.bike-energy.com bestellt werden.", "fee": "no", "motorcar": "no", "name": "bike-energy Ladestation", "operator": "Gasthof J\u00f6rgerhof"}}, {"type": "node", "id": 5860325553, "lat": 46.7358111, "lon": 12.1892236, "tags": {"addr:city": "Villabassa", "addr:country": "IT", "addr:housenumber": "91", "addr:postcode": "39039", "addr:street": "Via Frau Emma", "amenity": "charging_station", "bicycle": "yes", "brand": "bike-energy", "brand:wikidata": "Q67770877", "capacity": "2", "description": "POINT P2B f\u00fcr 2 E-Bikes. Das passende Ladekabel f\u00fcr Ihr E-Bike kann vor Ort ausgeliehen oder direkt auf www.bike-energy.com bestellt werden.", "fee": "no", "fixme": "check location", "motorcar": "no", "name": "bike-energy Pircher Shop", "operator": "bike-energy", "operator:wikidata": "Q67770877", "socket:ropd": "2"}}, {"type": "node", "id": 5860342125, "lat": 46.7599117, "lon": 12.3048536, "tags": {"amenity": "charging_station", "bicycle": "yes", "capacity": "20", "fee": "no", "motorcar": "no"}}, {"type": "node", "id": 5861125740, "lat": 46.7375727, "lon": 12.1829306, "tags": {"access": "yes", "amenity": "charging_station", "bicycle": "yes", "brand": "bike-energy", "brand:wikidata": "Q67770877", "capacity": "2", "description": "POINT P2B f\u00fcr 2 E-Bikes. Das passende Ladekabel f\u00fcr Ihr E-Bike kann vor Ort ausgeliehen oder direkt auf www.bike-energy.com bestellt werden.", "fee": "no", "motorcar": "no", "name": "bike -energy Weiherbad", "operator": "bike-energy", "operator:wikidata": "Q67770877", "socket:ropd": "2"}}, {"type": "node", "id": 6679731361, "lat": 46.7344127, "lon": 12.2878914, "tags": {"access": "yes", "amenity": "charging_station", "capacity": "2", "covered": "no", "fee": "yes", "image": "https://openstreetmap-assets.simedia.cloud/charging_station-civil-defense-centre-innichen-6679731361-001.jpeg", "motorcar": "yes", "name:de": "Zivilschutzzentrum Innichen", "name:en": "Civil defense center Innichen", "name:it": "Centro di protezione civile San Candido", "opening_hours": "24/7", "operator": "Neogy"}}, {"type": "node", "id": 6753472941, "lat": 46.7293152, "lon": 12.2191058, "tags": {"access": "yes", "amenity": "charging_station", "capacity": "2", "fee": "yes", "name": "DOBBIACO_1", "opening_hours": "24/7", "operator": "Alperia Smart Mobility", "operator:wikidata": "Q25387077", "operator:wikipedia": "it:Alperia", "payment:credit_cards": "yes", "payment:rfid_card": "yes", "payment:smartphone": "yes", "socket:chademo": "1", "socket:chademo:output": "50kW", "socket:type2": "1", "socket:type2:output": "43kW", "socket:type2_combo": "1", "socket:type2_combo:output": "50kW"}}, {"type": "node", "id": 6763630272, "lat": 46.8075065, "lon": 12.7936921, "tags": {"amenity": "charging_station", "capacity": "2", "operator": "Parkhotel Tristacher See"}}, {"type": "node", "id": 6778264988, "lat": 46.8215269, "lon": 12.7001254, "tags": {"amenity": "charging_station", "bicycle": "yes", "capacity": "4", "car": "no", "description": "Hochsteinh\u00fctte", "fee": "no", "note": "bosch, shimano, panasonic"}}, {"type": "node", "id": 7835365518, "lat": 46.7088128, "lon": 12.6125192, "tags": {"access": "yes", "amenity": "charging_station", "capacity": "1", "covered": "no", "operator": "Regionalenergie Osttirol", "socket:type2": "1", "socket:type2:output": "22 kW", "website": "http://www.regionalenergie-osttirol.at/"}}, {"type": "node", "id": 9116771415, "lat": 46.7368334, "lon": 12.1665602, "tags": {"access": "yes", "amenity": "charging_station", "capacity": "2", "covered": "no", "fee": "yes", "image": "https://openstreetmap-assets.simedia.cloud/charging_station-train-station-niederdorf-9116771415-001.jpeg", "motorcar": "yes", "name:de": "Zugbahnhof Niederdorf", "name:en": "Train station Niederdorf", "name:it": "Stazione ferroviaria Villabassa", "opening_hours": "24/7", "operator": "Neogy"}}, {"type": "node", "id": 9175195763, "lat": 46.7390423, "lon": 12.1657846, "tags": {"amenity": "charging_station", "capacity": "4", "covered": "no", "fee": "yes", "opening_hours": "24/7"}}, {"type": "node", "id": 9578164693, "lat": 46.7485975, "lon": 12.2169471, "tags": {"amenity": "charging_station"}}, {"type": "node", "id": 10027752586, "lat": 46.7471664, "lon": 12.417563, "tags": {"amenity": "charging_station", "bicycle": "yes", "fee": "no", "opening_hours": "Mo-Su 06:00-24:00", "wikimedia_commons": "File:E-bike charging station, Sillian.jpg"}}, {"type": "node", "id": 10043674909, "lat": 46.8336019, "lon": 12.7638059, "tags": {"amenity": "charging_station", "authentication:app": "yes", "authentication:membership_card": "yes", "authentication:money_card": "yes", "bicycle": "no", "capacity": "4", "description": "Altersheim Lienz", "motorcar": "yes", "network": "be.energised", "opening_hours": "24/7", "operator": "TIWAG", "payment:mastercard_contactless": "yes", "payment:paypal": "yes", "payment:visa_contactless": "yes", "ref:EU:EVSE": "AT*TWG*E0000486;AT*TWG*E0000487;AT*TWG*E0000488;AT*TWG*E0000489", "socket:type2": "4"}}, {"type": "node", "id": 10139499909, "lat": 46.917875, "lon": 12.330002, "tags": {"amenity": "charging_station", "brand": "vkw vlotte", "brand:website": "https://www.vlotte.at/", "contact:phone": "+43 5574 9000", "description": "Machers Landhotel", "motorcar": "yes", "opening_hours": "24/7", "operator": "illwerke vkw", "operator:wikidata": "Q97012080", "operator:wikipedia": "de:Illwerke vkw", "unsigned_ref": "E28178482"}}, {"type": "node", "id": 10139499911, "lat": 46.82606, "lon": 12.756227, "tags": {"amenity": "charging_station", "brand": "vkw vlotte", "brand:website": "https://www.vlotte.at/", "contact:phone": "+43 5574 9000", "description": "Autohaus Prisker", "motorcar": "yes", "opening_hours": "24/7", "operator": "illwerke vkw", "operator:wikidata": "Q97012080", "operator:wikipedia": "de:Illwerke vkw", "unsigned_ref": "E150132537"}}, {"type": "node", "id": 10139499913, "lat": 46.9245494, "lon": 12.423458, "tags": {"amenity": "charging_station", "brand": "vkw vlotte", "brand:website": "https://www.vlotte.at/", "contact:phone": "+43 5574 9000", "description": "Alpengasthof Pichler", "motorcar": "yes", "opening_hours": "24/7", "operator": "illwerke vkw", "operator:wikidata": "Q97012080", "operator:wikipedia": "de:Illwerke vkw", "unsigned_ref": "E73795287"}}, {"type": "node", "id": 10139499914, "lat": 46.916354, "lon": 12.346403, "tags": {"amenity": "charging_station", "brand": "vkw vlotte", "brand:website": "https://www.vlotte.at/", "contact:phone": "+43 5574 9000", "description": "Naturhotel Tandler", "motorcar": "yes", "opening_hours": "24/7", "operator": "illwerke vkw", "operator:wikidata": "Q97012080", "operator:wikipedia": "de:Illwerke vkw", "unsigned_ref": "E77535984"}}, {"type": "node", "id": 10574630457, "lat": 46.7095997, "lon": 12.6173627, "tags": {"access": "customers", "amenity": "charging_station", "capacity": "1", "socket:type2": "1", "socket:type2:output": "11 kW"}}, {"type": "node", "id": 10688263322, "lat": 46.8338857, "lon": 12.7670946, "tags": {"access": "yes", "amenity": "charging_station", "authentication:app": "yes", "authentication:membership_card": "yes", "authentication:money_card": "yes", "bicycle": "no", "capacity": "2", "description": "Michaelsplatz", "fee": "yes", "motorcar": "yes", "network": "be.energised", "opening_hours": "24/7", "operator": "TIWAG", "payment:app": "no", "payment:cards": "no", "payment:cash": "no", "payment:mastercard_contactless": "yes", "payment:membership_card": "yes", "payment:paypal": "yes", "payment:qr_code": "yes", "payment:visa_contactless": "yes", "ref:EU:EVSE": "AT*TWG*E0000494;AT*TWG*E0000495", "socket:type2": "2", "socket:type2:current": "32 A", "socket:type2:output": "22 kW", "socket:type2:voltage": "400 V"}}, {"type": "node", "id": 10690459632, "lat": 46.8310512, "lon": 12.7802656, "tags": {"amenity": "charging_station", "authentication:app": "yes", "authentication:membership_card": "yes", "authentication:money_card": "yes", "bicycle": "no", "capacity": "2", "description": "Auto Pontiller", "motorcar": "yes", "network": "be.energised", "opening_hours": "24/7", "operator": "TIWAG", "payment:mastercard_contactless": "yes", "payment:paypal": "yes", "payment:visa_contactless": "yes", "ref:EU:EVSE": "AT*TWG*E0000380;AT*TWG*E0000381;AT*TWG*E0000382", "socket:chademo": "1", "socket:chademo:output": "50 kW", "socket:type2": "1", "socket:type2:output": "22 kW", "socket:type2_combo": "1", "socket:type2_combo:output": "50 kW"}}, {"type": "node", "id": 10690459653, "lat": 46.8312312, "lon": 12.7777443, "tags": {"amenity": "charging_station", "authentication:app": "yes", "authentication:membership_card": "yes", "authentication:money_card": "yes", "bicycle": "no", "capacity": "2", "manufacturer": "Alfen", "motorcar": "yes", "opening_hours": "24/7", "operator": "AGEtech", "payment:mastercard_contactless": "yes", "payment:visa_contactless": "yes", "ref": "AGE_0004_01", "socket:type2": "2", "socket:type2:output": "22.1 kW"}}, {"type": "node", "id": 10690459654, "lat": 46.8312221, "lon": 12.7778084, "tags": {"amenity": "charging_station", "authentication:app": "yes", "authentication:membership_card": "yes", "authentication:money_card": "yes", "bicycle": "no", "capacity": "2", "motorcar": "yes", "opening_hours": "24/7", "operator": "AGEtech", "payment:mastercard_contactless": "yes", "payment:visa_contactless": "yes", "socket:type2_combo": "2", "socket:type2_combo:output": "80 kW"}}, {"type": "node", "id": 10690459662, "lat": 46.8313085, "lon": 12.7728104, "tags": {"amenity": "charging_station", "authentication:app": "yes", "authentication:membership_card": "yes", "authentication:money_card": "yes", "capacity": "2", "description": "Wasserwerk", "motorcar": "yes", "opening_hours": "24/7", "operator": "TIWAG", "payment:mastercard_contactless": "yes", "payment:paypal": "yes", "payment:visa_contactless": "yes", "ref:EU:EVSE": "AT*TWG*E0000507;AT*TWG*E0000508;AT*TWG*E0000509;AT*TWG*E0000510", "socket:schuko": "2", "socket:type2": "2"}}, {"type": "node", "id": 10692160053, "lat": 46.8282417, "lon": 12.7674611, "tags": {"amenity": "charging_station", "authentication:app": "yes", "authentication:membership_card": "yes", "authentication:money_card": "yes", "bicycle": "no", "capacity": "4", "description": "Stegergarten", "motorcar": "yes", "network": "be.energised", "opening_hours": "24/7", "operator": "TIWAG", "payment:mastercard_contactless": "yes", "payment:paypal": "yes", "payment:visa_contactless": "yes", "ref": "AC1", "ref:EU:EVSE": "AT*TWG*E0000499;AT*TWG*E0000500;AT*TWG*E0000501;AT*TWG*E0000502", "socket:type2": "4", "socket:type2:output": "22 kW"}}, {"type": "node", "id": 10692160054, "lat": 46.828388, "lon": 12.7674302, "tags": {"amenity": "charging_station", "authentication:app": "yes", "authentication:membership_card": "yes", "authentication:money_card": "yes", "bicycle": "no", "capacity": "2", "charging_station:output": "150 kW", "description": "Stegergarten", "manufacturer": "hypercharger", "motorcar": "yes", "network": "be.energised", "opening_hours": "24/7", "operator": "TIWAG", "payment:mastercard_contactless": "yes", "payment:paypal": "yes", "payment:visa_contactless": "yes", "ref": "DC1", "ref:EU:EVSE": "AT*TWG*E0000496;AT*TWG*E0000497;AT*TWG*E0000498", "socket:chademo": "1", "socket:chademo:output": "50 kW", "socket:type2": "1", "socket:type2:output": "22 kW", "socket:type2_combo": "1", "socket:type2_combo:output": "50 kW"}}, {"type": "node", "id": 10692160055, "lat": 46.8282531, "lon": 12.7675255, "tags": {"amenity": "charging_station", "authentication:app": "yes", "authentication:membership_card": "yes", "authentication:money_card": "yes", "bicycle": "no", "capacity": "4", "description": "Stegergarten", "motorcar": "yes", "network": "be.energised", "opening_hours": "24/7", "operator": "TIWAG", "payment:mastercard_contactless": "yes", "payment:paypal": "yes", "payment:visa_contactless": "yes", "ref": "AC1", "ref:EU:EVSE": "AT*TWG*E0000503;AT*TWG*E0000504;AT*TWG*E0000505;AT*TWG*E0000506", "socket:type2": "4", "socket:type2:output": "22 kW"}}, {"type": "node", "id": 10693983945, "lat": 46.821091, "lon": 12.7586534, "tags": {"amenity": "charging_station"}}, {"type": "node", "id": 10693983956, "lat": 46.8244265, "lon": 12.7648453, "tags": {"amenity": "charging_station", "authentication:app": "yes", "authentication:membership_card": "yes", "authentication:money_card": "yes", "capacity": "2", "description": "Dolomitenbad", "motorcar": "yes", "network": "be.energised", "opening_hours": "24/7", "operator": "TIWAG", "payment:mastercard_contactless": "yes", "payment:paypal": "yes", "payment:visa_contactless": "yes", "ref:EU:EVSE": "AT*TWG*E0000009;AT*TWG*E0000010;AT*TWG*E0000011;AT*TWG*E0000012", "socket:schuko": "2", "socket:type2": "2", "socket:type2:output": "22 kW"}}, {"type": "node", "id": 10693983957, "lat": 46.8259376, "lon": 12.7649036, "tags": {"amenity": "charging_station", "authentication:app": "yes", "authentication:membership_card": "yes", "authentication:money_card": "yes", "bicycle": "no", "capacity": "2", "description": "WKO Lienz", "manufacturer": "Alfen", "motorcar": "yes", "network": "be.energised", "opening_hours": "24/7", "operator": "da emobil", "payment:mastercard_contactless": "yes", "payment:paypal": "yes", "payment:visa_contactless": "yes", "ref": "DAE_1446", "ref:EU:EVSE": "AT*DAE*E0001269;AT*DAE*E0001270", "socket:type2": "2", "socket:type2:output": "22 kW"}}, {"type": "node", "id": 10694053357, "lat": 46.8310727, "lon": 12.7540138, "tags": {"amenity": "charging_station", "capacity": "2"}}, {"type": "node", "id": 10694053358, "lat": 46.8311126, "lon": 12.7539646, "tags": {"amenity": "charging_station", "capacity": "2"}}, {"type": "node", "id": 10905180609, "lat": 46.7998994, "lon": 12.7445793, "tags": {"amenity": "charging_station", "bicycle": "yes", "motorcar": "no"}}, {"type": "node", "id": 11104291585, "lat": 47.0185499, "lon": 12.339633, "tags": {"amenity": "charging_station", "bicycle": "yes", "fixme": "fix Panasonic socket tagging", "motorcar": "no", "note": "1 \u20ac oder 2 \u20ac M\u00fcnze als Pfand f\u00fcr Schlo\u00df notwendig", "socket:bosch_3pin": "2", "socket:panasonic": "1", "socket:schuko": "1", "socket:shimano_steps_5pin": "1"}}, {"type": "node", "id": 11607924779, "lat": 46.7083132, "lon": 12.6158832, "tags": {"access": "yes", "amenity": "charging_station", "fee": "yes", "socket:type2_cable": "2", "socket:type2_cable:output": "22 kW"}}, {"type": "node", "id": 11607924780, "lat": 46.7086099, "lon": 12.617324, "tags": {"access": "yes", "amenity": "charging_station", "fee": "yes", "socket:type2": "1", "socket:type2:output": "22 kW"}}, {"type": "node", "id": 11607949335, "lat": 46.7097361, "lon": 12.6095537, "tags": {"access": "yes", "amenity": "charging_station", "capacity": "4", "fee": "yes", "socket:type2": "4", "socket:type2_cable:output": "22 kW"}}, {"type": "node", "id": 11612710656, "lat": 46.7497557, "lon": 12.4428259, "tags": {"amenity": "charging_station", "capacity": "2", "operator": "Shell", "operator:wikidata": "Q110716465"}}, {"type": "node", "id": 11612710659, "lat": 46.7506397, "lon": 12.4257957, "tags": {"access": "yes", "amenity": "charging_station", "capacity": "2"}}, {"type": "node", "id": 11612710661, "lat": 46.751136, "lon": 12.4272395, "tags": {"access": "yes", "amenity": "charging_station", "capacity": "3", "operator": "da emobil", "operator:wikidata": "Q114946167"}}, {"type": "node", "id": 11638188626, "lat": 46.8843155, "lon": 12.1544912, "tags": {"amenity": "charging_station", "capacity": "1"}}]}