{"version": 0.6, "generator": "Overpass API 0.7.62.1 084b4234", "osm3s": {"timestamp_osm_base": "2024-11-06T19:39:26Z", "copyright": "The data included in this document is from www.openstreetmap.org. The data is made available under ODbL."}, "elements": [{"type": "node", "id": 5819215345, "lat": 40.056667, "lon": 15.4962052, "tags": {"amenity": "charging_station", "capacity": "1", "name": "for Tesla", "operator": "Enel", "power": "3 kW"}}, {"type": "node", "id": 9667381152, "lat": 39.9364403, "lon": 15.7643856, "tags": {"amenity": "charging_station"}}, {"type": "node", "id": 9964441427, "lat": 40.0211691, "lon": 15.8960474, "tags": {"amenity": "charging_station", "capacity": "2"}}, {"type": "node", "id": 9964441428, "lat": 40.0211856, "lon": 15.8959776, "tags": {"amenity": "charging_station", "capacity": "2"}}, {"type": "node", "id": 9970957748, "lat": 40.0315093, "lon": 15.6759173, "tags": {"access": "customers", "amenity": "charging_station", "amperage": "16", "authentication:none": "yes", "bicycle": "yes", "brand": "Repower", "capacity": "4", "fee": "no", "network": "DINAclub", "operator": "Hotel Villa del Mare", "operator:wikidata": "Q674712", "operator:wikipedia": "it:Repower", "voltage": "230", "website": "https://www.repower.com/it/dina/"}}, {"type": "node", "id": 10931151495, "lat": 39.9950976, "lon": 15.7260722, "tags": {"amenity": "charging_station", "motorcar": "yes"}}, {"type": "node", "id": 10931195120, "lat": 39.995539, "lon": 15.7220343, "tags": {"amenity": "charging_station", "motorcar": "yes"}}, {"type": "node", "id": 11716781585, "lat": 39.7162255, "lon": 15.8502846, "tags": {"amenity": "charging_station", "brand": "Enel X", "brand:wikidata": "Q5376815", "name": "Enel X", "operator": "Enel X", "operator:wikidata": "Q5376815"}}, {"type": "node", "id": 11740631865, "lat": 39.8795794, "lon": 15.7855248, "tags": {"amenity": "charging_station", "amperage": "16", "authentication:none": "yes", "bicycle": "yes", "capacity": "2", "fee": "no", "opening_hours": "24/7", "operator": "Comune di Praia a Mare", "voltage": "230"}}, {"type": "node", "id": 11740700243, "lat": 39.9012285, "lon": 15.7752109, "tags": {"amenity": "charging_station", "amperage": "16", "authentication:none": "yes", "bicycle": "yes", "capacity": "2", "fee": "no", "opening_hours": "24/7", "operator": "Comune di Praia a Mare", "voltage": "230"}}, {"type": "node", "id": 11741247248, "lat": 40.0314895, "lon": 15.6758745, "tags": {"access": "customers", "amenity": "charging_station", "capacity": "1", "motorcar": "yes", "operator": "Hotel Villa del Mare"}}, {"type": "node", "id": 11741500761, "lat": 40.0716674, "lon": 15.6321165, "tags": {"amenity": "charging_station", "brand": "Enel X", "brand:wikidata": "Q5376815", "capacity": "2", "fee": "yes", "motorcar": "yes", "name": "Enel X", "opening_hours": "24/7", "operator": "Enel X", "operator:wikidata": "Q5376815"}}, {"type": "node", "id": 11741505172, "lat": 40.0630859, "lon": 15.6277014, "tags": {"amenity": "charging_station", "brand": "Enel X", "brand:wikidata": "Q5376815", "capacity": "2", "fee": "yes", "motorcar": "yes", "name": "Enel X Way", "operator": "Enel X", "operator:wikidata": "Q5376815"}}, {"type": "node", "id": 11745259416, "lat": 40.0502977, "lon": 15.4504404, "tags": {"amenity": "charging_station", "brand": "Enel X", "brand:wikidata": "Q5376815", "capacity": "2", "name": "Enel X", "operator": "Enel X", "operator:wikidata": "Q5376815"}}, {"type": "node", "id": 11745276170, "lat": 40.0498155, "lon": 15.4509225, "tags": {"amenity": "charging_station", "capacity": "2", "operator": "Be Charge", "operator:wikidata": "Q113289535"}}]}