{"version": 0.6, "generator": "Overpass API 0.7.62.1 084b4234", "osm3s": {"timestamp_osm_base": "2024-11-11T19:32:46Z", "copyright": "The data included in this document is from www.openstreetmap.org. The data is made available under ODbL."}, "elements": [{"type": "node", "id": 253963523, "lat": 45.5152399, "lon": 9.1930974, "tags": {"addr:city": "Milano", "addr:housenumber": "5", "addr:postcode": "20162", "addr:street": "Via Gian Battista Passerini", "amenity": "library", "email": "C.BiblioNiguarda@comune.milano.it", "fax": "+39 02 88462541", "name": "Biblioteca Comunale Niguarda", "opening_hours": "Mo 24:30-19:00; Tu-Fr 09:30-19:00; Sa 10:00-14:00", "operator": "Comune di Milano", "operator:type": "government", "phone": "+39 02 88462542", "ref:isil": "IT-MI0496", "source": "www.comune.milano.it", "website": "https://milano.biblioteche.it/library/niguarda/", "wheelchair": "yes"}}, {"type": "node", "id": 253971926, "lat": 45.4972154, "lon": 9.1960641, "tags": {"addr:city": "Milano", "addr:housenumber": "100", "addr:postcode": "20125", "addr:street": "Viale Zara", "amenity": "library", "email": "C.BiblioZara@comune.milano.it", "fax": "+39 02 88462822", "name": "Biblioteca Comunale Zara", "opening_hours": "Tu, Th 09:30-14:30; We, Fr 14:00-19:00; Sa 10:00-14:00; Su, Mo off", "operator": "Comune di Milano", "operator:type": "government", "phone": "+39 02 88462823", "ref:isil": "IT-MI1291", "source": "www.comune.milano/biblioteche", "website": "https://milano.biblioteche.it/library/zara/", "wheelchair": "yes", "wikidata": "Q112941683"}}, {"type": "node", "id": 259592279, "lat": 45.465067, "lon": 9.1519408}, {"type": "node", "id": 259592280, "lat": 45.4651413, "lon": 9.1520573}, {"type": "node", "id": 259592281, "lat": 45.464978, "lon": 9.1522689}, {"type": "node", "id": 259592282, "lat": 45.4649037, "lon": 9.1521524}, {"type": "node", "id": 441580397, "lat": 45.4405617, "lon": 9.2175278, "tags": {"addr:city": "Milano", "addr:housenumber": "18", "addr:postcode": "20139", "addr:street": "Via Oglio", "amenity": "library", "email": "biblioteca.oglio@comune.milano.it", "fax": "+39 02 88462972", "name": "Biblioteca Comunale Oglio", "opening_hours": "Tu, Th 09:30-14:30; We, Fr 14:00-19:00; Sa 10:00-14:00; Su, Mo off", "operator": "Comune di Milano", "operator:type": "government", "phone": "+39 02 88462971", "ref:isil": "IT-MI0497", "website": "https://milano.biblioteche.it/library/oglio", "wheelchair": "yes"}}, {"type": "node", "id": 525654963, "lat": 45.476817, "lon": 9.1896788}, {"type": "node", "id": 525654964, "lat": 45.4767967, "lon": 9.1897855}, {"type": "node", "id": 525654965, "lat": 45.4768938, "lon": 9.1898253}, {"type": "node", "id": 525654967, "lat": 45.4768613, "lon": 9.1899851}, {"type": "node", "id": 525654968, "lat": 45.4767637, "lon": 9.1899463}, {"type": "node", "id": 525654970, "lat": 45.4767505, "lon": 9.1900117}, {"type": "node", "id": 525654972, "lat": 45.4769163, "lon": 9.1900756}, {"type": "node", "id": 525654974, "lat": 45.4769247, "lon": 9.1900477}, {"type": "node", "id": 525654976, "lat": 45.477, "lon": 9.1901111}, {"type": "node", "id": 525654977, "lat": 45.4770439, "lon": 9.1901259}, {"type": "node", "id": 525654979, "lat": 45.4771308, "lon": 9.1898529}, {"type": "node", "id": 525654983, "lat": 45.4771389, "lon": 9.1898051}, {"type": "node", "id": 611597111, "lat": 45.448677, "lon": 9.188972, "tags": {"addr:city": "Milano", "addr:housenumber": "5", "addr:postcode": "20136", "addr:street": "Via Ulisse Gobbi", "amenity": "library", "email": "infobiblio@unibocconi.it", "internet_access": "yes", "internet_access:fee": "no", "name": "Biblioteca Universit\u00e0 Bocconi", "opening_hours": "08:30-24:00", "operator": "Universit\u00e0 Bocconi", "operator:type": "university", "phone": "+39 02 58365027", "website": "https://lib.unibocconi.it/"}}, {"type": "node", "id": 1029667847, "lat": 45.4723669, "lon": 9.1888642, "tags": {"addr:city": "Milano", "addr:housenumber": "28", "addr:postcode": "20121", "addr:street": "Via Brera", "amenity": "library", "email": "b-brai.informazioni@beniculturali.it", "level": "1", "name": "Biblioteca Nazionale Braidense", "opening_hours": "Mo-Fr 09:30-17:00", "operator": "Ministero della Cultura", "operator:type": "government", "phone": "+39 02 72263401", "website": "http://www.braidense.it/", "website:booking": "https://booking.bibliotecabraidense.org/", "wikidata": "Q771894", "wikimedia_commons": "Category:Biblioteca Nazionale Braidense", "wikipedia": "it:Biblioteca Nazionale Braidense"}}, {"type": "node", "id": 1029671939, "lat": 45.5166084, "lon": 9.1673769, "tags": {"addr:city": "Milano", "addr:country": "IT", "addr:housenumber": "21", "addr:postcode": "20161", "addr:street": "Viale Affori", "amenity": "library", "email": "c.biblio.affori@comune.milano.it", "fax": "+39 02 88462521", "name": "Biblioteca Comunale Affori", "opening_hours": "Mo, We, Fr 14:00-19:00; Tu,Th 09:30-14:40; Sa 10:00-14:00; Su off", "operator": "Comune di Milano", "operator:type": "government", "phone": "+39 02 88462522", "ref:isil": "IT-MI0181", "source": "www.comune.milano.it/biblioteche", "website": "https://milano.biblioteche.it/library/affori/", "wheelchair": "yes", "wikidata": "Q112941453"}}, {"type": "node", "id": 1111569501, "lat": 45.5001588, "lon": 9.2401896}, {"type": "node", "id": 1111569747, "lat": 45.5004257, "lon": 9.2401068}, {"type": "node", "id": 1111569917, "lat": 45.5002798, "lon": 9.2403423}, {"type": "node", "id": 1149228717, "lat": 45.4795274, "lon": 9.2268098, "tags": {"addr:city": "Milano", "addr:housenumber": "2", "addr:postcode": "20131", "addr:street": "Via Andre' Marie Ampere", "amenity": "library", "name": "Biblioteca Campus Leonardo", "name:en": "Leonardo Campus Library", "old_name": "Biblioteca Centrale di Architettura - Politecnico di Milano", "opening_hours": "Mo-Sa 08:00-23:45", "operator": "Politecnico di Milano", "operator:type": "university", "phone": "+39 02 23992685", "short_name": "BCL", "website": "https://www.biblio.polimi.it/sedi-e-orari/bcl-biblioteca", "wheelchair": "no", "wikidata": "Q3639564", "wikipedia": "it:Biblioteca Campus Leonardo del Politecnico di Milano"}}, {"type": "node", "id": 1302756406, "lat": 45.4744263, "lon": 9.1751434, "tags": {"entrance": "main"}}, {"type": "node", "id": 1422087106, "lat": 45.4636207, "lon": 9.1860483, "tags": {"addr:city": "Milano", "addr:housenumber": "2", "addr:postcode": "20123", "addr:street": "Piazza Pio Undicesimo", "amenity": "library", "email": "direzione.biblioteca@ambrosiana.it", "name": "Biblioteca Ambrosiana", "name:it": "Biblioteca Ambrosiana", "name:pl": "Biblioteka Ambrozja\u0144ska", "name:ru": "\u0410\u043c\u0431\u0440\u043e\u0437\u0438\u0430\u043d\u0441\u043a\u0430\u044f \u0431\u0438\u0431\u043b\u0438\u043e\u0442\u0435\u043a\u0430", "name:uk": "\u0410\u043c\u0431\u0440\u043e\u0437\u0456\u0430\u043d\u0441\u044c\u043a\u0430 \u0431\u0456\u0431\u043b\u0456\u043e\u0442\u0435\u043a\u0430", "opening_hours": "Mo-Fr 09:00-13:00", "operator": "Veneranda Biblioteca Ambrosiana", "operator:type": "religious", "phone": "+39 02 806921", "website": "https://www.ambrosiana.it/chi-siamo/ambrosiana/biblioteca/", "wikidata": "Q815611", "wikipedia": "it:Biblioteca Ambrosiana"}}, {"type": "node", "id": 1704594397, "lat": 45.5003046, "lon": 9.2399542}, {"type": "node", "id": 1706369879, "lat": 45.4913863, "lon": 9.1461543, "tags": {"addr:city": "Milano", "addr:housenumber": "5", "addr:postcode": "20151", "addr:street": "Piazzale Francesco Accursio", "amenity": "library", "email": "c.biblioaccursio@comune.milano.it", "name": "Biblioteca Comunale Accursio", "opening_hours": "Mo,We,Fr 14:00-19:00; Sa 10:00-14:00; Su off; Tu,Th 09:00-14:00", "operator": "Comune di Milano", "operator:type": "government", "operator:wikidata": "Q103903096", "phone": "+39 02 88464300", "website": "https://milano.biblioteche.it/library/accursio/"}}, {"type": "node", "id": 1706387283, "lat": 45.4633673, "lon": 9.0903283, "tags": {"addr:city": "Milano", "addr:housenumber": "10", "addr:postcode": "20153", "addr:street": "Via Pistoia", "amenity": "library", "email": "c.bibliobaggio@comune.milano.it", "name": "Biblioteca Comunale Baggio", "opening_hours": "Mo 14:30-19:00; Tu-Fr 09:00-19:00; Sa 10:00-18:00; Su off", "operator": "Comune di Milano", "operator:type": "government", "phone": "+39 02 88465804", "source": "www.comune.milano.it", "website": "https://milano.biblioteche.it/library/baggio/"}}, {"type": "node", "id": 1706428187, "lat": 45.5249398, "lon": 9.177193, "tags": {"addr:city": "Milano", "addr:housenumber": "17", "addr:postcode": "20161", "addr:street": "Via Sant'Arnaldo", "amenity": "library", "email": "c.bibliocassinaanna@comune.milano.it", "name": "Biblioteca Comunale Cassina Anna", "opening_hours": "Mo, We, Fr 14:00-19:00; Tu, Th 09:30-14:30; Sa 10:00-14:00; Su off", "operator": "Comune di Milano", "operator:type": "government", "phone": "+39 02 88465800", "source": "www.comune.milano.it/biblioteche", "website": "https://milano.biblioteche.it/library/cassinaanna/", "wikidata": "Q31995238"}}, {"type": "node", "id": 1706435110, "lat": 45.4304092, "lon": 9.1738751, "tags": {"addr:city": "Milano", "addr:housenumber": "3", "addr:postcode": "20142", "addr:street": "Via San Domenico Savio", "amenity": "library", "email": "c.bibliochiesarossa@comune.milano.it", "name": "Biblioteca Comunale Chiesa Rossa", "opening_hours": "Tu-Fr 09:30-19:00; Sa 10:00-14:00; Su, Mo off", "operator": "Comune di Milano", "operator:type": "government", "phone": "+39 02 88465991", "website": "https://biblioteche.comune.milano.it/library/chiesarossa", "wikidata": "Q112941550"}}, {"type": "node", "id": 1706453763, "lat": 45.4361949, "lon": 9.1717739, "tags": {"addr:city": "Milano", "addr:housenumber": "6", "addr:postcode": "20142", "addr:street": "Via Fra Cristoforo", "amenity": "library", "email": "c.bibliofracristoforo@comune.milano.it", "internet_access": "yes", "internet_access:fee": "no", "name": "Biblioteca Comunale Fra Cristoforo", "opening_hours": "Tu-Fr 09:00-19:00; Sa 10:00-18:00; Su, Mo off", "operator": "Comune di Milano", "operator:type": "government", "operator:wikidata": "Q103903096", "phone": "+39 02 88465806", "ref:isil": "IT-MI1188", "website": "https://biblioteche.comune.milano.it/library/fracristoforo", "wheelchair": "yes", "wikidata": "Q112941674"}}, {"type": "node", "id": 1706464359, "lat": 45.4962275, "lon": 9.1149541, "tags": {"addr:city": "Milano", "addr:housenumber": "21", "addr:postcode": "20151", "addr:street": "Via Giacomo Quarenghi", "amenity": "library", "email": "c.bibliogallaratese@comune.milano.it", "name": "Biblioteca Comunale Gallaratese", "opening_hours": "Mo 14:30-19:00; Tu-Fr 09:30-19:00; Sa 10:00-14:00; Su off", "operator": "Comune di Milano", "operator:type": "government", "phone": "+39 02 88464270", "source": "www.comune.milano.it/biblioteche", "website": "https://milano.biblioteche.it/library/gallaratese/"}}, {"type": "node", "id": 1706476775, "lat": 45.4475452, "lon": 9.1344417, "tags": {"addr:city": "Milano", "addr:housenumber": "9", "addr:postcode": "20147", "addr:street": "Via Emanuele Odazio", "amenity": "library", "email": "c.bibliolorenteggio@comune.milano.it", "name": "Biblioteca Comunale Lorenteggio", "opening_hours": "Mo, We, Fr 14:00-19:00; Tu, Th 09:30-14:30; Sa 10:00-14:00; Su off", "operator": "Comune di Milano", "operator:type": "government", "phone": "+39 02 88465811", "source": "www.comune.milano.it/biblioteche", "website": "https://milano.biblioteche.it/library/lorenteggio/"}}, {"type": "node", "id": 1706628527, "lat": 45.4748518, "lon": 9.2085206, "tags": {"addr:city": "Milano", "addr:housenumber": "2/4", "addr:postcode": "20129", "addr:street": "Via Paolo Frisi", "amenity": "library", "email": "c.bibliovenezia@comune.milano.it", "name": "Biblioteca Comunale Venezia", "opening_hours": "Mo, We, Fr 14:00-19:00; Tu, Th 09:30-14:30; Sa 10:00-14:00; Su off", "operator": "Comune di Milano", "operator:type": "government", "operator:wikidata": "Q103903096", "phone": "+39 02 88465799", "source": "www.comune.milano.it/biblioteche", "website": "https://milano.biblioteche.it/library/venezia/"}}, {"type": "node", "id": 1706630606, "lat": 45.4542533, "lon": 9.1960954, "tags": {"addr:city": "Milano", "addr:housenumber": "15", "addr:postcode": "20122", "addr:street": "Corso di Porta Vigentina", "amenity": "library", "email": "c.bibliovigentina@comune.milano.it", "name": "Biblioteca Comunale Vigentina", "opening_hours": "Mo, We, Fr 14:00-19:00; Tu, Th 09:30-14:30; Sa, Su off", "operator": "Comune di Milano", "operator:type": "government", "operator:wikidata": "Q103903096", "phone": "+39 02 88465798", "source": "www.comune.milano.it/biblioteche", "website": "https://biblioteche.comune.milano.it/library/vigentina"}}, {"type": "node", "id": 1708077126, "lat": 45.5156338, "lon": 9.1304788, "tags": {"access": "yes", "addr:city": "Milano", "addr:housenumber": "7", "addr:postcode": "20157", "addr:street": "Via Otranto", "amenity": "library", "email": "c.biblioquartooggiaro@comune.milano.it", "fax": "+390288465820", "name": "Biblioteca Comunale Quarto Oggiaro", "opening_hours": "Tu,Th 09:30-14:30; We,Fr 14:00-19:00; Sa 10:00-14:00; Su,Mo,PH off; Aug 14-28: off", "opening_hours:url": "https://milano.biblioteche.it/library/quartooggiaro/timetable", "operator": "Comune di Milano", "operator:type": "public", "operator:wikidata": "Q103903096", "phone": "+390288465813", "ref:ISTAT": "LMMI0046", "ref:isil": "IT-MI0144", "start_date": "1963", "url": "https://anagrafe.iccu.sbn.it/isil/IT-MI0144", "website": "https://milano.biblioteche.it/library/quartooggiaro/"}}, {"type": "node", "id": 1954796264, "lat": 45.4767723, "lon": 9.1899521}, {"type": "node", "id": 1954796265, "lat": 45.4768042, "lon": 9.1897888}, {"type": "node", "id": 1954796268, "lat": 45.4770076, "lon": 9.1900702}, {"type": "node", "id": 1954796271, "lat": 45.4771, "lon": 9.1898425}, {"type": "node", "id": 2001115217, "lat": 45.4796135, "lon": 9.2371039}, {"type": "node", "id": 2001115218, "lat": 45.4794068, "lon": 9.2373841}, {"type": "node", "id": 2001115221, "lat": 45.4798821, "lon": 9.2377788}, {"type": "node", "id": 2001115223, "lat": 45.4794544, "lon": 9.2375681}, {"type": "node", "id": 2001115224, "lat": 45.4794069, "lon": 9.2371038}, {"type": "node", "id": 2001115225, "lat": 45.4797305, "lon": 9.2375684}, {"type": "node", "id": 2001115226, "lat": 45.4796135, "lon": 9.237196}, {"type": "node", "id": 2001115229, "lat": 45.4797305, "lon": 9.2373844}, {"type": "node", "id": 2001115230, "lat": 45.4794543, "lon": 9.2377785}, {"type": "node", "id": 2021621702, "lat": 45.4796421, "lon": 9.2371865}, {"type": "node", "id": 2021621703, "lat": 45.479642, "lon": 9.2371961}, {"type": "node", "id": 2021621708, "lat": 45.4796595, "lon": 9.2371711}, {"type": "node", "id": 2021621709, "lat": 45.4796595, "lon": 9.2371865}, {"type": "node", "id": 2021621725, "lat": 45.4798823, "lon": 9.2371713}, {"type": "node", "id": 2135496310, "lat": 45.4764881, "lon": 9.2358517, "tags": {"addr:city": "Milano", "addr:housenumber": "21", "addr:postcode": "20133", "addr:street": "Via Carlo Valvassori Peroni", "amenity": "library", "email": "polo.sbn@consorziocidis.it", "level": "1", "name": "Biblioteca ISU", "opening_hours": "Mo-Fr 08:00-18:20; Sa-Su off", "operator": "CIDIS", "operator:type": "university", "phone": "+39 02 23956252", "website": "https://consorziocidis.it/index.php?option=com_content&view=article&id=66&Itemid=68"}}, {"type": "node", "id": 2533582143, "lat": 45.4557131, "lon": 9.2206856}, {"type": "node", "id": 2533582151, "lat": 45.4557125, "lon": 9.2205178}, {"type": "node", "id": 2533582154, "lat": 45.4555156, "lon": 9.2207632}, {"type": "node", "id": 2533582157, "lat": 45.4555089, "lon": 9.2205193}, {"type": "node", "id": 2533582161, "lat": 45.4555155, "lon": 9.2207264}, {"type": "node", "id": 2533582164, "lat": 45.4553095, "lon": 9.2204514}, {"type": "node", "id": 2533582167, "lat": 45.4555721, "lon": 9.220726}, {"type": "node", "id": 2533582170, "lat": 45.4555087, "lon": 9.22045}, {"type": "node", "id": 2533582173, "lat": 45.4555719, "lon": 9.2206866}, {"type": "node", "id": 2533582175, "lat": 45.4553107, "lon": 9.2207647}, {"type": "node", "id": 2562152294, "lat": 45.470909, "lon": 9.1970514, "tags": {"addr:city": "Milano", "addr:housenumber": "14", "addr:postcode": "20121", "addr:street": "Via Senato", "amenity": "library", "email": "segreteria@bibliotecadiviasenato.it", "name": "Biblioteca di Via Senato", "operator": "Fondazione Biblioteca di via Senato", "operator:type": "public", "phone": "+39 02 76215318", "website": "https://www.bibliotecadiviasenato.it/", "wikidata": "Q81173246"}}, {"type": "node", "id": 2584309484, "lat": 45.4621276, "lon": 9.1981128, "tags": {"addr:city": "Milano", "addr:country": "IT", "addr:housenumber": "6", "addr:postcode": "20122", "addr:street": "Corso di Porta Vittoria", "alt_name": "Biblioteca Comunale Sormani", "amenity": "library", "email": "c.bibliocentrale@comune.milano.it", "fax": "+39 02 88463353", "name": "Biblioteca Comunale Centrale Sormani", "opening_hours": "Mo 14:30-19:30; Tu-Fr 09:30-19:30; Sa 10:00-18:00; Su off", "operator": "Comune di Milano", "operator:type": "government", "phone:it": "800 880066", "ref:isil": "IT-MI0162", "website": "https://milano.biblioteche.it/library/sormani/", "wikidata": "Q3639576", "wikimedia_commons": "Category:Biblioteca Sormani", "wikipedia": "it:Biblioteca comunale centrale di Milano"}}, {"type": "node", "id": 2943481408, "lat": 45.4740724, "lon": 9.1195119}, {"type": "node", "id": 2943481410, "lat": 45.4742051, "lon": 9.119496}, {"type": "node", "id": 2943481413, "lat": 45.4741162, "lon": 9.119219}, {"type": "node", "id": 2943481415, "lat": 45.4741639, "lon": 9.1194479}, {"type": "node", "id": 2943481416, "lat": 45.4742234, "lon": 9.1193445}, {"type": "node", "id": 2943481417, "lat": 45.473948, "lon": 9.1198294}, {"type": "node", "id": 2943481419, "lat": 45.4740655, "lon": 9.1196253}, {"type": "node", "id": 2943481424, "lat": 45.4740307, "lon": 9.1195845}, {"type": "node", "id": 2943481425, "lat": 45.4741462, "lon": 9.1195983}, {"type": "node", "id": 2943481426, "lat": 45.4738386, "lon": 9.1197013}, {"type": "node", "id": 3207374438, "lat": 45.4649559, "lon": 9.1891348, "tags": {"addr:city": "Milano", "addr:housenumber": "1", "addr:postcode": "20121", "addr:street": "Via Silvio Pellico", "amenity": "library", "contact:phone": "+39 0239831009", "level": "4", "name": "Biblioteca Europea di Informazione e Cultura", "note": "Non ancora aperta", "operator": "Fondazione BEIC \u2013 Biblioteca Europea di Informazione e Cultura", "short_name": "BEIC", "website": "https://www.beic.it/", "wikidata": "Q3639582", "wikimedia_commons": "Category:BEIC", "wikipedia": "it:Biblioteca europea di informazione e cultura"}}, {"type": "node", "id": 3378249229, "lat": 45.4992675, "lon": 9.147417}, {"type": "node", "id": 3378249230, "lat": 45.499233, "lon": 9.1476941}, {"type": "node", "id": 3378249231, "lat": 45.4993414, "lon": 9.1477216}, {"type": "node", "id": 3378249232, "lat": 45.4993747, "lon": 9.1474442}, {"type": "node", "id": 3719680175, "lat": 45.5051577, "lon": 9.2244635}, {"type": "node", "id": 3719680176, "lat": 45.5051674, "lon": 9.2245804}, {"type": "node", "id": 3719680194, "lat": 45.505283, "lon": 9.2245601}, {"type": "node", "id": 3719680196, "lat": 45.5052946, "lon": 9.2244409}, {"type": "node", "id": 3719681102, "lat": 45.5051625, "lon": 9.2245209, "tags": {"entrance": "main"}}, {"type": "node", "id": 4215935003, "lat": 45.4593405, "lon": 9.1938023, "tags": {"addr:city": "Milano", "addr:housenumber": "7", "addr:postcode": "20122", "addr:street": "Via Festa del Perdono", "amenity": "library", "email": "prestito.storia@unimi.it", "name": "Biblioteca di Scienze della Storia e della Documentazione Storica", "opening_hours": "Mo-Fr 09:30-17:00", "operator": "Universit\u00e0 degli studi di Milano", "operator:type": "university", "phone": "+39 02 50312973", "website": "https://www.sba.unimi.it/Biblioteche/storia/2006.html"}}, {"type": "node", "id": 4425262905, "lat": 45.5032082, "lon": 9.1571452, "tags": {"addr:city": "Milano", "addr:housenumber": "4", "addr:postcode": "20156", "addr:street": "Via Raffaele Lambruschini", "air_conditioning": "yes", "amenity": "library", "check_date:opening_hours": "2023-09-13", "internet_access": "wlan", "name": "Biblioteca Bovisa La Masa", "name:en": "Bovisa La Masa Library", "opening_hours": "Mo-Su 08:00-21:00", "phone": "+39 02 23998053", "short_name": "BBL", "website": "https://www.biblio.polimi.it/sedi-e-orari/bbl-biblioteca", "wheelchair": "yes"}}, {"type": "node", "id": 4530910415, "lat": 45.4726094, "lon": 9.2022855, "tags": {"addr:city": "Milano", "addr:housenumber": "55", "addr:postcode": "20121", "addr:street": "Corso Venezia", "amenity": "library", "email": "C.MSNMbiblioteca@comune.milano.it", "name": "Biblioteca del Museo civico di storia naturale", "opening_hours": "Mo-Fr 10:00-12:30, 13:30-17:00; Sa-Su off", "operator": "Comune di Milano", "operator:type": "government", "operator:wikidata": "Q103903096", "phone": "+39 02 88463315", "website": "https://museodistorianaturalemilano.it/il-museo/la-biblioteca", "wikidata": "Q3639653", "wikipedia": "it:Biblioteca del Museo civico di storia naturale (Milano)"}}, {"type": "node", "id": 4749120054, "lat": 45.4595511, "lon": 9.1947287, "tags": {"addr:city": "Milano", "addr:housenumber": "7", "addr:postcode": "20122", "addr:street": "Via Festa del Perdono", "amenity": "library", "email": "info.bsgu@unimi.it", "internet_access": "wlan", "internet_access:ssid": "Eduroam", "name": "Biblioteca di Studi giuridici e umanistici - Sala Centrale", "opening_hours": "Mo-Fr 09:30-23:00", "operator": "Universit\u00e0 degli Studi di Milano", "operator:type": "university", "phone": "+39 02 50312468", "website": "https://www.sba.unimi.it/Biblioteche/bsgu/1864.html"}}, {"type": "node", "id": 4763842790, "lat": 45.4598912, "lon": 9.1940277, "tags": {"addr:city": "Milano", "addr:housenumber": "7", "addr:postcode": "20122", "addr:street": "Via Festa del Perdono", "amenity": "library", "internet_access": "wlan", "internet_access:ssid": "Eduroam", "name": "Biblioteca di Studi Giuridici e umanistici - Sala Crociera", "opening_hours": "Mo-Fr 09:00-23:00", "operator": "Universit\u00e0 degli Studi di Milano", "operator:type": "university", "phone": "+39 02 50312986", "website": "https://www.sba.unimi.it/Biblioteche/bsgu/2090.html"}}, {"type": "node", "id": 4763850473, "lat": 45.4596843, "lon": 9.1944826, "tags": {"addr:city": "Milano", "addr:housenumber": "7", "addr:postcode": "20122", "addr:street": "Via Festa del Perdono", "amenity": "library", "internet_access": "wlan", "internet_access:ssid": "Eduroam", "level": "-1", "name": "Biblioteca di Studi giuridici e umanistici - Sala Sottocrociera", "opening_hours": "Mo-Fr 09:00-19:00", "operator": "Universit\u00e0 degli Studi di Milano", "operator:type": "university", "phone": "+39 02 50312288", "website": "https://www.sba.unimi.it/Biblioteche/bsgu/2090.html"}}, {"type": "node", "id": 4764090367, "lat": 45.4597565, "lon": 9.1935604, "tags": {"addr:city": "Milano", "addr:housenumber": "7", "addr:postcode": "20122", "addr:street": "Via Festa del Perdono", "amenity": "library", "internet_access": "wlan", "internet_access:ssid": "Eduroam", "level": "-1", "name": "Biblioteca di Studi giuridici e umanistici - Sala Common Law", "opening_hours": "Mo-Fr 09:00-18:00", "operator": "Universit\u00e0 degli Studi di Milano", "operator:type": "university", "phone": "+39 02 50312290", "website": "https://www.sba.unimi.it/Biblioteche/bsgu/2090.html"}}, {"type": "node", "id": 4824578035, "lat": 45.475415, "lon": 9.1930383, "tags": {"addr:city": "Milano", "addr:housenumber": "2", "addr:postcode": "20121", "addr:street": "Piazza Sant'Angelo", "amenity": "library", "email": "info@bibliotecafrancescana.it", "name": "Biblioteca Francescana", "opening_hours": "\"Solosu appuntamento\"", "operator": "Frati Minori della Provincia di Lombardia", "operator:type": "religious", "phone": "+39 02 29002736", "website": "https://www.bibliotecafrancescana.it/"}}, {"type": "node", "id": 5414695462, "lat": 45.4744207, "lon": 9.175074}, {"type": "node", "id": 5414695463, "lat": 45.4743694, "lon": 9.1752233}, {"type": "node", "id": 5414695464, "lat": 45.474333, "lon": 9.1751769}, {"type": "node", "id": 5414695465, "lat": 45.4743089, "lon": 9.1751163}, {"type": "node", "id": 5414695466, "lat": 45.4742997, "lon": 9.175048}, {"type": "node", "id": 5414695467, "lat": 45.4743063, "lon": 9.174979}, {"type": "node", "id": 5414695468, "lat": 45.4743279, "lon": 9.1749166}, {"type": "node", "id": 5414695469, "lat": 45.4743624, "lon": 9.1748674}, {"type": "node", "id": 5414695470, "lat": 45.4744062, "lon": 9.1748365}, {"type": "node", "id": 5414695471, "lat": 45.474447, "lon": 9.1748271}, {"type": "node", "id": 5414695472, "lat": 45.4744882, "lon": 9.1748339}, {"type": "node", "id": 5414695473, "lat": 45.4745264, "lon": 9.1748564}, {"type": "node", "id": 5414695474, "lat": 45.4745589, "lon": 9.1748929}, {"type": "node", "id": 5414695475, "lat": 45.4745833, "lon": 9.1749407}, {"type": "node", "id": 5414695476, "lat": 45.4745976, "lon": 9.1749961}, {"type": "node", "id": 5414695477, "lat": 45.4746008, "lon": 9.1750549}, {"type": "node", "id": 5414695478, "lat": 45.4745927, "lon": 9.1751128}, {"type": "node", "id": 5414695479, "lat": 45.4745738, "lon": 9.1751653}, {"type": "node", "id": 5414695480, "lat": 45.4745188, "lon": 9.1751202, "tags": {"entrance": "main"}}, {"type": "node", "id": 5414695481, "lat": 45.4743918, "lon": 9.175237}, {"type": "node", "id": 5414695482, "lat": 45.4744612, "lon": 9.1750448}, {"type": "node", "id": 5414695483, "lat": 45.4744226, "lon": 9.1750849}, {"type": "node", "id": 5414695484, "lat": 45.4744268, "lon": 9.1750943}, {"type": "node", "id": 5414695485, "lat": 45.4744329, "lon": 9.1751014}, {"type": "node", "id": 5414695486, "lat": 45.4744403, "lon": 9.1751053}, {"type": "node", "id": 5414695487, "lat": 45.4744213, "lon": 9.1750629}, {"type": "node", "id": 5414695488, "lat": 45.4744246, "lon": 9.175052}, {"type": "node", "id": 5414695489, "lat": 45.4744303, "lon": 9.1750433}, {"type": "node", "id": 5414695490, "lat": 45.4744377, "lon": 9.1750378}, {"type": "node", "id": 5414695491, "lat": 45.4744459, "lon": 9.1750362}, {"type": "node", "id": 5414695492, "lat": 45.4744541, "lon": 9.1750386}, {"type": "node", "id": 5414695493, "lat": 45.4744664, "lon": 9.1750541}, {"type": "node", "id": 5414695494, "lat": 45.4744692, "lon": 9.1750653}, {"type": "node", "id": 5414695495, "lat": 45.4744686, "lon": 9.1750793}, {"type": "node", "id": 5912730458, "lat": 45.4762292, "lon": 9.2321998, "tags": {"entrance": "main", "wheelchair": "yes"}}, {"type": "node", "id": 5912730459, "lat": 45.4762373, "lon": 9.2321377}, {"type": "node", "id": 5912730995, "lat": 45.4765452, "lon": 9.2322974}, {"type": "node", "id": 5912731017, "lat": 45.4762203, "lon": 9.2322883}, {"type": "node", "id": 5912731018, "lat": 45.4762776, "lon": 9.2326804}, {"type": "node", "id": 5912731019, "lat": 45.4762184, "lon": 9.2326}, {"type": "node", "id": 5996494669, "lat": 45.5052319, "lon": 9.166787, "tags": {"addr:city": "Milano", "addr:housenumber": "72", "addr:postcode": "20158", "addr:street": "Via Giuseppe Candiani", "amenity": "library", "name": "Biblioteca Bovisa Candiani", "name:en": "Bovisa Candiani Library", "opening_hours": "Mo-Fr 08:30-20:45", "operator": "Politecnico di Milano", "operator:type": "university", "phone": "+39 02 23995684", "short_name": "BBC", "website": "https://www.biblio.polimi.it/sedi-e-orari/bbc-biblioteca"}}, {"type": "node", "id": 6296170146, "lat": 45.5037729, "lon": 9.1685324, "tags": {"addr:city": "Milano", "addr:housenumber": "76", "addr:postcode": "20158", "addr:street": "Via Filippo Baldinucci", "amenity": "library", "email": "c.bibliodergano@comune.milano.it", "name": "Biblioteca Comunale Dergano-Bovisa", "opening_hours": "Tu, Th 09:30-14:30; We, Fr 14:00-19:00; Sa 10:00-14:00; Su-Mo off", "operator": "Comune di Milano", "operator:type": "government", "phone": "+39 02 88465807", "website": "https://biblioteche.comune.milano.it/library/dergano", "wikidata": "Q64983710"}}, {"type": "node", "id": 6411467454, "lat": 45.459324, "lon": 9.1944629, "tags": {"addr:city": "Milano", "addr:housenumber": "7", "addr:postcode": "20122", "addr:street": "Via Festa del Perdono", "addr:unit": "Cortile Ghiacciaia", "amenity": "library", "email": "biblio.filo@unimi.it", "internet_access": "wlan", "name": "Biblioteca di Filosofia", "opening_hours": "Mo-Fr 09:00-18:00", "operator": "Universit\u00e0 degli Studi di Milano", "operator:type": "university", "phone": "+39 02 50312721", "website": "https://www.sba.unimi.it/Biblioteche/filosofia/1865.html"}}, {"type": "node", "id": 6448246793, "lat": 45.4313478, "lon": 9.2003618, "tags": {"addr:city": "Milano", "addr:housenumber": "6", "addr:postcode": "20141", "addr:street": "Via Noto", "amenity": "library", "email": "bibliosam@unimi.it", "name": "Biblioteca di Storia dell'Arte, della Musica e dello Spettacolo", "opening_hours": "Tu-Fr 09:00-18:00", "operator": "Universit\u00e0 degli Studi di Milano", "operator:type": "university", "phone": "+39 02 50332029", "website": "https://www.sba.unimi.it/Biblioteche/arte/1863.html"}}, {"type": "node", "id": 6769564346, "lat": 45.4313301, "lon": 9.1632756, "tags": {"addr:city": "Milano", "addr:housenumber": "18", "addr:postcode": "20142", "addr:street": "Via San Paolino", "amenity": "library", "email": "c.bibliosantantambrogio@comune.milano.it", "name": "Biblioteca Comunale Sant'Ambrogio", "opening_hours": "Tu, Th 09:30-14:30; Mo, We, Fr 14:00-19:00; Sa 10:00-14:00; Su off", "operator": "Comune di Milano", "operator:type": "government", "operator:wikidata": "Q103903096", "phone": "+39 02 88465814", "ref:isil": "IT-MI0498", "website": "https://biblioteche.comune.milano.it/library/santambrogio", "wheelchair": "yes"}}, {"type": "node", "id": 6895175919, "lat": 45.4744197, "lon": 9.1751614}, {"type": "node", "id": 6895175938, "lat": 45.4745293, "lon": 9.1751288}, {"type": "node", "id": 6919857025, "lat": 45.4796247, "lon": 9.2373843}, {"type": "node", "id": 6919857035, "lat": 45.4796236, "lon": 9.237196}, {"type": "node", "id": 6919857043, "lat": 45.4795495, "lon": 9.2375682}, {"type": "node", "id": 6919857044, "lat": 45.4795495, "lon": 9.2373843}, {"type": "node", "id": 6979315639, "lat": 45.444923, "lon": 9.1830534, "tags": {"addr:city": "Milano", "addr:housenumber": "41", "addr:postcode": "20136", "addr:street": "Viale Tibaldi", "amenity": "library", "email": "c.bibliotibaldi@comune.milano.it", "name": "Biblioteca Comunale Tibaldi", "opening_hours": "Tu-Fr 09:30-19:00; Sa 10:00-14:00; Mo, Su off", "operator": "Comune di Milano", "operator:type": "government", "phone": "+39 02 88462920", "ref:isil": "IT-MI0499", "website": "https://biblioteche.comune.milano.it/library/tibaldi", "wheelchair": "yes"}}, {"type": "node", "id": 7191117562, "lat": 45.4754214, "lon": 9.2273586, "tags": {"addr:city": "Milano", "addr:housenumber": "2", "addr:postcode": "20133", "addr:street": "Via Giovanni Celoria", "amenity": "library", "internet_access": "yes", "internet_access:fee": "customers", "name": "Biblioteca di Scienze agrarie e alimentari", "opening_hours": "Mo-Fr 09:00-18:00", "operator": "Universit\u00e0 degli Studi di Milano", "phone": "+39 02 50316428", "website": "https://www.sba.unimi.it/Biblioteche/agraria/14108.html", "wheelchair": "limited"}}, {"type": "node", "id": 8283783657, "lat": 45.4796257, "lon": 9.2375682}, {"type": "node", "id": 9208609706, "lat": 45.4764885, "lon": 9.2321944}, {"type": "node", "id": 9208609707, "lat": 45.4764522, "lon": 9.2322487}, {"type": "node", "id": 9208609708, "lat": 45.476552, "lon": 9.2322854}, {"type": "node", "id": 9594400866, "lat": 45.4573404, "lon": 9.1992225, "tags": {"addr:city": "Milano", "addr:housenumber": "19", "addr:postcode": "20122", "addr:street": "Via della Commenda", "amenity": "library", "email": "bibliomedpc@unimi.itorario", "name": "Biblioteca del Polo Centrale di Medicina e Chirurgia", "opening_hours": "Mo-Fr 09:30-16:45", "operator": "Universit\u00e0 degli Studi", "operator:type": "university", "phone": "+39 02 50320845", "website": "https://www.sba.unimi.it/Biblioteche/polocentrale/1883.html"}}, {"type": "node", "id": 9595330712, "lat": 45.4738541, "lon": 9.2275607, "tags": {"addr:city": "Milano", "addr:housenumber": "50", "addr:postcode": "20133", "addr:street": "Via Cesare Saldini", "amenity": "library", "email": "biblio.mat@unimi.it", "name": "Biblioteca Matematica Giovanni Ricci", "opening_hours": "Mo-Fr 09:00-18:00", "operator": "Universit\u00e0 degli Studi", "operator:type": "university", "phone": "+39 02 50316116", "website": "https://www.sba.unimi.it/Biblioteche/mat/3180.html"}}, {"type": "node", "id": 9595403896, "lat": 45.4741005, "lon": 9.2294938, "tags": {"addr:city": "Milano", "addr:housenumber": "34", "addr:postcode": "20133", "addr:street": "Via Luigi Mangiagalli", "amenity": "library", "email": "geobib@unimi.it", "name": "Biblioteca di Scienze della Terra Ardito Desio", "opening_hours": "Mo-Fr 09:00-18:00", "operator": "Universit\u00e0 degli Studi -", "operator:type": "university", "phone": "+39 02 50315560", "website": "https://www.sba.unimi.it/Biblioteche/sterra/1877.html"}}, {"type": "node", "id": 9597550061, "lat": 45.4702077, "lon": 9.1783074, "tags": {"addr:city": "Milano", "addr:postcode": "20121", "addr:street": "Piazza Castello", "amenity": "library", "email": "c.ascbibliotrivulziana@comune.milano.it", "name": "Archivio Storico Civico e Biblioteca Trivulziana", "opening_hours": "Mo-Fr 10:00-15:00", "operator": "Comune di Milano", "operator:type": "government", "phone": "+39 02 88463696", "website": "https://trivulziana.milanocastello.it/", "wikidata": "Q974532", "wikipedia": "it:Biblioteca Trivulziana"}}, {"type": "node", "id": 11022996614, "lat": 45.4992463, "lon": 9.1475875}, {"type": "node", "id": 11766693757, "lat": 45.4767692, "lon": 9.1900189}, {"type": "node", "id": 11766693760, "lat": 45.4768724, "lon": 9.1900586}, {"type": "node", "id": 11819506253, "lat": 45.4795175, "lon": 9.2371039}, {"type": "node", "id": 11819506254, "lat": 45.4794477, "lon": 9.2371038}, {"type": "node", "id": 11819506259, "lat": 45.4796447, "lon": 9.2371865}, {"type": "node", "id": 11819507886, "lat": 45.4795148, "lon": 9.2377785}, {"type": "node", "id": 11933961772, "lat": 45.4629867, "lon": 9.0902818}, {"type": "node", "id": 11933961773, "lat": 45.4630682, "lon": 9.0906014}, {"type": "node", "id": 11933961774, "lat": 45.4629632, "lon": 9.0906462}, {"type": "node", "id": 11933961775, "lat": 45.4628859, "lon": 9.0903407}, {"type": "way", "id": 23947831, "nodes": [259592279, 259592280, 259592281, 259592282, 259592279], "tags": {"amenity": "library", "building": "public", "building:levels": "1", "email": "c.bibliosicilia@comune.milano.it", "name": "Biblioteca Comunale Sicilia", "opening_hours": "Mo, We, Fr 14:00-19:00; Tu,Th 09:30-14:40; Sa 10:00-14:00; Su off", "operator": "Comune di Milano", "operator:type": "government", "phone": "+39 02 88465863", "website": "https://biblioteche.comune.milano.it/library/biblioteca-sicilia"}}, {"type": "way", "id": 42206561, "nodes": [525654963, 525654964, 1954796265, 525654965, 525654967, 1954796264, 525654968, 525654970, 11766693757, 11766693760, 525654972, 525654974, 1954796268, 525654976, 525654977, 1954796271, 525654979, 525654983, 525654963], "tags": {"amenity": "library", "building": "museum", "disused:amenity": "place_of_worship", "email": "b-brai.mediabrera@infobeniculturali.it", "fax": "+39 02 72023910", "name": "Mediateca di Santa Teresa", "opening_hours": "Mo-Fr 09:30-13:30; Tu,Th 09:30-18:10", "phone": "+39 02 72263401", "website": "http://www.mediabrera.it/index/index.php", "wheelchair": "yes", "wikidata": "Q32011454", "wikimedia_commons": "Category:Mediateca Santa Teresa (Milan)"}}, {"type": "way", "id": 95936083, "nodes": [1704594397, 1111569747, 1111569917, 1111569501, 1704594397], "tags": {"amenity": "library", "building": "public", "building:levels": "1", "email": "C.BiblioCrescenzago@comune.milano.it", "fax": "+39 02 88442139", "internet_access": "wlan", "name": "Biblioteca Comunale Crescenzago", "opening_hours": "Mo, We, Fr 14:00-19:00; Tu,Th 09:30-14:40; Sa 10:00-14:00; Su off", "operator": "Comune di Milano", "operator:type": "government", "phone": "+39 02 88465808", "ref:isil": "IT-MI0492", "roof:shape": "flat", "source": "www.comune.milano.it/biblioteche", "website": "https://milano.biblioteche.it/library/crescenzago/", "wheelchair": "yes"}}, {"type": "way", "id": 189508483, "nodes": [2001115221, 11819507886, 2001115230, 2001115223, 6919857043, 8283783657, 2001115225, 2001115229, 6919857025, 6919857044, 2001115218, 2001115224, 11819506254, 11819506253, 2001115217, 2001115226, 6919857035, 2021621703, 2021621702, 11819506259, 2021621709, 2021621708, 2021621725, 2001115221], "tags": {"addr:housenumber": "56", "addr:postcode": "20133", "addr:street": "Via Carlo Valvassori Peroni", "amenity": "library", "building": "public", "email": "c.bibliolambrate@comune.milano.it", "internet_access": "wlan", "internet_access:fee": "no", "internet_access:ssid": "openwifimilano", "name": "Biblioteca Lambrate", "opening_hours": "Tu-Fr 09:00-19:00; Mo 14:30-19:00; Sa 10:00-18:00", "phone": "+39 02 88465095", "ref:isil": "IT-MI1357", "source": "www.comune.milano.it", "website": "https://milano.biblioteche.it/library/lambrate"}}, {"type": "way", "id": 246303907, "nodes": [2533582164, 2533582175, 2533582154, 2533582161, 2533582167, 2533582173, 2533582143, 2533582151, 2533582157, 2533582170, 2533582164], "tags": {"amenity": "library", "building": "public", "building:levels": "1", "check_date": "2024-09-30", "name": "Biblioteca Comunale Calvairate", "note": "Attualmente chiusa per ristrutturazione", "opening_hours": "\"Actually closed\"", "phone": "+39 02 8846 5801", "website": "https://biblioteche.comune.milano.it/library/calvairate", "wheelchair": "limited"}}, {"type": "way", "id": 290834286, "nodes": [2943481415, 2943481416, 2943481413, 2943481426, 2943481417, 2943481419, 2943481424, 2943481408, 2943481425, 2943481410, 2943481415], "tags": {"amenity": "library", "building": "public", "email": "c.biblioharar@comune.milano.it", "name": "Biblioteca Comunale Harar", "opening_hours": "We, Fr 14:00-19:00; Tu,Th 09:30-14:40; Sa 10:00-14:00; Mo, Su off", "phone": "+39 02 88465810", "source": "www.comune.milano.it/biblioteche", "website": "https://milano.biblioteche.it/library/harar/"}}, {"type": "way", "id": 330823046, "nodes": [3378249229, 11022996614, 3378249230, 3378249231, 3378249232, 3378249229], "tags": {"amenity": "library", "building": "public", "email": "c.bibliovillapizzone@comune.milano.it", "internet_access": "wlan", "internet_access:fee": "no", "name": "Biblioteca Comunale Villapizzone", "opening_hours": "We, Fr 14:00-19:00; Th 09:00-14:00; Sa 10:00-14:00", "phone": "+39 02 88465815", "ref:isil": "IT-MI0176", "website": "https://biblioteche.comune.milano.it/library/villapizzone", "wheelchair": "yes"}}, {"type": "way", "id": 368108326, "nodes": [3719680196, 3719680175, 3719681102, 3719680176, 3719680194, 3719680196], "tags": {"amenity": "library", "building": "chapel", "building:levels": "2", "name": "Progetto Biblioteca Gorla", "opening_hours": "Mo-Fr 17:00-19:00; Tu off; Th off; Su 10:30-12:30", "phone": "+39 02 2573588"}}, {"type": "way", "id": 626290553, "nodes": [5912731017, 5912731019, 5912731018, 5912730995, 9208609708, 9208609706, 9208609707, 5912730459, 5912730458, 5912731017], "tags": {"amenity": "library", "building": "yes", "building:levels": "2", "check_date": "2023-03-24", "email": "biblio.bicf@unimi.it", "internet_access": "wlan", "internet_access:fee": "customers", "name": "Biblioteca di Biologia, Informatica, Chimica e Fisica", "opening_hours": "Mo-Fr 09:00-18:00; Sa 09:00-14:00; PH off", "operator": "Universit\u00e0 degli Studi di Milano", "operator:type": "university", "phone": "+39 02 50316622", "short_name": "Biblioteca BICF", "start_date": "16-12-2019", "website": "https://www.sba.unimi.it/Biblioteche/bicf/13453.html", "wheelchair": "yes"}}, {"type": "way", "id": 736463069, "nodes": [6895175938, 5414695479, 5414695478, 5414695477, 5414695476, 5414695475, 5414695474, 5414695473, 5414695472, 5414695471, 5414695470, 5414695469, 5414695468, 5414695467, 5414695466, 5414695465, 5414695464, 5414695463, 5414695481, 6895175919, 1302756406, 5414695486, 5414695485, 5414695484, 5414695483, 5414695462, 5414695487, 5414695488, 5414695489, 5414695490, 5414695491, 5414695492, 5414695482, 5414695493, 5414695494, 5414695495, 5414695480, 6895175938], "tags": {"amenity": "library", "building": "yes", "email": "c.biblioparco@comune.milano.it", "name": "Biblioteca Comunale Parco Sempione", "name:en": "Library Parco Sempione", "name:it": "Biblioteca Comunale Parco Sempione", "opening_hours": "Tu, Th 09:30-14:30; We, Fr 14:00-19:00; Sa 10:00-14:00; Su, Mo off", "operator": "Comune di Milano", "operator:type": "government", "operator:wikidata": "Q103903096", "phone": "+39 02 88465812", "source": "www.comune.milano.it/biblioteche", "website": "https://milano.biblioteche.it/library/parco/", "wikidata": "Q61215294", "wikimedia_commons": "Category:Biblioteca Parco Sempione", "wikipedia": "it:Biblioteca al Parco"}}, {"type": "way", "id": 1286690757, "nodes": [11933961772, 11933961773, 11933961774, 11933961775, 11933961772], "tags": {"amenity": "library", "building": "yes", "name": "Padiglione esterno Biblioteca di Baggio"}}]}