{"version": 0.6, "generator": "Overpass API 0.7.62.1 084b4234", "osm3s": {"timestamp_osm_base": "2024-11-06T19:40:27Z", "copyright": "The data included in this document is from www.openstreetmap.org. The data is made available under ODbL."}, "elements": [{"type": "node", "id": 6901916116, "lat": 45.7142753, "lon": 9.6913735, "tags": {"amenity": "charging_station", "capacity": "2", "motorcar": "yes", "motorcycle": "yes", "name": "E-Moving", "opening_hours": "24/7", "operator": "a2a", "power": "22 kw", "scooter": "yes"}}, {"type": "node", "id": 6901916117, "lat": 45.7116904, "lon": 9.6989345, "tags": {"access": "yes", "amenity": "charging_station", "brand": "A2A", "fee": "yes", "operator": "A2A", "power": "50 kw"}}, {"type": "node", "id": 6901916121, "lat": 45.7057028, "lon": 9.7145917, "tags": {"amenity": "charging_station", "capacity": "2", "operator": "Atlante", "power": "22 kw"}}, {"type": "node", "id": 6902536890, "lat": 45.7040717, "lon": 9.7209756, "tags": {"amenity": "charging_station", "capacity": "2", "operator": "SCAME"}}, {"type": "node", "id": 6902536891, "lat": 45.7140846, "lon": 9.7084993, "tags": {"amenity": "charging_station", "power": "22 kw"}}, {"type": "node", "id": 6902536892, "lat": 45.7201357, "lon": 9.7051749, "tags": {"amenity": "charging_station", "power": "22 kw"}}, {"type": "node", "id": 6902536893, "lat": 45.7192789, "lon": 9.7116534, "tags": {"amenity": "charging_station", "power": "22 kw"}}, {"type": "node", "id": 6902536894, "lat": 45.7260887, "lon": 9.7153322, "tags": {"amenity": "charging_station", "power": "22 kw"}}, {"type": "node", "id": 6902536895, "lat": 45.723523, "lon": 9.7179562, "tags": {"amenity": "charging_station"}}, {"type": "node", "id": 6902536896, "lat": 45.722563, "lon": 9.7210672, "tags": {"amenity": "charging_station", "power": "22 kw"}}, {"type": "node", "id": 7383589129, "lat": 45.9960226, "lon": 10.0955755, "tags": {"amenity": "charging_station"}}, {"type": "node", "id": 7565742119, "lat": 45.6966362, "lon": 9.716812, "tags": {"amenity": "charging_station", "capacity": "2", "operator": "SCAME"}}, {"type": "node", "id": 7587916658, "lat": 45.8999618, "lon": 10.2092768, "tags": {"access": "yes", "amenity": "charging_station", "authentication:none": "yes", "bicycle": "yes", "fee": "no", "motorcar": "no", "motorcycle": "no", "operator": "River Oglio Bike Bar", "scooter": "no", "socket:schuko": "yes", "truck": "no"}}, {"type": "node", "id": 7625882165, "lat": 45.6973451, "lon": 9.6984051, "tags": {"amenity": "charging_station", "capacity": "2", "motorcar": "yes", "motorcycle": "yes", "name": "E-Moving", "opening_hours": "24/7", "operator": "a2a", "scooter": "yes"}}, {"type": "node", "id": 7635601165, "lat": 45.8645782, "lon": 9.7282181, "tags": {"access": "yes", "amenity": "charging_station", "operator": "Wroom"}}, {"type": "node", "id": 7687185998, "lat": 46.0278782, "lon": 9.9680034, "tags": {"amenity": "charging_station"}}, {"type": "node", "id": 7984924300, "lat": 45.7803827, "lon": 9.7492999, "tags": {"amenity": "charging_station", "capacity": "2"}}, {"type": "node", "id": 8263410472, "lat": 45.7616783, "lon": 9.9298005, "tags": {"amenity": "charging_station", "capacity": "2", "motorcar": "yes", "opening_hours": "24/7", "operator": "Enel X"}}, {"type": "node", "id": 8355820990, "lat": 45.7511856, "lon": 9.9082348, "tags": {"amenity": "charging_station", "operator": "Comunale"}}, {"type": "node", "id": 8501557395, "lat": 45.7885278, "lon": 9.9929576, "tags": {"amenity": "charging_station", "capacity": "2", "operator": "Enel X"}}, {"type": "node", "id": 8913434905, "lat": 45.6987937, "lon": 9.7341709, "tags": {"amenity": "charging_station"}}, {"type": "node", "id": 9365653602, "lat": 45.7573747, "lon": 9.7904043, "tags": {"access": "yes", "amenity": "charging_station", "capacity": "2", "operator": "RESS Solar"}}, {"type": "node", "id": 9383705596, "lat": 45.7565621, "lon": 9.7976339, "tags": {"access": "yes", "amenity": "charging_station", "capacity": "4", "operator": "RESS Solar"}}, {"type": "node", "id": 9435168131, "lat": 45.7507814, "lon": 9.7814883, "tags": {"amenity": "charging_station"}}, {"type": "node", "id": 9774961003, "lat": 45.9886866, "lon": 9.7133109, "tags": {"amenity": "charging_station", "bicycle": "yes"}}, {"type": "node", "id": 9774961004, "lat": 45.9903851, "lon": 9.6807333, "tags": {"amenity": "charging_station", "bicycle": "yes"}}, {"type": "node", "id": 9774961005, "lat": 45.9902835, "lon": 9.680895, "tags": {"amenity": "charging_station", "capacity": "4", "motorcar": "yes"}}, {"type": "node", "id": 10142781640, "lat": 45.887159, "lon": 9.7978482, "tags": {"amenity": "charging_station", "capacity": "2", "operator": "Be Charge", "operator:wikidata": "Q113289535"}}, {"type": "node", "id": 10182229495, "lat": 45.9702766, "lon": 9.959622, "tags": {"access": "yes", "amenity": "charging_station", "brand": "Enel X", "brand:wikidata": "Q5376815", "capacity": "2", "name": "Enel X", "operator": "Enel X", "operator:wikidata": "Q5376815"}}, {"type": "node", "id": 10199272542, "lat": 45.8123592, "lon": 10.0716298, "tags": {"amenity": "charging_station", "brand": "Enel X", "fee": "yes", "level": "0", "name": "Enel X", "opening_hours": "24/7", "operator": "Enel X", "operator:wikidata": "Q5376815"}}, {"type": "node", "id": 10601263723, "lat": 45.7999405, "lon": 9.7497381, "tags": {"access": "yes", "amenity": "charging_station", "bicycle": "yes", "network": "DINAclub", "operator": "Repower", "operator:wikidata": "Q674712", "operator:wikipedia": "it:Repower", "website": "https://www.repower.com/it/dina/"}}, {"type": "node", "id": 10723788469, "lat": 45.8866337, "lon": 10.018309, "tags": {"amenity": "charging_station"}}, {"type": "node", "id": 10738868326, "lat": 45.7134042, "lon": 9.7000516, "tags": {"amenity": "charging_station"}}, {"type": "node", "id": 10738868327, "lat": 45.7133742, "lon": 9.7000791, "tags": {"amenity": "charging_station"}}, {"type": "node", "id": 10738868328, "lat": 45.7133413, "lon": 9.7001091, "tags": {"amenity": "charging_station"}}, {"type": "node", "id": 10862579909, "lat": 45.7716, "lon": 9.90811, "tags": {"access": "yes", "amenity": "charging_station", "brand": "Pradella Sistemi srl", "fee": "no", "name": "Stazione di ricarica ebike - PradellaSistemi", "operator": "Pradella Sistemi srl"}}, {"type": "node", "id": 10862580005, "lat": 45.8737, "lon": 9.9043, "tags": {"access": "yes", "amenity": "charging_station", "brand": "Pradella Sistemi srl", "fee": "no", "name": "Charge Point - Pradella Sistemi", "operator": "Pradella Sistemi srl"}}, {"type": "node", "id": 10862580105, "lat": 45.8827833, "lon": 10.0944306, "tags": {"access": "yes", "amenity": "charging_station", "brand": "Pradella Sistemi srl", "fee": "no", "name": "Stazione di ricarica ebike - PradellaSistemi", "operator": "Pradella Sistemi srl"}}, {"type": "node", "id": 10862580205, "lat": 45.7202262, "lon": 9.9003081, "tags": {"access": "yes", "amenity": "charging_station", "brand": "Pradella Sistemi srl", "fee": "no", "operator": "Pradella Sistemi srl"}}, {"type": "node", "id": 10862580307, "lat": 45.888412, "lon": 9.95503, "tags": {"access": "yes", "amenity": "charging_station", "brand": "Pradella Sistemi srl", "fee": "no", "name": "Stazione di ricarica ebike - Pradella Sistemi", "operator": "Pradella Sistemi srl"}}, {"type": "node", "id": 10862580308, "lat": 45.88866, "lon": 9.94467, "tags": {"access": "yes", "amenity": "charging_station", "bicycle": "yes", "brand": "Pradella Sistemi srl", "fee": "no", "operator": "Pradella Sistemi srl"}}, {"type": "node", "id": 10862580311, "lat": 45.890714, "lon": 9.985157, "tags": {"access": "yes", "amenity": "charging_station", "brand": "Pradella Sistemi srl", "fee": "no", "name": "Charge Point - PradellaSistemi", "operator": "Pradella Sistemi srl"}}, {"type": "node", "id": 10862580312, "lat": 45.9326778, "lon": 10.0294417, "tags": {"amenity": "charging_station", "bicycle": "yes", "brand": "Pradella Sistemi srl", "fee": "no", "operator": "Pradella Sistemi srl"}}, {"type": "node", "id": 10862580315, "lat": 45.91197, "lon": 10.04398, "tags": {"access": "yes", "amenity": "charging_station", "brand": "Pradella Sistemi srl", "fee": "no", "name": "Stazione di ricarica ebike - PradellaSistemi", "operator": "Pradella Sistemi srl"}}, {"type": "node", "id": 10862580322, "lat": 45.7146874, "lon": 9.7404786, "tags": {"access": "yes", "amenity": "charging_station", "bicycle": "yes", "brand": "Pradella Sistemi srl", "fee": "no", "operator": "Pradella Sistemi srl"}}, {"type": "node", "id": 10862580329, "lat": 45.7089768, "lon": 9.7600517, "tags": {"access": "yes", "amenity": "charging_station", "bicycle": "yes", "brand": "Pradella Sistemi srl", "fee": "no", "operator": "Pradella Sistemi srl"}}, {"type": "node", "id": 10862580330, "lat": 45.69644, "lon": 9.70185, "tags": {"access": "yes", "amenity": "charging_station", "brand": "Pradella Sistemi srl", "fee": "no", "operator": "Pradella Sistemi srl"}}, {"type": "node", "id": 10862580332, "lat": 45.998794, "lon": 9.758908, "tags": {"access": "yes", "amenity": "charging_station", "brand": "Pradella Sistemi srl", "fee": "no", "name": "Stazione di ricarica ebike - Pradella Sistemi", "operator": "Pradella Sistemi srl"}}, {"type": "node", "id": 10862580333, "lat": 45.8305606, "lon": 9.7428085, "tags": {"access": "yes", "amenity": "charging_station", "brand": "Pradella Sistemi srl", "fee": "no", "name": "Stazione di ricarica ebike - PradellaSistemi", "operator": "Pradella Sistemi srl"}}, {"type": "node", "id": 10862580334, "lat": 45.7161, "lon": 9.8797, "tags": {"access": "yes", "amenity": "charging_station", "brand": "Pradella Sistemi srl", "fee": "no", "operator": "Pradella Sistemi srl"}}, {"type": "node", "id": 10862580335, "lat": 45.714472, "lon": 9.88025, "tags": {"access": "yes", "amenity": "charging_station", "brand": "Pradella Sistemi srl", "fee": "no", "operator": "Pradella Sistemi srl"}}, {"type": "node", "id": 10862580341, "lat": 45.73078, "lon": 9.72886, "tags": {"access": "yes", "amenity": "charging_station", "bicycle": "yes", "brand": "Pradella Sistemi srl", "fee": "no", "operator": "Pradella Sistemi srl"}}, {"type": "node", "id": 10862580343, "lat": 45.866886, "lon": 9.996144, "tags": {"access": "yes", "amenity": "charging_station", "brand": "Pradella Sistemi srl", "fee": "no", "name": "Charge Point - Pradella Sistemi", "operator": "Pradella Sistemi srl"}}, {"type": "node", "id": 10862580351, "lat": 45.7175903, "lon": 9.7785845, "tags": {"access": "yes", "amenity": "charging_station", "bicycle": "yes", "brand": "Pradella Sistemi srl", "fee": "no", "operator": "Pradella Sistemi srl"}}, {"type": "node", "id": 10862580362, "lat": 45.7910467, "lon": 9.8322378, "tags": {"access": "yes", "amenity": "charging_station", "brand": "Pradella Sistemi srl", "fee": "no", "name": "Charge Point - Pradella Sistemi", "not:operator:wikidata": "Q5176149", "operator": "Pradella Sistemi srl"}}, {"type": "node", "id": 10862580365, "lat": 45.7391644, "lon": 10.0388107, "tags": {"access": "yes", "amenity": "charging_station", "bicycle": "yes", "brand": "Pradella Sistemi srl", "fee": "no", "operator": "Pradella Sistemi srl"}}, {"type": "node", "id": 10862580367, "lat": 45.8179427, "lon": 9.910798, "tags": {"access": "yes", "amenity": "charging_station", "bicycle": "yes", "brand": "Pradella Sistemi srl", "fee": "no", "operator": "Pradella Sistemi srl"}}, {"type": "node", "id": 10862580369, "lat": 45.8120467, "lon": 9.9004475, "tags": {"access": "yes", "amenity": "charging_station", "bicycle": "yes", "brand": "Pradella Sistemi srl", "fee": "no", "operator": "Pradella Sistemi srl"}}, {"type": "node", "id": 10862580370, "lat": 45.9531019, "lon": 9.6979439, "tags": {"access": "yes", "amenity": "charging_station", "brand": "Pradella Sistemi srl", "fee": "no", "name": "Stazione di ricarica ebike - Pradella Sistemi", "operator": "Pradella Sistemi srl"}}, {"type": "node", "id": 10862580391, "lat": 45.9767802, "lon": 10.1022016, "tags": {"access": "yes", "amenity": "charging_station", "brand": "Pradella Sistemi srl", "fee": "no", "name": "Stazione di ricarica ebike - Pradella Sistemi", "operator": "Pradella Sistemi srl"}}, {"type": "node", "id": 10862580392, "lat": 45.9718216, "lon": 9.7046421, "tags": {"access": "yes", "amenity": "charging_station", "brand": "Pradella Sistemi srl", "fee": "no", "name": "Stazione di ricarica ebike - Pradella Sistemi", "operator": "Pradella Sistemi srl"}}, {"type": "node", "id": 10862580398, "lat": 45.92917, "lon": 10.09673, "tags": {"access": "yes", "amenity": "charging_station", "brand": "Pradella Sistemi srl", "fee": "no", "name": "Stazione di ricarica ebike - Pradella Sistemi", "operator": "Pradella Sistemi srl"}}, {"type": "node", "id": 10862580399, "lat": 45.9748587, "lon": 10.0721286, "tags": {"access": "yes", "amenity": "charging_station", "brand": "Pradella Sistemi srl", "fee": "no", "name": "Stazione di ricarica ebike - Pradella Sistemi", "operator": "Pradella Sistemi srl"}}, {"type": "node", "id": 10862580406, "lat": 45.88504, "lon": 9.931027, "tags": {"access": "yes", "amenity": "charging_station", "brand": "Pradella Sistemi srl", "fee": "no", "name": "Stazione di ricarica ebike - PradellaSistemi", "operator": "Pradella Sistemi srl"}}, {"type": "node", "id": 10862580412, "lat": 46.004939, "lon": 9.760356, "tags": {"access": "yes", "amenity": "charging_station", "brand": "Pradella Sistemi srl", "fee": "no", "name": "Stazione di ricarica ebike - Pradella Sistemi", "operator": "Pradella Sistemi srl"}}, {"type": "node", "id": 10862580413, "lat": 45.7885857, "lon": 9.9814482, "tags": {"access": "yes", "amenity": "charging_station", "brand": "Pradella Sistemi srl", "fee": "no", "name": "Stazione di ricarica ebike - Pradella Sistemi", "operator": "Pradella Sistemi srl"}}, {"type": "node", "id": 10862580414, "lat": 45.8270075, "lon": 9.7349094, "tags": {"access": "yes", "amenity": "charging_station", "brand": "Pradella Sistemi srl", "fee": "no", "name": "Stazione di ricarica ebike - PradellaSistemi", "operator": "Pradella Sistemi srl"}}, {"type": "node", "id": 10862580415, "lat": 45.77338, "lon": 9.91818, "tags": {"access": "yes", "amenity": "charging_station", "bicycle": "yes", "brand": "Pradella Sistemi srl", "fee": "no", "operator": "Pradella Sistemi srl"}}, {"type": "node", "id": 10862580416, "lat": 45.73439, "lon": 9.72453, "tags": {"access": "yes", "amenity": "charging_station", "bicycle": "yes", "brand": "Pradella Sistemi srl", "fee": "no", "operator": "Pradella Sistemi srl"}}, {"type": "node", "id": 10862580418, "lat": 45.9888274, "lon": 9.7133697, "tags": {"access": "yes", "amenity": "charging_station", "brand": "Pradella Sistemi srl", "fee": "no", "name": "Stazione di ricarica ebike - Pradella Sistemi", "operator": "Pradella Sistemi srl"}}, {"type": "node", "id": 10862580428, "lat": 45.79476, "lon": 9.82938, "tags": {"access": "yes", "amenity": "charging_station", "bicycle": "yes", "brand": "Pradella Sistemi srl", "fee": "no", "operator": "Pradella Sistemi srl"}}, {"type": "node", "id": 10862580432, "lat": 45.8328432, "lon": 9.89939, "tags": {"access": "yes", "amenity": "charging_station", "bicycle": "yes", "brand": "Pradella Sistemi srl", "fee": "no", "operator": "Pradella Sistemi srl"}}, {"type": "node", "id": 10862580439, "lat": 45.9491054, "lon": 9.7026111, "tags": {"access": "yes", "amenity": "charging_station", "brand": "Pradella Sistemi srl", "fee": "no", "name": "Stazione di ricarica ebike - Pradella Sistemi", "operator": "Pradella Sistemi srl"}}, {"type": "node", "id": 10862580444, "lat": 45.6978, "lon": 9.6989, "tags": {"access": "yes", "amenity": "charging_station", "brand": "Pradella Sistemi srl", "fee": "no", "operator": "Pradella Sistemi srl"}}, {"type": "node", "id": 10862580445, "lat": 45.7684, "lon": 9.7143, "tags": {"access": "yes", "amenity": "charging_station", "brand": "Pradella Sistemi srl", "fee": "no", "name": "Stazione di ricarica ebike - Pradella Sistemi", "operator": "Pradella Sistemi srl"}}, {"type": "node", "id": 10862580505, "lat": 45.8116451, "lon": 9.9031754, "tags": {"access": "yes", "amenity": "charging_station", "brand": "Pradella Sistemi srl", "fee": "no", "operator": "Pradella Sistemi srl"}}, {"type": "node", "id": 10862580508, "lat": 45.7903, "lon": 9.9653, "tags": {"access": "yes", "amenity": "charging_station", "brand": "Pradella Sistemi srl", "fee": "no", "name": "Stazione di ricarica ebike - Pradella Sistemi", "operator": "Pradella Sistemi srl"}}, {"type": "node", "id": 10862580510, "lat": 45.9742248, "lon": 10.0806882, "tags": {"access": "yes", "amenity": "charging_station", "brand": "Pradella Sistemi srl", "fee": "no", "name": "Charge Point - Pradella Sistemi", "operator": "Pradella Sistemi srl"}}, {"type": "node", "id": 10862580511, "lat": 45.890095, "lon": 10.011462, "tags": {"access": "yes", "amenity": "charging_station", "brand": "Pradella Sistemi srl", "fee": "no", "name": "Charge Point - PradellaSistemi", "operator": "Pradella Sistemi srl"}}, {"type": "node", "id": 10862580518, "lat": 45.7258152, "lon": 9.8938624, "tags": {"access": "yes", "amenity": "charging_station", "brand": "Pradella Sistemi srl", "fee": "no", "operator": "Pradella Sistemi srl"}}, {"type": "node", "id": 10862580519, "lat": 45.7966869, "lon": 9.8348134, "tags": {"access": "yes", "amenity": "charging_station", "brand": "Pradella Sistemi srl", "fee": "no", "operator": "Pradella Sistemi srl"}}, {"type": "node", "id": 10862580520, "lat": 45.7164, "lon": 9.8817, "tags": {"access": "yes", "amenity": "charging_station", "brand": "Pradella Sistemi srl", "fee": "no", "operator": "Pradella Sistemi srl"}}, {"type": "node", "id": 10862580523, "lat": 45.8057, "lon": 9.82319, "tags": {"access": "yes", "amenity": "charging_station", "bicycle": "yes", "brand": "Pradella Sistemi srl", "fee": "no", "operator": "Pradella Sistemi srl"}}, {"type": "node", "id": 10862580531, "lat": 45.7786636, "lon": 9.9430027, "tags": {"access": "yes", "amenity": "charging_station", "brand": "Pradella Sistemi srl", "fee": "no", "name": "Stazione di ricarica ebike - Pradella Sistemi", "operator": "Pradella Sistemi srl"}}, {"type": "node", "id": 10862580537, "lat": 45.80132, "lon": 9.83063, "tags": {"access": "yes", "amenity": "charging_station", "bicycle": "yes", "brand": "Pradella Sistemi srl", "fee": "no", "operator": "Pradella Sistemi srl"}}, {"type": "node", "id": 10862580538, "lat": 45.79651, "lon": 9.83631, "tags": {"access": "yes", "amenity": "charging_station", "bicycle": "yes", "brand": "Pradella Sistemi srl", "fee": "no", "operator": "Pradella Sistemi srl"}}, {"type": "node", "id": 10862580553, "lat": 45.9519136, "lon": 9.6988114, "tags": {"access": "yes", "amenity": "charging_station", "brand": "Pradella Sistemi srl", "fee": "no", "name": "Stazione di ricarica ebike - Pradella Sistemi", "operator": "Pradella Sistemi srl"}}, {"type": "node", "id": 10862580558, "lat": 45.9485, "lon": 10.1043, "tags": {"access": "yes", "amenity": "charging_station", "bicycle": "yes", "brand": "Pradella Sistemi srl", "fee": "no", "operator": "Pradella Sistemi srl"}}, {"type": "node", "id": 10862580705, "lat": 45.718093, "lon": 9.9031703, "tags": {"access": "yes", "amenity": "charging_station", "brand": "Pradella Sistemi srl", "fee": "no", "operator": "Pradella Sistemi srl"}}, {"type": "node", "id": 10862580706, "lat": 45.880001, "lon": 9.92098, "tags": {"access": "yes", "amenity": "charging_station", "brand": "Pradella Sistemi srl", "fee": "no", "name": "Stazione di ricarica ebike - Pradella Sistemi", "operator": "Pradella Sistemi srl"}}, {"type": "node", "id": 10862580714, "lat": 45.8917634, "lon": 9.9430978, "tags": {"access": "yes", "amenity": "charging_station", "brand": "Pradella Sistemi srl", "fee": "no", "name": "Stazione di ricarica ebike - Pradella Sistemi", "operator": "Pradella Sistemi srl"}}, {"type": "node", "id": 10862580715, "lat": 45.7072182, "lon": 9.7566023, "tags": {"access": "yes", "amenity": "charging_station", "bicycle": "yes", "brand": "Pradella Sistemi srl", "fee": "no", "operator": "Pradella Sistemi srl"}}, {"type": "node", "id": 10862580716, "lat": 45.7027969, "lon": 9.7382126, "tags": {"access": "yes", "amenity": "charging_station", "bicycle": "yes", "brand": "Pradella Sistemi srl", "fee": "no", "operator": "Pradella Sistemi srl"}}, {"type": "node", "id": 10862580717, "lat": 45.7096176, "lon": 9.7274923, "tags": {"access": "yes", "amenity": "charging_station", "bicycle": "yes", "brand": "Pradella Sistemi srl", "fee": "no", "operator": "Pradella Sistemi srl"}}, {"type": "node", "id": 10862580718, "lat": 45.72436, "lon": 9.89754, "tags": {"access": "yes", "amenity": "charging_station", "brand": "Pradella Sistemi srl", "fee": "no", "operator": "Pradella Sistemi srl"}}, {"type": "node", "id": 10862580719, "lat": 45.7335091, "lon": 9.9057589, "tags": {"access": "yes", "amenity": "charging_station", "brand": "Pradella Sistemi srl", "fee": "no", "operator": "Pradella Sistemi srl"}}, {"type": "node", "id": 10862580723, "lat": 45.72578, "lon": 9.89386, "tags": {"access": "yes", "amenity": "charging_station", "brand": "Pradella Sistemi srl", "fee": "no", "operator": "Pradella Sistemi srl"}}, {"type": "node", "id": 10862580725, "lat": 45.88528, "lon": 9.94828, "tags": {"access": "yes", "amenity": "charging_station", "bicycle": "yes", "brand": "Pradella Sistemi srl", "fee": "no", "operator": "Pradella Sistemi srl"}}, {"type": "node", "id": 10862580726, "lat": 45.8907, "lon": 9.9448, "tags": {"access": "yes", "amenity": "charging_station", "bicycle": "yes", "brand": "Pradella Sistemi srl", "fee": "no", "name": "Stazione di ricarica ebike - PradellaSistemi", "operator": "Pradella Sistemi srl"}}, {"type": "node", "id": 10862580727, "lat": 45.7193031, "lon": 9.760375, "tags": {"access": "yes", "amenity": "charging_station", "bicycle": "yes", "brand": "Pradella Sistemi srl", "fee": "no", "operator": "Pradella Sistemi srl"}}, {"type": "node", "id": 10862580728, "lat": 45.787833, "lon": 9.997667, "tags": {"access": "yes", "amenity": "charging_station", "brand": "Pradella Sistemi srl", "fee": "no", "name": "Stazione di ricarica ebike - Pradella Sistemi", "operator": "Pradella Sistemi srl"}}, {"type": "node", "id": 10862580729, "lat": 45.718886, "lon": 9.9013571, "tags": {"access": "yes", "amenity": "charging_station", "brand": "Pradella Sistemi srl", "fee": "no", "operator": "Pradella Sistemi srl"}}, {"type": "node", "id": 10862580730, "lat": 45.7891617, "lon": 9.9876442, "tags": {"access": "yes", "amenity": "charging_station", "brand": "Pradella Sistemi srl", "fee": "no", "name": "Stazione di ricarica ebike - Pradella Sistemi", "operator": "Pradella Sistemi srl"}}, {"type": "node", "id": 10862580732, "lat": 45.73308, "lon": 9.95503, "tags": {"access": "yes", "amenity": "charging_station", "bicycle": "yes", "brand": "Pradella Sistemi srl", "fee": "no", "operator": "Pradella Sistemi srl"}}, {"type": "node", "id": 10862580733, "lat": 45.7181, "lon": 9.8767, "tags": {"access": "yes", "amenity": "charging_station", "brand": "Pradella Sistemi srl", "fee": "no", "operator": "Pradella Sistemi srl"}}, {"type": "node", "id": 10862580735, "lat": 45.72789, "lon": 9.90543, "tags": {"access": "yes", "amenity": "charging_station", "brand": "Pradella Sistemi srl", "fee": "no", "operator": "Pradella Sistemi srl"}}, {"type": "node", "id": 10862580739, "lat": 45.7121086, "lon": 9.7315588, "tags": {"access": "yes", "amenity": "charging_station", "bicycle": "yes", "brand": "Pradella Sistemi srl", "fee": "no", "operator": "Pradella Sistemi srl"}}, {"type": "node", "id": 10862580740, "lat": 45.756, "lon": 9.69134, "tags": {"access": "yes", "amenity": "charging_station", "brand": "Pradella Sistemi srl", "fee": "no", "name": "Stazione di ricarica ebike - Pradella Sistemi", "operator": "Pradella Sistemi srl"}}, {"type": "node", "id": 10862580748, "lat": 45.77405, "lon": 9.92269, "tags": {"access": "yes", "amenity": "charging_station", "brand": "Pradella Sistemi srl", "fee": "no", "name": "Stazione di ricarica ebike - PradellaSistemi", "operator": "Pradella Sistemi srl"}}, {"type": "node", "id": 10977380608, "lat": 45.8518576, "lon": 10.2095665, "tags": {"access": "yes", "amenity": "charging_station", "capacity": "2"}}, {"type": "node", "id": 10992680248, "lat": 46.022444, "lon": 10.0155887, "tags": {"access": "yes", "amenity": "charging_station", "fee": "yes", "operator": "ENEL"}}, {"type": "node", "id": 10992680249, "lat": 46.0224752, "lon": 10.0155891, "tags": {"access": "yes", "amenity": "charging_station", "fee": "yes", "operator": "ENEL"}}, {"type": "node", "id": 10996787109, "lat": 45.8753, "lon": 9.89365, "tags": {"access": "yes", "amenity": "charging_station", "brand": "Pradella Sistemi srl", "fee": "no", "name": "Stazione di ricarica ebike - Pradella Sistemi", "operator": "Pradella Sistemi srl"}}, {"type": "node", "id": 10996787814, "lat": 45.87386, "lon": 9.89301, "tags": {"access": "yes", "amenity": "charging_station", "brand": "Pradella Sistemi srl", "fee": "no", "name": "Stazione di ricarica ebike - Pradella Sistemi", "operator": "Pradella Sistemi srl"}}, {"type": "node", "id": 10996788107, "lat": 45.8759, "lon": 9.89173, "tags": {"access": "yes", "amenity": "charging_station", "brand": "Pradella Sistemi srl", "fee": "no", "name": "Stazione di ricarica ebike - Pradella Sistemi", "operator": "Pradella Sistemi srl"}}, {"type": "node", "id": 11025887105, "lat": 45.894561, "lon": 10.007172, "tags": {"access": "yes", "amenity": "charging_station", "brand": "Pradella Sistemi srl", "fee": "no", "name": "Stazione di ricarica ebike - Pradella Sistemi", "operator": "Pradella Sistemi srl"}}, {"type": "node", "id": 11056361205, "lat": 45.87593, "lon": 9.89176, "tags": {"access": "yes", "amenity": "charging_station", "brand": "Pradella Sistemi srl", "fee": "no", "name": "Charge Point - Pradella Sistemi", "operator": "Pradella Sistemi srl"}}, {"type": "node", "id": 11056372905, "lat": 45.875666, "lon": 9.889484, "tags": {"access": "yes", "amenity": "charging_station", "brand": "Pradella Sistemi srl", "fee": "no", "name": "Charge Point - Pradella Sistemi", "operator": "Pradella Sistemi srl"}}, {"type": "node", "id": 11056402805, "lat": 45.874263, "lon": 9.893046, "tags": {"access": "yes", "amenity": "charging_station", "brand": "Pradella Sistemi srl", "fee": "no", "name": "Charge Point - Pradella Sistemi", "operator": "Pradella Sistemi srl"}}, {"type": "node", "id": 11056415305, "lat": 45.874239, "lon": 9.892959, "tags": {"access": "yes", "amenity": "charging_station", "brand": "Pradella Sistemi srl", "fee": "no", "name": "Charge Point - Pradella Sistemi", "operator": "Pradella Sistemi srl"}}, {"type": "node", "id": 11056418205, "lat": 45.874232, "lon": 9.89285, "tags": {"access": "yes", "amenity": "charging_station", "brand": "Pradella Sistemi srl", "fee": "no", "name": "Charge Point - Pradella Sistemi", "operator": "Pradella Sistemi srl"}}, {"type": "node", "id": 11066997205, "lat": 46.032095, "lon": 10.002094, "tags": {"access": "yes", "amenity": "charging_station", "brand": "Pradella Sistemi srl", "fee": "no", "name": "Charge Point - Pradella Sistemi", "operator": "Pradella Sistemi srl"}}, {"type": "node", "id": 11190676937, "lat": 45.791035, "lon": 9.8324015, "tags": {"access": "yes", "amenity": "charging_station", "brand": "Pradella Sistemi srl", "fee": "no", "name": "Charge Point - Pradella Sistemi", "operator": "Pradella Sistemi srl"}}, {"type": "node", "id": 11205652515, "lat": 46.0069982, "lon": 10.1586195, "tags": {"amenity": "charging_station", "fee": "yes"}}, {"type": "node", "id": 11217377537, "lat": 45.731667, "lon": 9.733759, "tags": {"access": "yes", "amenity": "charging_station", "brand": "Pradella Sistemi srl", "fee": "no", "name": "Charge Point - Pradella Sistemi", "operator": "Pradella Sistemi srl"}}, {"type": "node", "id": 11220096781, "lat": 45.7403967, "lon": 9.7520725, "tags": {"amenity": "charging_station"}}, {"type": "node", "id": 11220120128, "lat": 45.7400849, "lon": 9.747551, "tags": {"amenity": "charging_station"}}, {"type": "node", "id": 11335563969, "lat": 45.791035, "lon": 9.8324015, "tags": {"access": "yes", "amenity": "charging_station", "brand": "Pradella Sistemi srl", "fee": "no", "name": "Stazione di ricarica ebike - Pradella Sistemi", "operator": "Pradella Sistemi srl"}}, {"type": "node", "id": 11335563970, "lat": 45.8108226, "lon": 9.8681493, "tags": {"access": "yes", "amenity": "charging_station", "brand": "Pradella Sistemi srl", "fee": "no", "name": "Charge Point - Pradella Sistemi", "operator": "Pradella Sistemi srl"}}, {"type": "node", "id": 11355109369, "lat": 46.0547, "lon": 10.009854, "tags": {"access": "yes", "amenity": "charging_station", "brand": "Pradella Sistemi srl", "fee": "no", "name": "Charge Point - Pradella Sistemi", "operator": "Pradella Sistemi srl"}}, {"type": "node", "id": 11379136269, "lat": 45.7067, "lon": 9.8715, "tags": {"access": "yes", "amenity": "charging_station", "brand": "Pradella Sistemi srl", "fee": "no", "name": "Stazione di ricarica ebike - Pradella Sistemi", "operator": "Pradella Sistemi srl"}}, {"type": "node", "id": 11379136469, "lat": 45.7082, "lon": 9.876, "tags": {"access": "yes", "amenity": "charging_station", "brand": "Pradella Sistemi srl", "fee": "no", "name": "Stazione di ricarica ebike - Pradella Sistemi", "operator": "Pradella Sistemi srl"}}, {"type": "node", "id": 11818321247, "lat": 46.0706585, "lon": 9.7555691, "tags": {"access": "yes", "amenity": "charging_station", "bicycle": "yes", "brand": "Fusine", "fee": "no", "operator": "GaraGeeks", "socket:typee": "8", "source": "survey"}}, {"type": "node", "id": 11819780675, "lat": 45.7483245, "lon": 9.7532304, "tags": {"access": "customers", "amenity": "charging_station", "bicycle": "no", "capacity": "2", "motor_vehicle": "yes", "network": "Ricarica 101", "operator": "Repower", "operator:wikidata": "Q674712", "operator:wikipedia": "it:Repower", "socket:type2": "2", "website": "https://www.repower.com/it/homo-mobilis/ricarica-101/riscoprire-la-bergamasca-tra-boschi-e-colline-in-auto-elettrica/"}}, {"type": "node", "id": 12038368475, "lat": 45.9510779, "lon": 9.6999392, "tags": {"amenity": "charging_station", "fee": "yes", "level": "0", "opening_hours": "24/7"}}, {"type": "node", "id": 12255866127, "lat": 45.7542753, "lon": 9.8278819}, {"type": "node", "id": 12255866128, "lat": 45.7542542, "lon": 9.8279415}, {"type": "node", "id": 12255866129, "lat": 45.7542008, "lon": 9.8279026}, {"type": "node", "id": 12255866130, "lat": 45.7542208, "lon": 9.8278462}, {"type": "node", "id": 12291991923, "lat": 45.7389374, "lon": 10.038409, "tags": {"amenity": "charging_station"}}, {"type": "way", "id": 1324451397, "nodes": [12255866127, 12255866128, 12255866129, 12255866130, 12255866127], "tags": {"amenity": "charging_station", "capacity": "2"}}]}