{"version": 0.6, "generator": "Overpass API 0.7.62.1 084b4234", "osm3s": {"timestamp_osm_base": "2024-10-10T13:04:30Z", "copyright": "The data included in this document is from www.openstreetmap.org. The data is made available under ODbL."}, "elements": [{"type": "node", "id": 264779980, "lat": 45.4581531, "lon": 9.2427131}, {"type": "node", "id": 264779981, "lat": 45.4583601, "lon": 9.2430985}, {"type": "node", "id": 264779982, "lat": 45.4587603, "lon": 9.2427175}, {"type": "node", "id": 264779983, "lat": 45.4584746, "lon": 9.2422858}, {"type": "node", "id": 264779984, "lat": 45.4583713, "lon": 9.2424231}, {"type": "node", "id": 264779985, "lat": 45.4583367, "lon": 9.2423734}, {"type": "node", "id": 264779986, "lat": 45.4582196, "lon": 9.242525}, {"type": "node", "id": 264779987, "lat": 45.4582543, "lon": 9.2425786}, {"type": "node", "id": 1482761775, "lat": 45.4586156, "lon": 9.2429077}, {"type": "node", "id": 1482761777, "lat": 45.458169, "lon": 9.2427369}, {"type": "node", "id": 1482761779, "lat": 45.4585624, "lon": 9.2428286}, {"type": "node", "id": 1482761784, "lat": 45.4581431, "lon": 9.242772}, {"type": "node", "id": 3701570309, "lat": 45.4668583, "lon": 9.2330345}, {"type": "node", "id": 3701570316, "lat": 45.4667747, "lon": 9.2326002, "tags": {"entrance": "yes"}}, {"type": "node", "id": 3701570324, "lat": 45.4667023, "lon": 9.2329188}, {"type": "node", "id": 3701570829, "lat": 45.4667008, "lon": 9.2326009}, {"type": "node", "id": 3701570837, "lat": 45.4667018, "lon": 9.2327603}, {"type": "node", "id": 3701570840, "lat": 45.4667475, "lon": 9.2330357}, {"type": "node", "id": 3701570841, "lat": 45.4668559, "lon": 9.2325994}, {"type": "node", "id": 3701570852, "lat": 45.4667028, "lon": 9.233036}, {"type": "node", "id": 3702046138, "lat": 45.4630945, "lon": 9.2353333, "tags": {"addr:city": "Milano", "addr:housenumber": "8", "addr:postcode": "20133", "addr:street": "Via Cardinale Mezzofanti", "branch": "Milano Cardinale Mezzofanti", "brand": "Sigma", "brand:wikidata": "Q3977979", "brand:wikipedia": "it:Supermercati Sigma", "contact:phone": "+39 02 70128857", "contact:website": "https://www.supersigma.com/punti-vendita/LOMBARDIA/MI/sigma-di-milano-cardinale-mezzofanti", "name": "Sigma", "opening_hours": "Mo-Sa  08:00-20:00; Su off", "operator": "L.L.M.P. SRL", "ref:vatin": "IT05783520967", "shop": "supermarket"}}, {"type": "node", "id": 11169217714, "lat": 45.4625786, "lon": 9.2332874, "tags": {"addr:city": "Milano", "addr:housenumber": "4", "addr:postcode": "20133", "addr:street": "Via Negroli", "branch": "Viale Corsica ang. Via Negroli", "brand": "PENNY", "brand:wikidata": "Q284688", "building:levels": "1", "check_date": "2023-11-14", "currency:EUR": "yes", "level": "0", "name": "PENNY", "opening_hours": "Mo-Sa 08:00-20:30, Su 09:00-13:00, 15:00-20:00", "operator": "Penny Market S.R.L. a.s.u.", "payment:bancomat": "yes", "payment:cash": "yes", "payment:credit_cards": "yes", "ref:vatin": "IT12619750156", "second_hand": "no", "shop": "supermarket", "source": "https://www.gdonews.it/2022/12/21/penny-apre-a-milano-un-nuovo-punto-vendita/", "start_date": "2022-12-22", "wheelchair": "yes"}}, {"type": "node", "id": 11443666293, "lat": 45.4582555, "lon": 9.2424786, "tags": {"addr:city": "Milano", "addr:housenumber": "7", "addr:postcode": "20138", "addr:street": "Via Toscolano"}}, {"type": "way", "id": 24396508, "nodes": [264779980, 1482761777, 1482761784, 264779981, 1482761779, 1482761775, 264779982, 264779983, 264779984, 264779985, 11443666293, 264779986, 264779987, 264779980], "tags": {"branch": "Piazza Ovidio", "brand": "Esselunga", "brand:wikidata": "Q1059636", "brand:wikipedia": "en:Esselunga", "building": "retail", "name": "Esselunga di Piazza Ovidio", "note:it": "Sullo scontrino e altrove come indirizzo \u00e8 riportato Piazza Ovidio senza numero civico", "opening_hours": "Mo-Sa 08:00-21:00; Su 09:00-14:00", "operator": "Esselunga SpA", "ref:vatin": "IT04916380159", "shop": "supermarket", "source": "www.esselunga.it", "website": "https://www.esselunga.it/default.aspx?idPage=462&storeCode=OVI&esseiaOtp=none"}}, {"type": "way", "id": 366170833, "nodes": [3701570309, 3701570841, 3701570316, 3701570829, 3701570837, 3701570324, 3701570852, 3701570840, 3701570309], "tags": {"building": "retail", "name": "LD Market", "shop": "supermarket", "source": "Bing"}}]}