{"version": 0.6, "generator": "Overpass API 0.7.62.1 084b4234", "osm3s": {"timestamp_osm_base": "2024-11-20T16:39:00Z", "copyright": "The data included in this document is from www.openstreetmap.org. The data is made available under ODbL."}, "elements": [{"type": "node", "id": 2465694123, "lat": 46.5053321, "lon": 13.5789144, "tags": {"amenity": "charging_station", "capacity": "2", "description": "Stazione di Ricarica", "motorcar": "yes", "name": "Kirchenwirt", "network": "Ricarica 101", "operator": "Repower", "operator:wikidata": "Q674712", "website": "https://www.repower.com/it/la-mobilita-elettrica/"}}, {"type": "node", "id": 4759840458, "lat": 46.2767835, "lon": 13.88779, "tags": {"amenity": "charging_station", "authentication:nfc": "yes", "authentication:none": "no", "capacity": "2", "fee": "no", "operator": "Elektro Gorenjska", "parking:fee": "no", "socket:cee_blue": "1", "socket:cee_red_16a": "1", "socket:schuko": "1"}}, {"type": "node", "id": 4871834730, "lat": 46.2456853, "lon": 13.5850507, "tags": {"amenity": "charging_station", "amperage": "100", "authentication:app": "yes", "authentication:membership_card": "yes", "bicycle": "no", "capacity": "2", "fee": "yes", "motorcar": "yes", "motorcycle": "yes", "network": "Mega Mobility", "opening_hours": "24/7", "parking:fee": "yes", "socket:type2": "2", "socket:type2:output": "22 kW", "voltage": "400"}}, {"type": "node", "id": 6467596387, "lat": 46.5072547, "lon": 13.5444623, "tags": {"access": "customers", "amenity": "charging_station", "bicycle": "yes", "capacity": "2", "fee": "no", "motorcar": "yes", "name": "Dawit Camporosso", "opening_hours": "06:00-20:00", "operator": "Dawit Bar&Shop", "panoramax": "07edd9e7-25ba-4221-99f1-981ae603bde6", "panoramax:0": "393d03c1-d8d3-4ff7-9e4d-de4ee146041d", "scooter": "yes", "socket:schuko": "1", "socket:type2": "1", "socket:type2:output": "7 kW", "truck": "no"}}, {"type": "node", "id": 6467616570, "lat": 46.5045295, "lon": 13.5768875, "tags": {"amenity": "charging_station", "bicycle": "yes", "capacity": "6", "fee": "yes", "motorcar": "yes", "name": "Parkplatz Tarvis", "opening_hours": "24/7", "operator": "REG - Bioenergie GmbH", "scooter": "yes", "socket:schuko": "4", "socket:type2": "2", "socket:type2:output": "22kW", "truck": "no"}}, {"type": "node", "id": 8935649558, "lat": 46.3801557, "lon": 13.7527749, "tags": {"amenity": "charging_station", "capacity": "2", "motorcar": "yes", "motorcycle": "yes", "socket:type2": "2"}}, {"type": "node", "id": 9158654371, "lat": 46.2508885, "lon": 13.5868025, "tags": {"amenity": "charging_station", "bicycle": "no", "motorcar": "yes", "motorcycle": "yes"}}, {"type": "node", "id": 9870165549, "lat": 46.3327368, "lon": 13.538855, "tags": {"amenity": "charging_station", "bicycle": "no", "capacity": "2", "fee": "yes", "motorcar": "yes", "motorcycle": "yes", "socket:type2": "2", "socket:type2:output": "22 kW"}}, {"type": "node", "id": 9970969120, "lat": 46.5053169, "lon": 13.5789003, "tags": {"amenity": "charging_station", "bicycle": "yes", "description": "Komoot App for e-bike charging station in Italy https://www.komoot.com/collection/1840155", "network": "DINAclub", "operator": "Repower", "operator:wikidata": "Q674712", "operator:wikipedia": "it:Repower", "website": "https://www.repower.com/it/dina/"}}, {"type": "node", "id": 10601241592, "lat": 46.5072414, "lon": 13.5443178, "tags": {"access": "yes", "amenity": "charging_station", "bicycle": "yes", "network": "DINAclub", "operator": "Repower", "operator:wikidata": "Q674712", "operator:wikipedia": "it:Repower", "voltage": "230", "website": "https://www.repower.com/it/dina/"}}, {"type": "node", "id": 11138715939, "lat": 46.3319935, "lon": 13.5401018, "tags": {"amenity": "charging_station"}}, {"type": "node", "id": 11138715968, "lat": 46.3320314, "lon": 13.540169, "tags": {"amenity": "charging_station"}}, {"type": "node", "id": 11193059776, "lat": 46.2840853, "lon": 13.8917787, "tags": {"amenity": "charging_station", "motor_vehicle": "yes"}}, {"type": "node", "id": 11246731903, "lat": 46.5051389, "lon": 13.5801589, "tags": {"amenity": "charging_station", "bicycle": "designated"}}, {"type": "node", "id": 11246772570, "lat": 46.5099049, "lon": 13.474045, "tags": {"amenity": "charging_station", "bicycle": "designated"}}, {"type": "node", "id": 11254638371, "lat": 46.5099116, "lon": 13.4743688, "tags": {"access": "yes", "amenity": "charging_station", "bicycle": "yes", "capacity": "4", "fee": "no", "level": "0", "opening_hours": "24/7", "panoramax": "16ac45ae-6bfb-4441-b047-1447ab6e5d4e", "panoramax:0": "db1c304c-9233-44f5-a7b3-0d07b78691c0", "panoramax:1": "4d246073-2801-4814-a133-e816c397653c", "panoramax:2": "6448259e-d129-4e25-8a98-0b4176bfe840", "socket:bosch_3pin": "1", "socket:ropd": "1", "socket:shimano_steps_5pin": "1", "socket:typeL": "4", "socket:yamaha": "1"}}, {"type": "node", "id": 11409211396, "lat": 46.3881001, "lon": 13.4737377, "tags": {"access": "yes", "amenity": "charging_station", "bicycle": "yes", "network": "DINAclub", "operator": "Repower", "operator:wikidata": "Q674712", "operator:wikipedia": "it:Repower", "website": "https://www.repower.com/it/dina/"}}, {"type": "node", "id": 12023138796, "lat": 46.3386048, "lon": 13.555184, "tags": {"amenity": "charging_station", "capacity": "2", "operator": "Easypark"}}]}