{"version": 0.6, "generator": "Overpass API 0.7.62.1 084b4234", "osm3s": {"timestamp_osm_base": "2024-11-20T22:05:08Z", "copyright": "The data included in this document is from www.openstreetmap.org. The data is made available under ODbL."}, "elements": [{"type": "node", "id": 3347836890, "lat": 46.1393352, "lon": 8.9071372}, {"type": "node", "id": 3508258165, "lat": 46.1742774, "lon": 8.9432132, "tags": {"access": "yes", "amenity": "charging_station", "authentication:app": "yes", "authentication:contactless": "yes", "bicycle": "yes", "covered": "no", "description": "Zwei Haushaltsteckdosen Schweiz 3.7 kW", "fee": "yes", "maxstay": "4 hours", "motorcar": "yes", "network": "evpass", "opening_hours": "24/7", "parking:fee": "no", "socket:sev1011_t23": "2", "socket:sev1011_t23:output": "3.7 kW", "socket:type1": "2", "socket:type1:output": "7.4 kW", "socket:type2_cable": "2", "socket:type2_cable:output": "22 kW"}}, {"type": "node", "id": 5834571792, "lat": 46.3506231, "lon": 8.7887362, "tags": {"access": "yes", "amenity": "charging_station", "authentication:none": "yes", "bicycle": "no", "capacity": "2", "covered": "no", "fee": "no", "motorcar": "yes", "opening_hours": "24/7", "parking:fee": "yes", "socket:sev1011_t23": "1", "socket:sev1011_t23:output": "3.7 kW", "socket:type1": "1", "socket:type1:output": "3.7 kW", "socket:type2_cable": "1", "socket:type2_cable:output": "11 kW"}}, {"type": "node", "id": 6361892482, "lat": 46.1268892, "lon": 8.9196228, "tags": {"addr:city": "Rivera", "addr:country": "CH", "addr:postcode": "6802", "addr:street": "Via Campagnole", "amenity": "charging_station", "bicycle": "yes", "brand": "bike-energy", "brand:wikidata": "Q67770877", "capacity": "4", "description": "POINT P4B f\u00fcr 4 E-Bikes. Das passende Ladekabel f\u00fcr Ihr E-Bike kann vor Ort ausgeliehen oder direkt auf www.bike-energy.com bestellt werden.", "name": "bike-energy", "network": "bike-energy", "operator": "Monte Tamaro"}}, {"type": "node", "id": 6361902909, "lat": 46.4939322, "lon": 8.8167005, "tags": {"addr:city": "Car\u00ec", "addr:country": "CH", "addr:housenumber": "5", "addr:postcode": "6760", "addr:street": "Car\u00ec Croce", "amenity": "charging_station", "bicycle": "yes", "capacity": "4", "description": "POINT P4B f\u00fcr 4 E-Bikes. Das passende Ladekabel f\u00fcr Ihr E-Bike kann vor Ort ausgeliehen oder direkt auf www.bike-energy.com bestellt werden.", "name": "bike-energy Ladestation", "network": "bike-energy", "operator": "Cari"}}, {"type": "node", "id": 6810092610, "lat": 46.1748589, "lon": 8.8557717, "tags": {"amenity": "charging_station", "description": "the charging station is on the upper level of the car parking", "level": "0", "motorcar": "yes"}}, {"type": "node", "id": 6960560040, "lat": 46.1555789, "lon": 8.7703353, "tags": {"amenity": "charging_station"}}, {"type": "node", "id": 8485766397, "lat": 46.3158346, "lon": 8.602761, "tags": {"access": "yes", "amenity": "charging_station", "authentication:app": "yes", "authentication:contactless": "yes", "authentication:none": "no", "capacity": "2", "covered": "no", "fee": "yes", "motorcar": "yes", "motorcycle": "yes", "name": "Posteggio Magazzino Pompieri", "network": "evpass", "opening_hours": "24/7", "operator": "emoti", "parking:fee": "no", "socket:sev1011_t23": "1", "socket:sev1011_t23:output": "3.7 kw", "socket:type1": "1", "socket:type1:output": "7 kW", "socket:type2_cable": "1", "socket:type2_cable:output": "22 kW"}}, {"type": "node", "id": 8658913861, "lat": 46.3743141, "lon": 8.4274419, "tags": {"access": "yes", "amenity": "charging_station", "brand": "Enel", "brand:wikidata": "Q651222", "brand:wikipedia": "en:Enel", "capacity": "4", "name": "Enel", "operator": "Enel", "operator:wikidata": "Q651222", "operator:wikipedia": "en:Enel", "source": "https://www.ticino24.it/index.php/8911-a-formazza-due-nuove-postazioni-per-auto-elettriche", "start_date": "2021-04-22"}}, {"type": "node", "id": 8841369751, "lat": 46.1783482, "lon": 8.8413328, "tags": {"access": "yes", "amenity": "charging_station", "authentication:app": "yes", "authentication:contactless": "yes", "bicycle": "yes", "capacity": "2", "covered": "no", "description": "2 Haushaltsteckdose Schweiz je 3.7 kW", "fee": "yes", "hgv": "no", "maxstay": "4 hours", "motorcar": "yes", "motorcycle": "yes", "network": "evpass", "opening_hours": "24/7", "operator": "Emoti", "parking:fee": "yes", "socket:sev1011_t23": "2", "socket:sev1011_t23:output": "3.7 kw", "socket:type1": "2", "socket:type1:output": "7 kW", "socket:type2_cable": "2", "socket:type2_cable:output": "22 kW"}}, {"type": "node", "id": 8841372762, "lat": 46.1606062, "lon": 8.8027907, "tags": {"amenity": "charging_station", "bicycle": "yes", "capacity": "4", "fee": "yes", "motorcar": "yes", "name": "Emoti", "opening_hours": "24/7"}}, {"type": "node", "id": 8850652185, "lat": 46.1628867, "lon": 8.8030152, "tags": {"amenity": "charging_station", "bicycle": "yes", "capacity": "4", "fee": "yes", "motorcar": "yes", "name": "Emoti", "opening_hours": "24/7"}}, {"type": "node", "id": 9041993016, "lat": 46.4775985, "lon": 8.799506, "tags": {"access": "yes", "amenity": "charging_station", "authentication:app": "yes", "authentication:contactless": "yes", "authentication:none": "no", "bicycle": "no", "capacity": "2", "covered": "no", "fee": "yes", "hgv": "no", "motorcar": "yes", "motorcycle": "yes", "name": "Via Gerra", "network": "evpass", "opening_hours": "24/7", "parking:fee": "no", "socket:sev1011_t13": "2", "socket:sev1011_t13:output": "3.7 kW", "socket:sev1011_t23": "2", "socket:sev1011_t23:output": "3.7 kw", "socket:type1": "2", "socket:type1:output": "7 kW", "socket:type2_cable": "2", "socket:type2_cable:output": "22 kW"}}, {"type": "node", "id": 9042012258, "lat": 46.4701316, "lon": 8.8163458, "tags": {"access": "yes", "amenity": "charging_station", "authentication:app": "yes", "authentication:contactless": "yes", "authentication:none": "yes", "bicycle": "no", "capacity": "2", "covered": "no", "fee": "yes", "hgv": "no", "motorcar": "yes", "motorcycle": "no", "name": "Emoti", "network": "evpass", "opening_hours": "24/7", "parking:fee": "no", "socket:chademo": "1", "socket:chademo:output": "50 kW", "socket:type2_cable": "1", "socket:type2_cable:output": "22 kW", "socket:type2_combo": "1", "socket:type2_combo:output": "50 kW"}}, {"type": "node", "id": 9042012362, "lat": 46.4940142, "lon": 8.8154263, "tags": {"access": "yes", "amenity": "charging_station", "authentication:app": "yes", "authentication:contactless": "yes", "bicycle": "no", "capacity": "2", "fee": "yes", "motorcar": "yes", "network": "evpass", "opening_hours": "24/7", "socket:sev1011_t23": "1", "socket:sev1011_t23:output": "3.7 kW", "socket:type1": "1", "socket:type1:output": "7kW", "socket:type2_cable": "1", "socket:type2_cable:output": "22 kW"}}, {"type": "node", "id": 9042012392, "lat": 46.3641399, "lon": 8.944643, "tags": {"access": "yes", "amenity": "charging_station", "authentication:app": "yes", "authentication:contactless": "yes", "bicycle": "yes", "capacity": "2", "description": "Zwei Haushaltstecker Schweiz", "fee": "yes", "motorcar": "yes", "network": "evpass", "opening_hours": "24/7", "operator": "Emoti", "socket:sev1011_t23": "2", "socket:sev1011_t23:output": "3.7 kW", "socket:type1": "2", "socket:type1:output": "7kW", "socket:type2_cable": "2", "socket:type2_cable:output": "22 kW"}}, {"type": "node", "id": 9042012409, "lat": 46.3596497, "lon": 8.9687366, "tags": {"access": "yes", "amenity": "charging_station", "authentication:app": "yes", "authentication:contactless": "yes", "bicycle": "yes", "capacity": "2", "description": "Zwei Haushaltsteckdosen - 3.7 kW", "fee": "yes", "motorcar": "yes", "network": "evpass", "opening_hours": "24/7", "operator": "Emoti", "socket:sev1011_t23": "2", "socket:sev1011_t23:output": "3.7 kW", "socket:type1": "2", "socket:type1:output": "7kW", "socket:type2_cable": "2", "socket:type2_cable:output": "22 kW"}}, {"type": "node", "id": 9043551873, "lat": 46.1520368, "lon": 8.9372735, "tags": {"access": "customers", "addr": "Fela Ticino 10 Via Stazione 6593 Cadenazzo", "addr:city": "Cadenazzo", "addr:country": "CH", "addr:housenumber": "10", "addr:postcode": "6593", "addr:street": "Via Stazione", "amenity": "charging_station", "brand": "Tesla Supercharger", "brand:wikidata": "Q17089620", "capacity": "4", "fee": "yes", "motorcar": "yes", "name": "Cadenazzo Supercharger", "opening_hours": "24/7", "operator": "Tesla, Inc.", "operator:wikidata": "Q478214", "socket:tesla_supercharger": "4", "socket:tesla_supercharger:output": "250 kW"}}, {"type": "node", "id": 9043556356, "lat": 46.1820877, "lon": 9.0018335, "tags": {"access": "yes", "amenity": "charging_station", "authentication:app": "yes", "authentication:contactless": "yes", "bicycle": "no", "capacity": "2", "covered": "no", "fee": "yes", "motorcar": "yes", "network": "Swisscharge", "opening_hours": "24/7", "operator": "GOFAST", "operator:wikidata": "Q130426825", "parking:fee": "no", "socket:chademo": "1", "socket:chademo:output": "80 kW", "socket:type2_cable": "1", "socket:type2_cable:output": "43 kW", "socket:type2_combo": "1", "socket:type2_combo:output": "80 kW"}}, {"type": "node", "id": 9043556357, "lat": 46.1821293, "lon": 9.0016342, "tags": {"access": "yes", "amenity": "charging_station", "authentication:app": "yes", "authentication:contactless": "yes", "bicycle": "no", "brand": "Ionity", "brand:wikidata": "Q42717773", "capacity": "6", "covered": "no", "fee": "yes", "motorcar": "yes", "name": "IONITY Bellinzona S\u00fcd", "network": "Ionity", "opening_hours": "24/7", "operator": "Ionity", "parking:fee": "no", "socket:type2_combo": "1", "socket:type2_combo:output": "175 kW"}}, {"type": "node", "id": 9043556358, "lat": 46.1821521, "lon": 9.0016534, "tags": {"access": "yes", "amenity": "charging_station", "authentication:app": "yes", "authentication:contactless": "yes", "bicycle": "no", "brand": "Ionity", "brand:wikidata": "Q42717773", "capacity": "6", "covered": "no", "fee": "yes", "motorcar": "yes", "name": "IONITY Bellinzona S\u00fcd", "network": "Ionity", "opening_hours": "24/7", "operator": "Ionity", "parking:fee": "no", "socket:type2_combo": "1", "socket:type2_combo:output": "175 kW"}}, {"type": "node", "id": 9043556359, "lat": 46.1821746, "lon": 9.0016723, "tags": {"access": "yes", "amenity": "charging_station", "authentication:app": "yes", "authentication:contactless": "yes", "bicycle": "no", "brand": "Ionity", "brand:wikidata": "Q42717773", "capacity": "6", "covered": "no", "fee": "yes", "motorcar": "yes", "name": "IONITY Bellinzona S\u00fcd", "network": "Ionity", "opening_hours": "24/7", "operator": "Ionity", "parking:fee": "no", "socket:type2_combo": "1", "socket:type2_combo:output": "175 kW"}}, {"type": "node", "id": 9043556360, "lat": 46.1821958, "lon": 9.00169, "tags": {"access": "yes", "amenity": "charging_station", "authentication:app": "yes", "authentication:contactless": "yes", "bicycle": "no", "brand": "Ionity", "brand:wikidata": "Q42717773", "capacity": "6", "covered": "no", "fee": "yes", "motorcar": "yes", "name": "IONITY Bellinzona S\u00fcd", "network": "Ionity", "opening_hours": "24/7", "operator": "Ionity", "parking:fee": "no", "socket:type2_combo": "1", "socket:type2_combo:output": "175 kW"}}, {"type": "node", "id": 9043621462, "lat": 46.1519877, "lon": 8.9374724, "tags": {"amenity": "charging_station", "bicycle": "yes", "name": "bike energy"}}, {"type": "node", "id": 9043621463, "lat": 46.1519956, "lon": 8.9375066, "tags": {"access": "yes", "amenity": "charging_station", "bicycle": "no", "capacity": "2", "contact:website": "https://app.gofast.swiss/s/7", "covered": "no", "fee": "yes", "motorcar": "yes", "name": "GOFAST Cadenazzo", "network": "Swisscharge", "opening_hours": "24/7", "operator": "GOFAST", "operator:wikidata": "Q130426825", "parking:fee": "no", "socket:chademo": "1", "socket:chademo:output": "60 kW", "socket:type2": "1", "socket:type2_cable:output": "43 kW", "socket:type2_combo": "1", "socket:type2_combo:output": "100 kW"}}, {"type": "node", "id": 9043679500, "lat": 46.1729863, "lon": 8.9992471, "tags": {"access": "yes", "amenity": "charging_station", "authentication:app": "yes", "authentication:contactless": "yes", "bicycle": "yes", "capacity": "2", "description": "Zwei Haushaltsteckdosen Schweiz - 3.7 kW", "fee": "yes", "motorcar": "yes", "network": "evpass", "opening_hours": "24/7", "operator": "Emoti", "parking:fee": "no", "socket:sev1011_t23": "2", "socket:sev1011_t23:output": "3.7 kW", "socket:type1": "2", "socket:type1:output": "7 kW", "socket:type2_cable": "2", "socket:type2_cable:output": "22 kW"}}, {"type": "node", "id": 9043857867, "lat": 46.163553, "lon": 9.0064701, "tags": {"access": "yes", "amenity": "charging_station", "authentication:app": "yes", "authentication:contactless": "yes", "bicycle": "yes", "capacity": "2", "covered": "no", "description": "Eine Haushaltsteckdose Schweiz - 3.7 kW", "fee": "yes", "motorcar": "yes", "network": "evpass", "opening_hours": "24/7", "operator": "Emoti", "parking:fee": "no", "socket:sev1011_t23": "1", "socket:sev1011_t23:output": "3.7 kW", "socket:type1": "1", "socket:type1:output": "7 kW", "socket:type2_cable": "1", "socket:type2_cable:output": "22 kW"}}, {"type": "node", "id": 9043857868, "lat": 46.1633102, "lon": 8.9986567, "tags": {"access": "yes", "amenity": "charging_station", "authentication:app": "yes", "authentication:contactless": "yes", "bicycle": "yes", "capacity": "2", "covered": "no", "description": "Zwei Haushaltsteckdosen Schweiz - 3.7 kW", "fee": "yes", "motorcar": "yes", "network": "evpass", "opening_hours": "24/7", "operator": "Emoti", "parking:fee": "no", "socket:sev1011_t23": "2", "socket:sev1011_t23:output": "3.7 kW", "socket:type1": "2", "socket:type1:output": "7 kW", "socket:type2_cable": "2", "socket:type2_cable:output": "22 kW"}}, {"type": "node", "id": 9043858046, "lat": 46.15908, "lon": 8.9751529, "tags": {"access": "yes", "amenity": "charging_station", "authentication:app": "yes", "authentication:contactless": "yes", "bicycle": "no", "capacity": "2", "covered": "no", "fee": "yes", "motorcar": "yes", "network": "evpass", "opening_hours": "24/7", "parking:fee": "no", "socket:sev1011_t23": "2", "socket:sev1011_t23:output": "3.7 kW", "socket:type1": "2", "socket:type1:output": "7 kW", "socket:type2_cable": "2", "socket:type2_cable:output": "22 kW"}}, {"type": "node", "id": 9043858095, "lat": 46.1588808, "lon": 8.9750591, "tags": {"access": "yes", "amenity": "charging_station", "authentication:app": "yes", "authentication:contactless": "yes", "bicycle": "no", "capacity": "2", "covered": "no", "fee": "yes", "motorcar": "yes", "network": "evpass", "opening_hours": "24/7", "parking:fee": "no", "socket:sev1011_t23": "1", "socket:sev1011_t23:output": "3.7 kW", "socket:type1": "1", "socket:type1:output": "7 kW", "socket:type2_cable": "1", "socket:type2_cable:output": "22 kW"}}, {"type": "node", "id": 9043858290, "lat": 46.1572967, "lon": 8.9762679, "tags": {"access": "yes", "amenity": "charging_station", "authentication:app": "yes", "authentication:contactless": "yes", "bicycle": "no", "capacity": "2", "covered": "no", "fee": "yes", "motorcar": "yes", "network": "evpass", "opening_hours": "24/7", "parking:fee": "no", "socket:sev1011_t23": "1", "socket:sev1011_t23:output": "3.7 kW", "socket:type1": "1", "socket:type1:output": "7 kW", "socket:type2_cable": "1", "socket:type2_cable:output": "22 kW"}}, {"type": "node", "id": 9043948430, "lat": 46.1538817, "lon": 8.9657387, "tags": {"access": "yes", "amenity": "charging_station", "authentication:app": "yes", "authentication:contactless": "yes", "bicycle": "no", "capacity": "2", "covered": "no", "fee": "yes", "motorcar": "yes", "network": "Lidl", "opening_hours": "24/7", "parking:fee": "no", "socket:chademo": "1", "socket:chademo:output": "50 kW", "socket:type2_cable": "1", "socket:type2_cable:output": "43 kW", "socket:type2_combo": "1", "socket:type2_combo:output": "50 kW"}}, {"type": "node", "id": 9043948431, "lat": 46.1544968, "lon": 8.9618385, "tags": {"access": "yes", "amenity": "charging_station", "authentication:app": "yes", "authentication:contactless": "yes", "bicycle": "no", "capacity": "2", "covered": "no", "fee": "yes", "motorcar": "yes", "network": "evpass", "opening_hours": "24/7", "parking:fee": "no", "socket:chademo": "1", "socket:chademo:output": "20 kW", "socket:type2_cable": "1", "socket:type2_cable:output": "22 kW"}}, {"type": "node", "id": 9043948482, "lat": 46.1753201, "lon": 8.9179295, "tags": {"access": "yes", "amenity": "charging_station", "authentication:app": "yes", "authentication:contactless": "yes", "bicycle": "yes", "capacity": "2", "covered": "no", "description": "Mit Haushaltsteckdose Schweiz - 3.7 kW", "fee": "yes", "motorcar": "yes", "network": "evpass", "opening_hours": "24/7", "parking:fee": "no", "socket:sev1011_t23": "1", "socket:sev1011_t23:output": "3.7 kW", "socket:type1": "1", "socket:type1:output": "7 kW", "socket:type2_cable": "1", "socket:type2_cable:output": "22 kW"}}, {"type": "node", "id": 9043948731, "lat": 46.1720509, "lon": 8.9009284, "tags": {"access": "yes", "amenity": "charging_station", "bicycle": "no", "capacity": "1", "covered": "no", "fee": "yes", "motorcar": "yes", "parking:fee": "no", "socket:type1": "1", "socket:type1:output": "7 kW", "socket:type2": "1", "socket:type2:output": "22 kW"}}, {"type": "node", "id": 9043948734, "lat": 46.1750282, "lon": 8.8897989, "tags": {"access": "yes", "amenity": "charging_station", "authentication:app": "yes", "authentication:contactless": "yes", "bicycle": "no", "capacity": "2", "covered": "no", "fee": "yes", "motorcar": "yes", "socket:type2": "2", "socket:type2:output": "22 kW"}}, {"type": "node", "id": 9043948735, "lat": 46.1777207, "lon": 8.877073, "tags": {"access": "yes", "amenity": "charging_station", "authentication:app": "yes", "authentication:contactless": "yes", "bicycle": "no", "capacity": "2", "covered": "no", "fee": "yes", "motorcar": "yes", "opening_hours": "24/7", "socket:type2": "1", "socket:type2:output": "22 kW", "socket:type2_combo": "1", "socket:type2_combo:output": "50 kW"}}, {"type": "node", "id": 9043948741, "lat": 46.1697778, "lon": 8.8545952, "tags": {"access": "yes", "amenity": "charging_station", "authentication:app": "yes", "authentication:contactless": "yes", "bicycle": "no", "capacity": "2", "covered": "no", "fee": "yes", "motorcar": "yes", "network": "Swisscharge", "opening_hours": "24/7", "operator": "GOFAST", "operator:wikidata": "Q130426825", "parking:fee": "no", "socket:chademo": "1", "socket:chademo:output": "50 kW", "socket:type2_cable": "1", "socket:type2_cable:output": "22 kW", "socket:type2_combo": "2", "socket:type2_combo:output": "150 kW"}}, {"type": "node", "id": 9045320449, "lat": 46.1714979, "lon": 8.8071668, "tags": {"access": "yes", "amenity": "charging_station", "authentication:app": "yes", "authentication:contactless": "yes", "bicycle": "no", "capacity": "2", "covered": "no", "fee": "yes", "motorcar": "yes", "network": "evpass", "opening_hours": "24/7", "parking:fee": "no", "socket:sev1011_t23": "2", "socket:sev1011_t23:output": "3.7 kW", "socket:type1": "2", "socket:type1:output": "7 kW", "socket:type2_cable": "2", "socket:type2_cable:output": "22 kW"}}, {"type": "node", "id": 9045320528, "lat": 46.1711421, "lon": 8.8010298, "tags": {"access": "yes", "amenity": "charging_station", "authentication:app": "yes", "authentication:contactless": "yes", "bicycle": "no", "capacity": "2", "covered": "no", "fee": "yes", "motorcar": "yes", "network": "evpass", "opening_hours": "24/7", "parking:fee": "no", "socket:sev1011_t23": "2", "socket:sev1011_t23:output": "3.7 kW", "socket:type1": "2", "socket:type1:output": "7 kW", "socket:type2_cable": "2", "socket:type2_cable:output": "22 kW"}}, {"type": "node", "id": 9045320540, "lat": 46.1695776, "lon": 8.7975095, "tags": {"access": "yes", "amenity": "charging_station", "authentication:app": "yes", "authentication:contactless": "yes", "bicycle": "no", "capacity": "2", "covered": "no", "fee": "yes", "motorcar": "yes", "network": "evpass", "opening_hours": "24/7", "operator": "emoti", "parking:fee": "no", "socket:sev1011_t23": "2", "socket:sev1011_t23:output": "3.7 kW", "socket:type1": "2", "socket:type1:output": "7 kW", "socket:type2_cable": "2", "socket:type2_cable:output": "22 kW"}}, {"type": "node", "id": 9045320612, "lat": 46.1659064, "lon": 8.8035494, "tags": {"access": "yes", "amenity": "charging_station", "authentication:app": "yes", "authentication:contactless": "yes", "bicycle": "yes", "capacity": "2", "covered": "no", "description": "Zwei Haushaltsteckdosen Schweiz mit je 3.7 kW (links und rechts)", "fee": "yes", "motorcar": "yes", "network": "evpass", "opening_hours": "24/7", "parking:fee": "no", "socket:sev1011_t23": "2", "socket:sev1011_t23:output": "3.7 kW", "socket:type1": "2", "socket:type1:output": "7 kW", "socket:type2_cable": "2", "socket:type2_cable:output": "22 kW"}}, {"type": "node", "id": 9045320620, "lat": 46.162915, "lon": 8.8030318, "tags": {"access": "yes", "amenity": "charging_station", "authentication:app": "yes", "authentication:contactless": "yes", "bicycle": "yes", "capacity": "2", "covered": "no", "description": "Zwei Haushaltsteckdosen Schweiz mit 3.7 kW (links und rechts)", "fee": "yes", "motorcar": "yes", "network": "evpass", "opening_hours": "24/7", "parking:fee": "no", "socket:sev1011_t23": "2", "socket:sev1011_t23:output": "3.7 kW", "socket:type1": "2", "socket:type1:output": "7 kW", "socket:type2_cable": "2", "socket:type2_cable:output": "22 kW"}}, {"type": "node", "id": 9045320696, "lat": 46.16058, "lon": 8.802821, "tags": {"access": "yes", "amenity": "charging_station", "authentication:app": "yes", "authentication:contactless": "yes", "bicycle": "yes", "capacity": "2", "covered": "no", "description": "Zwei Haushaltsteckdosen Schweiz mit 3.7 kW (links und rechts)", "fee": "yes", "motorcar": "yes", "network": "evpass", "opening_hours": "24/7", "operator": "emoti", "parking:fee": "no", "socket:sev1011_t23": "2", "socket:sev1011_t23:output": "3.7 kW", "socket:type1": "2", "socket:type1:output": "7 kW", "socket:type2_cable": "2", "socket:type2_cable:output": "22 kW"}}, {"type": "node", "id": 9045320697, "lat": 46.1621024, "lon": 8.7959425, "tags": {"access": "yes", "amenity": "charging_station", "authentication:app": "yes", "authentication:contactless": "yes", "bicycle": "no", "capacity": "2", "covered": "no", "fee": "yes", "motorcar": "yes", "network": "evpass", "opening_hours": "24/7", "parking:fee": "no", "socket:type1": "1", "socket:type1:output": "7 kW", "socket:type2_cable": "1", "socket:type2_cable:output": "22 kW"}}, {"type": "node", "id": 9045406200, "lat": 46.226219, "lon": 8.7449233, "tags": {"access": "yes", "amenity": "charging_station", "authentication:app": "yes", "authentication:contactless": "yes", "bicycle": "yes", "capacity": "2", "covered": "no", "description": "inkl. Haushaltsteckdosen Schweiz 3.7 kW", "fee": "yes", "motorcar": "yes", "network": "evpass", "opening_hours": "24/7", "parking:fee": "no", "socket:sev1011_t23": "1", "socket:sev1011_t23:output": "3.7 kW", "socket:type1": "1", "socket:type1:output": "7 kW", "socket:type2_cable": "1", "socket:type2_cable:output": "22 kW"}}, {"type": "node", "id": 9045406205, "lat": 46.3171641, "lon": 8.6026512, "tags": {"access": "yes", "amenity": "charging_station", "authentication:app": "yes", "authentication:contactless": "yes", "bicycle": "no", "capacity": "2", "covered": "no", "fee": "yes", "motorcar": "yes", "network": "evpass", "opening_hours": "24/7", "parking:fee": "no", "socket:sev1011_t23": "2", "socket:sev1011_t23:output": "3.7 kW", "socket:type1": "2", "socket:type1:output": "7 kW", "socket:type2_cable": "2", "socket:type2_cable:output": "22 kW"}}, {"type": "node", "id": 9045422317, "lat": 46.1517224, "lon": 8.7719262, "tags": {"access": "yes", "amenity": "charging_station", "authentication:app": "yes", "authentication:contactless": "yes", "bicycle": "no", "capacity": "4", "covered": "no", "fee": "yes", "motorcar": "yes", "opening_hours": "24/7", "parking:fee": "no", "socket:chademo": "1", "socket:chademo:output": "50 kW", "socket:type2": "1", "socket:type2:output": "11 kW", "socket:type2_combo": "1", "socket:type2_combo:output": "50 kW"}}, {"type": "node", "id": 9045422363, "lat": 46.1600901, "lon": 8.7742427, "tags": {"access": "yes", "amenity": "charging_station", "authentication:app": "yes", "authentication:contactless": "yes", "bicycle": "no", "capacity": "2", "covered": "no", "fee": "yes", "motorcar": "yes", "opening_hours": "24/7", "parking:fee": "no", "socket:chademo": "1", "socket:chademo:output": "7 kW", "socket:type2": "1", "socket:type2:output": "22 kW", "socket:type2_combo": "1", "socket:type2_combo:output": "50 kW"}}, {"type": "node", "id": 9045422591, "lat": 46.1654411, "lon": 8.7593164, "tags": {"access": "yes", "amenity": "charging_station", "authentication:app": "yes", "authentication:contactless": "yes", "bicycle": "no", "capacity": "2", "covered": "no", "fee": "yes", "motorcar": "yes", "network": "evpass", "opening_hours": "24/7", "parking:fee": "no", "socket:sev1011_t23": "2", "socket:sev1011_t23:output": "3.7 kW", "socket:type1": "2", "socket:type1:output": "7 kW", "socket:type2_cable": "2", "socket:type2_cable:output": "22 kW"}}, {"type": "node", "id": 9045422783, "lat": 46.1861394, "lon": 8.7436256, "tags": {"access": "yes", "amenity": "charging_station", "authentication:app": "yes", "authentication:contactless": "yes", "bicycle": "yes", "capacity": "2", "covered": "no", "description": "Zwei Haushaltsteckdosen Schweiz 3.7 kW", "fee": "yes", "motorcar": "yes", "network": "evpass", "opening_hours": "24/7", "operator": "Emoti", "parking:fee": "no", "socket:sev1011_t23": "2", "socket:sev1011_t23:output": "3.7 kW", "socket:type1": "2", "socket:type1:output": "7 kW", "socket:type2_cable": "2", "socket:type2_cable:output": "22 kW"}}, {"type": "node", "id": 9045422800, "lat": 46.1984812, "lon": 8.7503852, "tags": {"access": "yes", "amenity": "charging_station", "authentication:app": "yes", "authentication:contactless": "yes", "bicycle": "no", "capacity": "2", "covered": "no", "fee": "yes", "motorcar": "yes", "network": "Swisscharge", "opening_hours": "24/7", "parking:fee": "no", "socket:chademo": "1", "socket:chademo:output": "20 kW", "socket:type2": "1", "socket:type2:output": "22 kW", "socket:type2_combo": "1", "socket:type2_combo:output": "20 kW"}}, {"type": "node", "id": 9045422906, "lat": 46.205054, "lon": 8.7437887, "tags": {"access": "yes", "amenity": "charging_station", "authentication:app": "yes", "authentication:contactless": "yes", "bicycle": "yes", "capacity": "1", "covered": "no", "description": "Eine Haushaltsteckdosen Schweiz 3.7 kW", "fee": "yes", "motorcar": "yes", "network": "evpass", "opening_hours": "24/7", "operator": "Emoti", "parking:fee": "no", "socket:sev1011_t23": "1", "socket:sev1011_t23:output": "3.7 kW", "socket:type1": "1", "socket:type1:output": "7 kW", "socket:type2_cable": "1", "socket:type2_cable:output": "22 kW"}}, {"type": "node", "id": 9045436144, "lat": 46.4031244, "lon": 8.9833047, "tags": {"access": "yes", "amenity": "charging_station", "authentication:app": "yes", "authentication:contactless": "yes", "bicycle": "no", "capacity": "2", "covered": "no", "fee": "yes", "motorcar": "yes", "network": "evpass", "opening_hours": "24/7", "parking:fee": "no", "socket:sev1011_t23": "2", "socket:sev1011_t23:output": "3.7 kW", "socket:type1": "2", "socket:type1:output": "7 kW", "socket:type2_cable": "2", "socket:type2_cable:output": "22 kW"}}, {"type": "node", "id": 9045449051, "lat": 46.2013358, "lon": 8.6207996, "tags": {"access": "yes", "amenity": "charging_station", "authentication:app": "yes", "authentication:contactless": "yes", "authentication:none": "no", "bicycle": "no", "capacity": "1", "covered": "no", "fee": "yes", "motorcar": "yes", "motorcycle": "yes", "network": "evpass", "opening_hours": "24/7", "parking:fee": "no", "socket:sev1011_t23": "1", "socket:sev1011_t23:output": "3.7 kW", "socket:type1": "1", "socket:type1:output": "7 kW", "socket:type2_cable": "1", "socket:type2_cable:output": "22 kW"}}, {"type": "node", "id": 9103688492, "lat": 46.1391327, "lon": 8.9072896}, {"type": "node", "id": 9191026725, "lat": 46.1331186, "lon": 8.455504, "tags": {"access": "yes", "amenity": "charging_station", "covered": "no", "name": "Atlante", "operator": "NHOA-Free2Move eSolutions", "socket:chademo": "1", "socket:type2_combo": "1", "source": "https://www.hdmotori.it/fca/articoli/n545891/progetto-atlante-stellantis-ricarica-piemonte/", "start_date": "2021-10-20"}}, {"type": "node", "id": 9720670516, "lat": 46.1169967, "lon": 8.8932302, "tags": {"amenity": "charging_station", "capacity": "4", "description": "Adapter-Ladekabel am der Kasse des Restaurants. Recharge cable at cashier desk in the restaurant. Le c\u00e2ble de recharge \u00e0 la caisse du restaurant.", "fee": "no"}}, {"type": "node", "id": 9727653633, "lat": 46.148373, "lon": 8.7790451, "tags": {"amenity": "charging_station", "capacity": "2", "fixme": "Add other attributes", "motorcar": "yes"}}, {"type": "node", "id": 10073813808, "lat": 46.0998924, "lon": 9.0140017, "tags": {"amenity": "charging_station", "bicycle": "yes", "motorcar": "no"}}, {"type": "node", "id": 10249595018, "lat": 46.1391625, "lon": 8.9073373}, {"type": "node", "id": 10249595019, "lat": 46.1391703, "lon": 8.9073529}, {"type": "node", "id": 10249595021, "lat": 46.1392986, "lon": 8.9070679}, {"type": "node", "id": 10284248220, "lat": 46.1822181, "lon": 9.0017087, "tags": {"access": "yes", "amenity": "charging_station", "authentication:app": "yes", "authentication:contactless": "yes", "bicycle": "no", "brand": "Ionity", "brand:wikidata": "Q42717773", "capacity": "6", "covered": "no", "fee": "yes", "motorcar": "yes", "name": "IONITY Bellinzona S\u00fcd", "network": "Ionity", "opening_hours": "24/7", "operator": "Ionity", "parking:fee": "no", "socket:type2_combo": "1", "socket:type2_combo:output": "175 kW"}}, {"type": "node", "id": 10284248221, "lat": 46.1822396, "lon": 9.0017268, "tags": {"access": "yes", "amenity": "charging_station", "authentication:app": "yes", "authentication:contactless": "yes", "bicycle": "no", "brand": "Ionity", "brand:wikidata": "Q42717773", "capacity": "6", "covered": "no", "fee": "yes", "motorcar": "yes", "name": "IONITY Bellinzona Sud", "network": "Ionity", "opening_hours": "24/7", "operator": "Ionity", "parking:fee": "no", "socket:type2_combo": "1", "socket:type2_combo:output": "350 kW"}}, {"type": "node", "id": 10614387560, "lat": 46.3159821, "lon": 8.4935565, "tags": {"access": "yes", "amenity": "charging_station", "authentication:app": "yes", "authentication:contactless": "yes", "bicycle": "no", "capacity": "2", "covered": "no", "fee": "yes", "motorcar": "yes", "network": "evpass", "opening_hours": "24/7", "parking:fee": "yes", "socket:sev1011_t23": "2", "socket:sev1011_t23:output": "3.7 kW", "socket:type1": "2", "socket:type1:output": "7.4 kW", "socket:type2_cable": "2", "socket:type2_cable:output": "22 kW"}}, {"type": "node", "id": 10614468469, "lat": 46.176574, "lon": 8.6998838, "tags": {"access": "yes", "amenity": "charging_station", "authentication:app": "yes", "authentication:contactless": "yes", "bicycle": "no", "capacity": "2", "covered": "no", "fee": "yes", "motorcar": "yes", "network": "evpass", "opening_hours": "24/7", "parking:fee": "yes", "socket:type2_cable": "1", "socket:type2_cable:output": "22 kW"}}, {"type": "node", "id": 10614476276, "lat": 46.1500595, "lon": 8.7901952, "tags": {"access": "customers", "amenity": "charging_station", "authentication:app": "yes", "authentication:contactless": "yes", "bicycle": "no", "capacity": "1", "covered": "yes", "description:de": "In Tiefgarage des Hotels Giardino. Nur f\u00fcr Kunden.", "fee": "yes", "motorcar": "yes", "network": "evpass", "opening_hours": "24/7", "parking:fee": "no", "socket:sev1011_t23": "1", "socket:sev1011_t23:output": "3.7 kW", "socket:type1": "1", "socket:type1:output": "3.7 kW", "socket:type2_cable": "1", "socket:type2_cable:output": "22 kW"}}, {"type": "node", "id": 10614487513, "lat": 46.2969773, "lon": 8.7905782, "tags": {"access": "yes", "amenity": "charging_station", "authentication:app": "yes", "authentication:contactless": "yes", "bicycle": "yes", "capacity": "2", "covered": "no", "description": "Zwei Haushaltsteckdosen Schweiz 3.7 kW", "fee": "yes", "motorcar": "yes", "network": "evpass", "opening_hours": "24/7", "operator": "Emoti", "parking:fee": "no", "socket:sev1011_t23": "2", "socket:sev1011_t23:output": "3.7 kW", "socket:type1": "2", "socket:type1:output": "7.4 kW", "socket:type2_cable": "2", "socket:type2_cable:output": "22 kW"}}, {"type": "node", "id": 10614898100, "lat": 46.1247272, "lon": 8.9228009, "tags": {"access": "yes", "amenity": "charging_station", "authentication:app": "yes", "authentication:contactless": "yes", "bicycle": "yes", "capacity": "2", "covered": "no", "description": "Kabel Typ 1 - 7 kW\nKabel Typ 2 - 22 kW\nHaushaltsteckdose Schweiz - 3.7 kW", "fee": "yes", "motorcar": "yes", "network": "evpass", "opening_hours": "24/7", "operator": "Emoti", "parking:fee": "no", "socket:sev1011_t23": "2", "socket:sev1011_t23:output": "3.7 kW", "socket:type1": "2", "socket:type1:output": "7.4 kW", "socket:type2_cable": "2", "socket:type2_cable:output": "22 kW"}}, {"type": "node", "id": 10614915600, "lat": 46.1235242, "lon": 8.9253887, "tags": {"access": "yes", "amenity": "charging_station", "authentication:none": "yes", "bicycle": "no", "capacity": "1", "covered": "no", "fee": "no", "motorcar": "yes", "opening_hours": "24/7", "parking:fee": "yes", "socket:cee_blue": "2", "socket:cee_blue:output": "3.7 kW", "socket:sev1011_t13": "1", "socket:sev1011_t13:output": "2 kW"}}, {"type": "node", "id": 10617863774, "lat": 46.1560951, "lon": 8.7712604, "tags": {"access": "yes", "amenity": "charging_station", "authentication:none": "yes", "bicycle": "no", "capacity": "10", "covered": "yes", "description:de": "1. Ebene Parkhaus", "fee": "no", "motorcar": "yes", "opening_hours": "unknown", "parking:fee": "yes", "socket:type2": "10", "socket:type2:output": "22 kW"}}, {"type": "node", "id": 10617999434, "lat": 46.1513109, "lon": 8.9480761, "tags": {"access": "yes", "amenity": "charging_station", "bicycle": "no", "capacity": "1", "covered": "no", "fee": "yes", "motorcar": "yes", "network": "Evite", "opening_hours": "24/7", "parking:fee": "no", "socket:chademo": "1", "socket:chademo:output": "18 kW", "socket:type2": "1", "socket:type2:output": "22 kW"}}, {"type": "node", "id": 10617999446, "lat": 46.1583566, "lon": 8.9692408, "tags": {"access": "yes", "amenity": "charging_station", "authentication:app": "yes", "authentication:contactless": "yes", "bicycle": "no", "capacity": "2", "covered": "no", "fee": "yes", "motorcar": "yes", "network": "evpass", "opening_hours": "24/7", "operator": "emoti", "parking:fee": "yes", "socket:sev1011_t23": "2", "socket:sev1011_t23:output": "3.7 kW", "socket:type1": "2", "socket:type1:output": "7.4 kW", "socket:type2_cable": "2", "socket:type2_cable:output": "22 kW"}}, {"type": "node", "id": 10617999447, "lat": 46.1583173, "lon": 8.9692717, "tags": {"access": "yes", "amenity": "charging_station", "authentication:app": "yes", "authentication:contactless": "yes", "bicycle": "no", "capacity": "2", "covered": "no", "fee": "yes", "motorcar": "yes", "network": "evpass", "opening_hours": "24/7", "operator": "emoti", "parking:fee": "yes", "socket:sev1011_t23": "2", "socket:sev1011_t23:output": "3.7 kW", "socket:type1": "2", "socket:type1:output": "7.4 kW", "socket:type2_cable": "2", "socket:type2_cable:output": "22 kW"}}, {"type": "node", "id": 10820409965, "lat": 46.1518563, "lon": 8.8816846, "tags": {"access": "yes", "amenity": "charging_station", "authentication:app": "yes", "authentication:contactless": "yes", "bicycle": "yes", "capacity": "2", "covered": "no", "motorcar": "yes", "network": "evpass", "opening_hours": "24/7", "socket:sev1011_t23": "2", "socket:sev1011_t23:output": "3.7 kW", "socket:type1": "2", "socket:type1:output": "7.4 kW", "socket:type2_cable": "2", "socket:type2_cable:output": "22 kW"}}, {"type": "node", "id": 10830820173, "lat": 46.1463916, "lon": 8.8661468, "tags": {"access": "unknown", "amenity": "charging_station", "authentication:app": "yes", "authentication:contactless": "yes", "bicycle": "no", "covered": "no", "fee": "yes", "motorcar": "yes", "network": "evpass", "opening_hours": "24/7", "parking:fee": "no", "socket:type1": "1", "socket:type2:output": "7.4 kW", "socket:type2_cable": "1", "socket:type2_cable:output": "22 kW"}}, {"type": "node", "id": 10844724371, "lat": 46.1143785, "lon": 8.9326236, "tags": {"access": "yes", "amenity": "charging_station", "authentication:app": "yes", "authentication:contactless": "yes", "bicycle": "no", "capacity": "1", "covered": "no", "fee": "yes", "motorcar": "yes", "opening_hours": "24/7", "operator": "Emoti", "parking:fee": "no", "socket:type1": "1", "socket:type1:output": "7.4 kW", "socket:type2_cable": "1", "socket:type2_cable:output": "22 kW"}}, {"type": "node", "id": 10844726392, "lat": 46.1764272, "lon": 8.8846943, "tags": {"access": "yes", "amenity": "charging_station", "authentication:app": "yes", "authentication:contactless": "yes", "bicycle": "no", "capacity": "1", "covered": "no", "fee": "yes", "motorcar": "yes", "opening_hours": "24/7", "parking:fee": "no", "socket:chademo": "1", "socket:chademo:output": "66 kW", "socket:type2_cable": "1", "socket:type2_cable:output": "66 kW"}}, {"type": "node", "id": 10846056360, "lat": 46.4934418, "lon": 8.7803969, "tags": {"access": "yes", "amenity": "charging_station", "authentication:app": "yes", "authentication:contactless": "yes", "bicycle": "no", "capacity": "2", "covered": "no", "fee": "yes", "hgv": "no", "motorcar": "yes", "motorcycle": "yes", "network": "evpass", "opening_hours": "24/7", "operator": "Emoti", "parking:fee": "no", "socket:sev1011_t23": "2", "socket:sev1011_t23:output": "3.7 kw", "socket:type1": "2", "socket:type1:output": "7 kW", "socket:type2_cable": "2", "socket:type2_cable:output": "22 kW"}}, {"type": "node", "id": 10846056362, "lat": 46.4818842, "lon": 8.7907377, "tags": {"access": "yes", "amenity": "charging_station", "authentication:app": "yes", "authentication:contactless": "yes", "bicycle": "no", "capacity": "1", "covered": "no", "fee": "yes", "hgv": "no", "motorcar": "yes", "motorcycle": "yes", "network": "evpass", "opening_hours": "24/7", "operator": "Emoti", "parking:fee": "no", "socket:type1": "1", "socket:type1:output": "7 kW", "socket:type2_cable": "1", "socket:type2_cable:output": "22 kW"}}, {"type": "node", "id": 10846056363, "lat": 46.4748965, "lon": 8.8020879, "tags": {"access": "yes", "amenity": "charging_station", "authentication:app": "yes", "authentication:contactless": "yes", "bicycle": "no", "capacity": "1", "covered": "no", "fee": "yes", "hgv": "no", "motorcar": "yes", "motorcycle": "yes", "network": "evpass", "opening_hours": "24/7", "operator": "Emoti", "parking:fee": "no", "socket:type1": "1", "socket:type1:output": "7 kW", "socket:type2_cable": "1", "socket:type2_cable:output": "22 kW"}}, {"type": "node", "id": 10846056364, "lat": 46.4417305, "lon": 8.839468, "tags": {"access": "yes", "amenity": "charging_station", "authentication:app": "yes", "authentication:contactless": "yes", "bicycle": "no", "capacity": "2", "covered": "no", "fee": "yes", "hgv": "no", "motorcar": "yes", "motorcycle": "yes", "network": "evpass", "opening_hours": "24/7", "operator": "Emoti", "parking:fee": "no", "socket:sev1011_t23": "2", "socket:sev1011_t23:output": "3.7 kw", "socket:type1": "2", "socket:type1:output": "7 kW", "socket:type2_cable": "2", "socket:type2_cable:output": "22 kW"}}, {"type": "node", "id": 10846056365, "lat": 46.1880304, "lon": 8.9963795, "tags": {"access": "yes", "amenity": "charging_station", "authentication:app": "yes", "authentication:contactless": "yes", "bicycle": "yes", "capacity": "2", "covered": "no", "fee": "yes", "hgv": "no", "motorcar": "yes", "motorcycle": "yes", "network": "evpass", "opening_hours": "24/7", "operator": "Emoti", "parking:fee": "yes", "socket:sev1011_t23": "2", "socket:sev1011_t23:output": "3.7 kw", "socket:type1": "2", "socket:type1:output": "7 kW", "socket:type2_cable": "2", "socket:type2_cable:output": "22 kW"}}, {"type": "node", "id": 10846056399, "lat": 46.181713, "lon": 8.8586329, "tags": {"access": "yes", "amenity": "charging_station", "authentication:app": "yes", "authentication:contactless": "yes", "bicycle": "no", "capacity": "1", "covered": "no", "fee": "yes", "hgv": "no", "motorcar": "yes", "motorcycle": "yes", "network": "evpass", "opening_hours": "24/7", "operator": "Emoti", "parking:fee": "yes", "socket:sev1011_t23": "1", "socket:sev1011_t23:output": "3.7 kw", "socket:type1": "1", "socket:type1:output": "7 kW", "socket:type2_cable": "1", "socket:type2_cable:output": "22 kW"}}, {"type": "node", "id": 10846117037, "lat": 46.1830868, "lon": 8.8150763, "tags": {"access": "yes", "amenity": "charging_station", "authentication:app": "yes", "authentication:contactless": "yes", "bicycle": "yes", "capacity": "2", "description": "Zwei Haushaltsteckdosen (links und rechts) Schweiz mit je 3.7 kW", "description:de": "Im Parkhaus. Stock -2", "fee": "yes", "hgv": "no", "motorcar": "yes", "motorcycle": "yes", "network": "evpass", "opening_hours": "24/7", "operator": "Emoti", "parking:fee": "yes", "socket:sev1011_t23": "1", "socket:sev1011_t23:output": "3.7 kw", "socket:type1": "1", "socket:type1:output": "7 kW", "socket:type2_cable": "1", "socket:type2_cable:output": "22 kW"}}, {"type": "node", "id": 10846117049, "lat": 46.1758644, "lon": 8.8124943, "tags": {"access": "yes", "amenity": "charging_station", "authentication:app": "yes", "authentication:contactless": "yes", "bicycle": "yes", "capacity": "2", "covered": "no", "description": "Zwei Haushaltsteckdosen Schweiz - 3.7 kW", "fee": "yes", "hgv": "no", "motorcar": "yes", "motorcycle": "yes", "network": "evpass", "opening_hours": "24/7", "operator": "Emoti", "parking:fee": "yes", "socket:sev1011_t23": "2", "socket:sev1011_t23:output": "3.7 kw", "socket:type1": "2", "socket:type1:output": "7 kW", "socket:type2_cable": "2", "socket:type2_cable:output": "22 kW"}}, {"type": "node", "id": 10846117050, "lat": 46.1690944, "lon": 8.7962782, "tags": {"access": "yes", "amenity": "charging_station", "authentication:app": "yes", "authentication:contactless": "yes", "bicycle": "no", "capacity": "2", "covered": "no", "fee": "yes", "hgv": "no", "motorcar": "yes", "motorcycle": "yes", "network": "evpass", "opening_hours": "24/7", "operator": "Emoti", "parking:fee": "yes", "socket:sev1011_t23": "2", "socket:sev1011_t23:output": "3.7 kw", "socket:type1": "2", "socket:type1:output": "7 kW", "socket:type2_cable": "2", "socket:type2_cable:output": "22 kW"}}, {"type": "node", "id": 10846117059, "lat": 46.1694104, "lon": 8.7935333, "tags": {"access": "yes", "amenity": "charging_station", "authentication:app": "yes", "authentication:contactless": "yes", "bicycle": "no", "capacity": "2", "covered": "no", "fee": "yes", "hgv": "no", "motorcar": "yes", "motorcycle": "yes", "network": "evpass", "opening_hours": "24/7", "operator": "Emoti", "parking:fee": "yes", "socket:sev1011_t23": "2", "socket:sev1011_t23:output": "3.7 kw", "socket:type1": "2", "socket:type1:output": "7 kW", "socket:type2_cable": "2", "socket:type2_cable:output": "22 kW"}}, {"type": "node", "id": 10846117060, "lat": 46.1666607, "lon": 8.7917513, "tags": {"access": "yes", "amenity": "charging_station", "authentication:app": "yes", "authentication:contactless": "yes", "bicycle": "no", "capacity": "2", "covered": "yes", "description:de": "Im Parkhaus. Stock 4", "fee": "yes", "hgv": "no", "motorcar": "yes", "motorcycle": "yes", "network": "evpass", "opening_hours": "24/7", "operator": "Emoti", "parking:fee": "yes", "socket:sev1011_t23": "2", "socket:sev1011_t23:output": "3.7 kw", "socket:type1": "2", "socket:type1:output": "7 kW", "socket:type2_cable": "2", "socket:type2_cable:output": "22 kW"}}, {"type": "node", "id": 10846117068, "lat": 46.1643279, "lon": 8.789478, "tags": {"access": "yes", "amenity": "charging_station", "authentication:app": "yes", "authentication:contactless": "yes", "bicycle": "yes", "capacity": "2", "covered": "no", "description": "Zwei Haushaltsteckdosen Schweiz mit 3.7 kW (links und rechts)", "fee": "yes", "hgv": "no", "motorcar": "yes", "motorcycle": "yes", "network": "evpass", "opening_hours": "24/7", "operator": "Emoti", "parking:fee": "yes", "socket:sev1011_t23": "2", "socket:sev1011_t23:output": "3.7 kw", "socket:type1": "2", "socket:type1:output": "7 kW", "socket:type2_cable": "2", "socket:type2_cable:output": "22 kW"}}, {"type": "node", "id": 10846117072, "lat": 46.1641712, "lon": 8.7701689, "tags": {"access": "yes", "amenity": "charging_station", "authentication:app": "yes", "authentication:contactless": "yes", "bicycle": "no", "capacity": "2", "covered": "no", "fee": "yes", "hgv": "no", "motorcar": "yes", "motorcycle": "yes", "network": "evpass", "opening_hours": "24/7", "parking:fee": "no", "socket:type1": "2", "socket:type1:output": "3.7 kW", "socket:type2_cable": "2", "socket:type2_cable:output": "11 kW"}}, {"type": "node", "id": 10846158795, "lat": 46.2455382, "lon": 8.7069321, "tags": {"access": "yes", "amenity": "charging_station", "authentication:app": "yes", "authentication:contactless": "yes", "bicycle": "yes", "capacity": "2", "covered": "no", "description": "Zwei Haushaltsteckdosen Schweiz 3.7 kW", "fee": "yes", "hgv": "no", "motorcar": "yes", "motorcycle": "yes", "network": "evpass", "opening_hours": "24/7", "operator": "Emoti", "parking:fee": "no", "socket:sev1011_t23": "2", "socket:sev1011_t23:output": "3.7 kw", "socket:type1": "2", "socket:type1:output": "7 kW", "socket:type2_cable": "2", "socket:type2_cable:output": "22 kW"}}, {"type": "node", "id": 10846170826, "lat": 46.1199243, "lon": 8.7116242, "tags": {"access": "yes", "amenity": "charging_station", "authentication:app": "yes", "authentication:contactless": "yes", "bicycle": "no", "capacity": "2", "covered": "no", "fee": "yes", "hgv": "no", "motorcar": "yes", "motorcycle": "yes", "network": "evpass", "opening_hours": "24/7", "operator": "Emoti", "parking:fee": "yes", "socket:sev1011_t23": "2", "socket:sev1011_t23:output": "3.7 kw", "socket:type1": "2", "socket:type1:output": "7 kW", "socket:type2_cable": "2", "socket:type2_cable:output": "22 kW"}}, {"type": "node", "id": 10857851015, "lat": 46.1633311, "lon": 8.7743706, "tags": {"amenity": "charging_station", "fixme": "Hier sollte laut Migrol website eine Ladestation sein. Bitte korrekte Lage ermitteln", "network": "Migrol"}}, {"type": "node", "id": 10879696289, "lat": 46.1671897, "lon": 9.0009552, "tags": {"access": "yes", "amenity": "charging_station", "authentication:app": "yes", "authentication:contactless": "yes", "bicycle": "no", "capacity": "1", "covered": "no", "fee": "yes", "motorcar": "yes", "network": "evpass", "opening_hours": "24/7", "parking:fee": "no", "socket:type1": "1", "socket:type1:output": "3.7 kW", "socket:type2_cable": "1", "socket:type2_cable:output": "11 kW"}}, {"type": "node", "id": 10879696301, "lat": 46.1672008, "lon": 9.0009834, "tags": {"access": "yes", "amenity": "charging_station", "authentication:app": "yes", "authentication:contactless": "yes", "bicycle": "no", "capacity": "1", "covered": "no", "fee": "yes", "motorcar": "yes", "network": "evpass", "opening_hours": "24/7", "parking:fee": "no", "socket:type1": "1", "socket:type1:output": "3.7 kW", "socket:type2_cable": "1", "socket:type2_cable:output": "11 kW"}}, {"type": "node", "id": 10939395092, "lat": 46.1694236, "lon": 8.9114649, "tags": {"access": "yes", "amenity": "charging_station", "bicycle": "yes", "capacity": "1", "description": "Kabel Typ 2 - 22 kW\nKabel Typ 1 - 3.7 kW\nHaushaltsteckdose Schweiz - 3.7 kW", "fee": "yes", "motor_vehicle": "yes", "operator": "Comune di Cugnasco-Gerra"}}, {"type": "node", "id": 10939595967, "lat": 46.1672087, "lon": 8.7700684, "tags": {"access": "yes", "amenity": "charging_station", "bicycle": "yes", "capacity": "2", "description": "Zwei Haushaltsteckdosen Schweiz mit 3.7 kW (links und rechts)", "fee": "yes", "network": "evpass", "socket:sev1011_t23": "2", "socket:sev1011_t23:output": "3.70 kW", "socket:type1": "2", "socket:type1:output": "7 kW", "socket:type2_cable": "2", "socket:type2_cable:output": "22 kW", "vehicle": "yes"}}, {"type": "node", "id": 10939687789, "lat": 46.1722923, "lon": 9.0021239, "tags": {"access": "yes", "amenity": "charging_station", "bicycle": "yes", "capacity": "1", "description": "Eine Haushaltsteckdosen Schweiz 3.7 kW", "fee": "yes", "operator": "Emoti", "socket:sev1011_t23": "1", "socket:sev1011_t23:output": "3.7 kW", "socket:type1": "1", "socket:type1:output": "7 kW", "socket:type1_cable": "1", "socket:type2": "1", "socket:type2:output": "22 kW", "socket:type2_cable": "1", "vehicle": "yes"}}, {"type": "node", "id": 10940497505, "lat": 46.1108104, "lon": 8.8462011, "tags": {"access": "yes", "amenity": "charging_station", "bicycle": "yes", "brand": "bike-energy", "brand:wikidata": "Q67770877", "capacity": "4", "description": "Beim Ristorante Ritrovo di Neggia", "name": "bike-energy", "operator": "bike-energy", "operator:wikidata": "Q67770877"}}, {"type": "node", "id": 10940563341, "lat": 46.3724347, "lon": 8.9715608, "tags": {"access": "yes", "amenity": "charging_station", "brand": "bike-energy", "brand:wikidata": "Q67770877", "capacity": "4", "description": "Via dei Borradori 17\n6710 Biasca", "name": "bike-energy", "operator": "bike-energy", "operator:wikidata": "Q67770877"}}, {"type": "node", "id": 10940586758, "lat": 46.3596409, "lon": 8.9696474, "tags": {"amenity": "charging_station", "brand": "bike-energy", "brand:wikidata": "Q67770877", "capacity": "4", "description": "Albergo Giardinetto", "name": "bike-energy", "operator": "bike-energy", "operator:wikidata": "Q67770877"}}, {"type": "node", "id": 10944087759, "lat": 46.1517151, "lon": 8.8814662, "tags": {"access": "yes", "amenity": "charging_station", "brand": "E-bike charger", "capacity": "5 original charging cables: 1 Yamaha, 1 Shimano, 1 Bosch, 1 Brose, 1 Specialized + 2 Swiss plugs + 2 Schuko plugs 220V", "fee": "no"}}, {"type": "node", "id": 10944108760, "lat": 46.2702309, "lon": 8.6836716, "tags": {"access": "yes", "amenity": "charging_station", "brand": "E-bike charger", "capacity": "5 original charging cables: 1 Yamaha, 1 Shimano, 1 Bosch, 1 Brose, 1 Specialized + 2 Swiss plugs + 2 Schuko plugs 220V", "fee": "no"}}, {"type": "node", "id": 10944109431, "lat": 46.3172695, "lon": 8.6022814, "tags": {"access": "yes", "amenity": "charging_station", "brand": "E-bike charger", "capacity": "5 original charging cables: 1 Yamaha, 1 Shimano, 1 Bosch, 1 Brose, 1 Specialized + 2 Swiss plugs + 2 Schuko plugs 220V", "fee": "no"}}, {"type": "node", "id": 10944112348, "lat": 46.4084083, "lon": 8.5262977, "tags": {"access": "yes", "amenity": "charging_station", "brand": "E-bike charger", "capacity": "5 original charging cables: 1 Yamaha, 1 Shimano, 1 Bosch, 1 Brose, 1 Specialized + 2 Swiss plugs + 2 Schuko plugs 220V", "fee": "no"}}, {"type": "node", "id": 11034108152, "lat": 46.352359, "lon": 8.9740043, "tags": {"access": "yes", "amenity": "charging_station", "brand": "bike-energy", "brand:wikidata": "Q67770877", "capacity": "4", "name": "bike-energy", "operator": "bike-energy", "operator:wikidata": "Q67770877"}}, {"type": "node", "id": 11034138074, "lat": 46.2999932, "lon": 8.9814161, "tags": {"access": "yes", "amenity": "charging_station", "brand": "bike-energy", "brand:wikidata": "Q67770877", "capacity": "4", "name": "bike-energy", "operator": "bike-energy", "operator:wikidata": "Q67770877"}}, {"type": "node", "id": 11034148154, "lat": 46.1636195, "lon": 9.0053872, "tags": {"amenity": "charging_station", "brand": "bike-energy", "brand:wikidata": "Q67770877", "capacity": "4", "name": "bike-energy", "operator": "bike-energy", "operator:wikidata": "Q67770877"}}, {"type": "node", "id": 11068676305, "lat": 46.4197982, "lon": 8.4167014, "tags": {"amenity": "charging_station", "brand": "Enel", "brand:wikidata": "Q651222", "name": "Enel", "operator": "Enel", "operator:wikidata": "Q651222"}}, {"type": "node", "id": 11491999625, "lat": 46.1667618, "lon": 8.7960077, "tags": {"amenity": "charging_station", "brand": "Tesla Supercharger", "brand:wikidata": "Q17089620", "capacity": "4", "name": "Tesla Supercharger", "operator": "Tesla, Inc.", "operator:wikidata": "Q478214", "short_name": "Tesla", "website": "https://www.tesla.com/findus/location/supercharger/300746"}}, {"type": "node", "id": 12143688511, "lat": 46.3591938, "lon": 8.9568018, "tags": {"access": "yes", "amenity": "charging_station", "authentication:app": "yes", "authentication:contactless": "yes", "bicycle": "no", "capacity": "2", "covered": "no", "fee": "yes", "motorcar": "yes", "motorcycle": "yes", "network": "Swisscharge", "opening_hours": "24/7", "operator": "GOFAST", "operator:wikidata": "Q130426825", "parking:fee": "no", "socket:type2_combo": "2", "socket:type2_combo:output": "300 kW"}}, {"type": "node", "id": 12143688512, "lat": 46.3898167, "lon": 8.8901849, "tags": {"access": "yes", "amenity": "charging_station", "authentication:app": "yes", "authentication:contactless": "yes", "bicycle": "no", "capacity": "2", "covered": "no", "fee": "yes", "motorcar": "yes", "motorcycle": "yes", "network": "Swisscharge", "opening_hours": "24/7", "operator": "GOFAST", "operator:wikidata": "Q130426825", "parking:fee": "no", "socket:type2_combo": "2", "socket:type2_combo:output": "384 kW"}}, {"type": "node", "id": 12169723523, "lat": 46.1015583, "lon": 8.7404817, "tags": {"amenity": "charging_station"}}, {"type": "way", "id": 1120644956, "nodes": [9103688492, 10249595018, 10249595019, 3347836890, 10249595021, 9103688492], "tags": {"access": "customers", "addr": "City Carburoil 8 via Monte Ceneri 6802 Rivera", "addr:city": "Rivera", "addr:country": "CH", "addr:housenumber": "8", "addr:postcode": "6802", "addr:street": "via Monte Ceneri", "amenity": "charging_station", "bicycle": "no", "brand": "Tesla, Inc.", "brand:wikidata": "Q478214", "capacity": "6", "fee": "yes", "motorcar": "yes", "name": "Monte Ceneri Supercharger", "opening_hours": "24/7", "operator": "Tesla, Inc.", "operator:wikidata": "Q478214", "operator:wikipedia": "en:Tesla, Inc.", "short_name": "Tesla", "socket:tesla_supercharger": "6", "socket:tesla_supercharger:output": "150 kW", "socket:tesla_supercharger_ccs": "6", "socket:tesla_supercharger_ccs:output": "150 kW", "website": "https://www.tesla.com/findus/location/supercharger/montecenerisupercharger"}}]}