{"version": 0.6, "generator": "Overpass API 0.7.62.1 084b4234", "osm3s": {"timestamp_osm_base": "2024-11-20T22:05:08Z", "copyright": "The data included in this document is from www.openstreetmap.org. The data is made available under ODbL."}, "elements": [{"type": "node", "id": 4893420092, "lat": 45.8139431, "lon": 8.2594788, "tags": {"amenity": "charging_station", "capacity": "2", "opening_hours": "24/7", "operator": "Etraction"}}, {"type": "node", "id": 5858590251, "lat": 45.6718951, "lon": 8.1579462, "tags": {"amenity": "charging_station", "bicycle": "yes", "capacity": "4", "motorcar": "no"}}, {"type": "node", "id": 6163456656, "lat": 45.8096522, "lon": 8.3590143, "tags": {"amenity": "charging_station", "capacity": "4", "operator": "Thok E-Bikes"}}, {"type": "node", "id": 6172606533, "lat": 45.7943737, "lon": 8.3828178, "tags": {"amenity": "charging_station", "operator": "Etraction"}}, {"type": "node", "id": 6172820255, "lat": 45.873008, "lon": 8.3725447, "tags": {"amenity": "charging_station", "operator": "Etraction"}}, {"type": "node", "id": 6283257184, "lat": 45.8535297, "lon": 7.9382373, "tags": {"amenity": "charging_station", "brand": "Enel", "brand:wikidata": "Q651222", "brand:wikipedia": "en:Enel", "capacity": "2", "name": "Enel", "operator": "Enel", "operator:wikidata": "Q651222"}}, {"type": "node", "id": 6301432843, "lat": 45.7159709, "lon": 8.2778318, "tags": {"amenity": "charging_station", "capacity": "2", "fee": "yes"}}, {"type": "node", "id": 6520283993, "lat": 45.8710477, "lon": 8.365147, "tags": {"amenity": "charging_station", "brand": "Enel X", "brand:wikidata": "Q5376815", "brand:wikipedia": "en:Enel", "capacity": "2", "fee": "yes", "name": "Enel", "operator": "Enel X", "operator:wikidata": "Q5376815"}}, {"type": "node", "id": 6543039859, "lat": 45.8141912, "lon": 8.2583932, "tags": {"amenity": "charging_station", "brand": "Enel", "brand:wikidata": "Q651222", "brand:wikipedia": "en:Enel", "capacity": "2", "description": "Colonnina di ricarica collocata nei pressi del supermercato.", "name": "Enel", "operator": "Enel", "operator:wikidata": "Q651222"}}, {"type": "node", "id": 6561112903, "lat": 45.6649419, "lon": 8.4006076, "tags": {"amenity": "charging_station", "brand": "Enel X", "brand:wikidata": "Q5376815", "brand:wikipedia": "en:Enel", "capacity": "2", "fee": "yes", "name": "Enel", "operator": "Enel X", "operator:wikidata": "Q5376815", "ref": "18XP22T5LB4U000055"}}, {"type": "node", "id": 6561133229, "lat": 45.6616307, "lon": 8.3986089, "tags": {"amenity": "charging_station", "brand": "Enel X", "brand:wikidata": "Q5376815", "brand:wikipedia": "en:Enel X", "capacity": "2", "fee": "yes", "name": "Enel", "operator": "Enel X", "operator:wikidata": "Q5376815", "operator:wikipedia": "en:Enel X", "ref": "18XP22T3BB4U000106"}}, {"type": "node", "id": 6561133231, "lat": 45.6799397, "lon": 8.3413737, "tags": {"amenity": "charging_station", "brand": "Enel X", "brand:wikidata": "Q5376815", "brand:wikipedia": "en:Enel", "capacity": "2", "fee": "yes", "name": "Enel", "operator": "Enel X", "operator:wikidata": "Q5376815", "ref": "18XP22T5AB4U000015"}}, {"type": "node", "id": 6561133233, "lat": 45.6826063, "lon": 8.3410495, "tags": {"amenity": "charging_station", "brand": "Enel X", "brand:wikidata": "Q5376815", "brand:wikipedia": "en:Enel", "capacity": "2", "fee": "yes", "name": "Enel X", "operator": "Enel X", "operator:wikidata": "Q5376815", "ref": "18XP22T5LB4U000059"}}, {"type": "node", "id": 6561133234, "lat": 45.6824232, "lon": 8.3369624, "tags": {"amenity": "charging_station", "brand": "Enel X", "brand:wikidata": "Q5376815", "brand:wikipedia": "en:Enel", "capacity": "2", "fee": "yes", "name": "Enel X", "operator": "Enel X", "operator:wikidata": "Q5376815", "ref": "18XP22T5LB4U000108"}}, {"type": "node", "id": 6561133235, "lat": 45.6832752, "lon": 8.3341147, "tags": {"amenity": "charging_station", "brand": "Enel X", "brand:wikidata": "Q5376815", "brand:wikipedia": "en:Enel", "capacity": "2", "fee": "yes", "name": "Enel X", "operator": "Enel X", "operator:wikidata": "Q5376815", "ref": "18XP22T5LB4U000060"}}, {"type": "node", "id": 6594738349, "lat": 46.0091128, "lon": 8.2920517, "tags": {"access": "yes", "amenity": "charging_station", "brand": "Enel X", "brand:wikidata": "Q5376815", "brand:wikipedia": "en:Enel X", "capacity": "2", "fee": "yes", "name": "Enel", "operator": "Enel X", "operator:wikidata": "Q5376815", "operator:wikipedia": "en:Enel X", "ref": "18XP22T3KK4U000030"}}, {"type": "node", "id": 7126150734, "lat": 45.6229941, "lon": 8.3612197, "tags": {"amenity": "charging_station", "bicycle": "yes", "fee": "no"}}, {"type": "node", "id": 7350857863, "lat": 45.8184129, "lon": 8.2529994, "tags": {"amenity": "charging_station", "brand": "Enel", "brand:wikidata": "Q651222", "brand:wikipedia": "en:Enel", "name": "Enel", "operator": "Enel", "operator:wikidata": "Q651222"}}, {"type": "node", "id": 7547679479, "lat": 45.8544114, "lon": 7.9367922, "tags": {"amenity": "charging_station"}}, {"type": "node", "id": 7772282725, "lat": 46.0039293, "lon": 8.1703857, "tags": {"access": "yes", "amenity": "charging_station", "capacity": "2", "operator": "Evo-Bike"}}, {"type": "node", "id": 7832423742, "lat": 45.8023481, "lon": 8.4068319, "tags": {"access": "yes", "amenity": "charging_station", "brand": "Enel", "brand:wikidata": "Q651222", "brand:wikipedia": "en:Enel", "capacity": "2", "fee": "yes", "ref": "19XP22T3KK4AZ00721"}}, {"type": "node", "id": 7832423743, "lat": 45.7974503, "lon": 8.4148084, "tags": {"access": "yes", "amenity": "charging_station", "brand": "Enel", "brand:wikidata": "Q651222", "brand:wikipedia": "en:Enel", "capacity": "2", "fee": "yes", "operator": "Enel", "operator:wikidata": "Q651222", "ref": "19XP22T3KK4AZ00683"}}, {"type": "node", "id": 8302410012, "lat": 45.845227, "lon": 8.3772723, "tags": {"access": "yes", "amenity": "charging_station", "capacity": "2", "operator": "Becharge"}}, {"type": "node", "id": 8401739139, "lat": 45.7809405, "lon": 8.2745031, "tags": {"amenity": "charging_station"}}, {"type": "node", "id": 8401745089, "lat": 45.7824625, "lon": 8.2720809, "tags": {"amenity": "charging_station", "brand": "Enel X", "brand:wikidata": "Q5376815", "name": "Enel X", "operator": "Enel X", "operator:wikidata": "Q5376815"}}, {"type": "node", "id": 8419152529, "lat": 45.6827029, "lon": 8.4310569, "tags": {"amenity": "charging_station"}}, {"type": "node", "id": 8962784606, "lat": 45.8007198, "lon": 8.4044174, "tags": {"access": "yes", "amenity": "charging_station", "description": "Questa \u00e8 la prima colonnina elettrica per ricarica che viene installata su un lago, non ce ne sono altre n\u00e9 sul territorio nazionale, n\u00e9 all\u2019estero.", "motorcar": "yes", "network": "Ricarica 101", "operator": "Repower", "operator:wikidata": "Q674712", "source": "https://www.lastampa.it/2021/07/30/news/lago-d-orta-sempre-piu-green-e-sostenibile-prima-ricarica-elettrica-per-le-barche-1.40551648", "website": "https://www.repower.com/it/la-mobilita-elettrica/"}}, {"type": "node", "id": 9325196460, "lat": 45.671655, "lon": 8.1577891, "tags": {"amenity": "charging_station", "capacity": "2"}}, {"type": "node", "id": 9325196486, "lat": 45.671611, "lon": 8.1577329, "tags": {"amenity": "charging_station", "capacity": "2"}}, {"type": "node", "id": 9405220503, "lat": 46.0056961, "lon": 8.2985352, "tags": {"access": "yes", "amenity": "charging_station", "brand": "Enel", "brand:wikidata": "Q651222", "brand:wikipedia": "en:Enel", "fee": "yes", "name": "Enel", "operator": "Enel", "operator:wikidata": "Q651222", "operator:wikipedia": "en:Enel"}}, {"type": "node", "id": 9414087445, "lat": 45.6729658, "lon": 8.1469362, "tags": {"access": "yes", "amenity": "charging_station", "name": "Ricarica  E-Bike"}}, {"type": "node", "id": 9537857388, "lat": 45.639842, "lon": 7.8786376, "tags": {"amenity": "charging_station", "brand": "becharge"}}, {"type": "node", "id": 9661750840, "lat": 45.780331, "lon": 7.825048, "tags": {"amenity": "charging_station", "bicycle": "yes", "network": "DINAclub", "operator": "Repower", "operator:wikidata": "Q674712", "operator:wikipedia": "it:Repower", "website": "https://www.repower.com/it/dina/"}}, {"type": "node", "id": 9668219848, "lat": 45.6812537, "lon": 8.2410308, "tags": {"amenity": "charging_station"}}, {"type": "node", "id": 9668219849, "lat": 45.6812085, "lon": 8.2409199, "tags": {"amenity": "charging_station"}}, {"type": "node", "id": 9755082958, "lat": 45.8086101, "lon": 8.3579613, "tags": {"access": "yes", "amenity": "charging_station", "fee": "yes"}}, {"type": "node", "id": 9819563647, "lat": 45.8445697, "lon": 8.411588, "tags": {"amenity": "charging_station"}}, {"type": "node", "id": 9836092188, "lat": 45.8638347, "lon": 8.3977567, "tags": {"amenity": "charging_station"}}, {"type": "node", "id": 9842104915, "lat": 45.8746375, "lon": 8.407845, "tags": {"access": "yes", "amenity": "charging_station", "fee": "yes", "operator": "Neogy"}}, {"type": "node", "id": 9852264291, "lat": 45.8810808, "lon": 8.4044472, "tags": {"amenity": "charging_station", "brand": "Enel X", "brand:wikidata": "Q5376815", "name": "Enel X", "operator": "Enel X", "operator:wikidata": "Q5376815"}}, {"type": "node", "id": 9865565918, "lat": 45.6801396, "lon": 8.3396629, "tags": {"amenity": "charging_station"}}, {"type": "node", "id": 9868296317, "lat": 45.6455265, "lon": 8.3931169, "tags": {"amenity": "charging_station", "name": "Enel X"}}, {"type": "node", "id": 9874396217, "lat": 45.6454838, "lon": 8.3931048, "tags": {"amenity": "charging_station", "name": "Enel X"}}, {"type": "node", "id": 9929895808, "lat": 45.8269618, "lon": 7.8223445, "tags": {"amenity": "charging_station"}}, {"type": "node", "id": 9968472200, "lat": 45.8578955, "lon": 7.799395, "tags": {"amenity": "charging_station", "bicycle": "yes", "network": "DINAclub", "operator": "Repower", "operator:wikidata": "Q674712", "website": "https://www.repower.com/it/dina/"}}, {"type": "node", "id": 9970897165, "lat": 45.7667629, "lon": 8.0859323, "tags": {"amenity": "charging_station", "bicycle": "yes", "network": "DINAclub", "operator": "Repower", "operator:wikidata": "Q674712", "website": "https://www.repower.com/it/dina/"}}, {"type": "node", "id": 9975492047, "lat": 45.6429232, "lon": 8.1002627, "tags": {"access": "yes", "amenity": "charging_station", "capacity": "2", "description": "Frazione Bianco, 34 13821 Camandona Orario di apertura 0-24h Presa TYPE 2 Potenza max 22kW Presa TYPE 2 Potenza max 22kW", "not:operator:wikidata": "Q113289535", "operator": "BeCharge", "website": "https://www.bec.energy"}}, {"type": "node", "id": 9988011992, "lat": 45.7137817, "lon": 8.2771448, "tags": {"amenity": "charging_station"}}, {"type": "node", "id": 9988011993, "lat": 45.7138157, "lon": 8.2771662, "tags": {"amenity": "charging_station", "capacity": "2"}}, {"type": "node", "id": 9988011995, "lat": 45.7105532, "lon": 8.2827199, "tags": {"amenity": "charging_station"}}, {"type": "node", "id": 9988011996, "lat": 45.7106125, "lon": 8.2827713, "tags": {"amenity": "charging_station"}}, {"type": "node", "id": 10009482520, "lat": 45.68921, "lon": 8.4173893, "tags": {"amenity": "charging_station", "name": "BeCharge"}}, {"type": "node", "id": 10203518411, "lat": 45.7823484, "lon": 8.2714125, "tags": {"access": "yes", "amenity": "charging_station", "bicycle": "yes", "fee": "no"}}, {"type": "node", "id": 10747840962, "lat": 45.6993231, "lon": 8.2877058, "tags": {"access": "yes", "amenity": "charging_station", "description": "ci sono 2 stazioni di ricarica nel parcheggio al piano terra del carrefour non so come aggiungerli"}}, {"type": "node", "id": 10797432688, "lat": 45.6747555, "lon": 7.9769375, "tags": {"amenity": "charging_station", "capacity": "2", "operator": "Be Charge", "operator:wikidata": "Q113289535"}}, {"type": "node", "id": 11055499643, "lat": 45.6693002, "lon": 8.0845015, "tags": {"amenity": "charging_station", "fixme": "Per e-bike"}}, {"type": "node", "id": 11126383734, "lat": 45.6518469, "lon": 8.2000647, "tags": {"amenity": "charging_station", "brand": "Enel", "brand:wikidata": "Q651222", "name": "Enel", "operator": "Enel", "operator:wikidata": "Q651222"}}, {"type": "node", "id": 11139372015, "lat": 45.6750569, "lon": 7.9777939, "tags": {"amenity": "charging_station", "bicycle": "yes"}}, {"type": "node", "id": 11183602599, "lat": 45.9544103, "lon": 7.9859796, "tags": {"amenity": "charging_station"}}, {"type": "node", "id": 11821306174, "lat": 45.6823171, "lon": 8.3394664, "tags": {"access": "yes", "amenity": "charging_station", "brand": "Comune di Grignasco", "fee": "no", "operator": "GaraGeeks", "socket:device:USB-A": "6", "socket:device:qi-wireless": "3", "source": "survey"}}, {"type": "node", "id": 11851121028, "lat": 45.6759815, "lon": 8.0645049, "tags": {"amenity": "charging_station", "colour": "green", "note": "In realt\u00e1 la stazione di ricarica e di riparazione sono una cosa sola.", "operator": "clorofilla", "wikimedia_commons": "File:Piana del Ponte 13.jpg"}}, {"type": "node", "id": 12216256084, "lat": 45.7689286, "lon": 7.8311251, "tags": {"access": "yes", "amenity": "charging_station", "capacity": "2", "fixme": "verificare la posizione", "image": "https://www.campingmargherita.com/inc/scripts/source/www.campingmargherita.com/servizi-6.jpg", "motorcar": "yes", "name": "DINAclub - Stazione di Ricarica e-Bike", "operator": "Repower", "operator:wikidata": "Q674712", "operator:wikipedia": "it:Repower", "website": "https://www.repower.com/it/la-mobilita-elettrica/"}}, {"type": "node", "id": 12216274093, "lat": 45.7690648, "lon": 7.8308268, "tags": {"amenity": "charging_station", "amperage": "16", "bicycle": "yes", "capacity": "4", "fixme": "verificare la posizione", "image": "https://www.campingmargherita.com/inc/scripts/source/www.campingmargherita.com/servizi-7.jpg", "network": "DINAclub", "operator:wikidata": "Q674712", "operator:wikipedia": "it:Repower", "voltage": "230", "website": "https://www.repower.com/it/dina/"}}]}