{"version": 0.6, "generator": "Overpass API 0.7.62.1 084b4234", "osm3s": {"timestamp_osm_base": "2024-11-20T16:38:00Z", "copyright": "The data included in this document is from www.openstreetmap.org. The data is made available under ODbL."}, "elements": [{"type": "node", "id": 1569761385, "lat": 41.7293762, "lon": 12.2777778, "tags": {"amenity": "charging_station", "amperage": "32", "brand": "Enel X", "brand:wikidata": "Q5376815", "name": "Enel X", "operator": "Enel X", "operator:wikidata": "Q5376815", "plug": "Type2", "voltage": "380"}}, {"type": "node", "id": 2401540494, "lat": 41.80673, "lon": 12.324249, "tags": {"amenity": "charging_station", "brand": "Enel", "brand:wikidata": "Q651222", "name": "Enel - stazione di ricarica", "operator": "Enel", "operator:wikidata": "Q651222", "ref:enel:code": "ENEL_00000165", "ref:enel:serial_number": "N.11CP21T2B02C000101"}}, {"type": "node", "id": 4714319765, "lat": 41.7309823, "lon": 12.2801525, "tags": {"amenity": "charging_station", "capacity": "2", "name": "Charging Station - Circoscrizione", "operator": "Enel", "wheelchair": "yes"}}, {"type": "node", "id": 4714321305, "lat": 41.7546192, "lon": 12.3716444, "tags": {"amenity": "charging_station", "capacity": "2", "name": "Charging Station - ESSO via Wolf Ferrari", "note": "FAST Charging Chademo, CCS, Type 2", "operator": "ESSO"}}, {"type": "node", "id": 5624069998, "lat": 41.8175322, "lon": 12.345037, "tags": {"access": "yes", "amenity": "charging_station", "fixme": "verificare la posizione", "name": "DINAclub - Stazione di Ricarica e-Bike", "operator": "Repower"}}, {"type": "node", "id": 9667481039, "lat": 41.7162261, "lon": 12.315823, "tags": {"amenity": "charging_station", "brand": "Enel X", "capacity": "2", "fee": "yes", "motorcar": "yes", "name": "Enel X", "opening_hours": "24/7", "operator": "Enel X", "operator:wikidata": "Q5376815", "operator:wikipedia": "en:Enel X"}}, {"type": "node", "id": 9964752720, "lat": 41.8174648, "lon": 12.3450166, "tags": {"amenity": "charging_station", "bicycle": "yes", "description": "Komoot App e-bike Station de charge https://www.komoot.com/collection/1840155", "fixme": "verificare la posizione", "network": "DINAclub", "operator": "Repower", "operator:wikidata": "Q674712", "operator:wikipedia": "it:Repower", "website": "https://www.repower.com/it/dina/"}}, {"type": "node", "id": 11778091672, "lat": 41.798082, "lon": 12.2971151, "tags": {"amenity": "charging_station", "amperage": "16", "authentication:none": "yes", "bicycle": "yes", "capacity": "4", "covered": "yes", "fee": "no", "opening_hours": "24/7", "operator": "The Wow Side Shopping Centre", "voltage": "230"}}, {"type": "node", "id": 11793678009, "lat": 41.7982928, "lon": 12.3008344, "tags": {"amenity": "charging_station", "capacity": "2", "operator": "Enel X Way"}}, {"type": "node", "id": 11793678010, "lat": 41.7983255, "lon": 12.300912, "tags": {"amenity": "charging_station", "capacity": "2", "operator": "Enel X Way"}}, {"type": "node", "id": 12230425333, "lat": 41.7305886, "lon": 12.2851721, "tags": {"amenity": "charging_station"}}]}