{"version": 0.6, "generator": "Overpass API 0.7.62.1 084b4234", "osm3s": {"timestamp_osm_base": "2024-11-20T16:39:00Z", "copyright": "The data included in this document is from www.openstreetmap.org. The data is made available under ODbL."}, "elements": [{"type": "node", "id": 9698155916, "lat": 43.5900387, "lon": 12.5103245, "tags": {"amenity": "charging_station", "capacity": "2", "name": "becharge"}}, {"type": "node", "id": 10886058578, "lat": 43.3435016, "lon": 12.5845257, "tags": {"access": "yes", "amenity": "charging_station"}}, {"type": "node", "id": 10887449340, "lat": 43.3435114, "lon": 12.5844548, "tags": {"access": "yes", "amenity": "charging_station"}}, {"type": "node", "id": 10933495094, "lat": 43.3624062, "lon": 12.3263208, "tags": {"access": "yes", "amenity": "charging_station", "capacity": "2", "fee": "yes", "operator": "becharge"}}, {"type": "node", "id": 10934215824, "lat": 43.3620805, "lon": 12.3262691, "tags": {"amenity": "charging_station", "capacity": "2", "operator": "Enelway"}}, {"type": "node", "id": 11002981754, "lat": 43.3112138, "lon": 12.8210965, "tags": {"access": "yes", "amenity": "charging_station", "bicycle": "yes", "network": "DINAclub", "operator": "Repower", "operator:wikidata": "Q674712", "operator:wikipedia": "it:Repower", "website": "https://www.repower.com/it/dina/"}}, {"type": "node", "id": 11228122331, "lat": 43.345563, "lon": 12.9058487, "tags": {"amenity": "charging_station", "capacity": "2", "operator": "Enel X Way", "operator:wikidata": "Q116116836"}}, {"type": "node", "id": 11902548210, "lat": 43.4361017, "lon": 12.8580046, "tags": {"access": "yes", "amenity": "charging_station", "bicycle": "yes", "brand": "Ecospazio", "capacity": "2", "covered": "yes", "fee": "yes", "operator": "Ecospazio", "payment:app": "yes", "payment:rfid_card": "yes"}}, {"type": "node", "id": 11923859524, "lat": 43.4314406, "lon": 12.8574307, "tags": {"access": "yes", "amenity": "charging_station", "capacity": "2", "covered": "no", "fee": "yes", "operator": "Be Charge", "operator:wikidata": "Q113289535"}}, {"type": "node", "id": 12295650767, "lat": 43.4358515, "lon": 12.8582236, "tags": {"access": "customers", "amenity": "charging_station", "brand": "Be Charge", "capacity": "2", "description": "22 kW", "fee": "yes", "operator": "Be Charge", "operator:wikidata": "Q113289535", "payment:app": "yes", "website": "https://www.bec.energy/en/", "wikipedia": "it:Be Charge"}}, {"type": "node", "id": 12323540889, "lat": 43.4317735, "lon": 12.8558148, "tags": {"access": "yes", "amenity": "charging_station", "bicycle": "yes", "brand": "Ricariche-bike.it", "capacity": "4", "covered": "yes", "fee": "yes"}}]}