{"version": 0.6, "generator": "Overpass API 0.7.62.1 084b4234", "osm3s": {"timestamp_osm_base": "2024-11-20T16:40:00Z", "copyright": "The data included in this document is from www.openstreetmap.org. The data is made available under ODbL."}, "elements": [{"type": "node", "id": 8485980646, "lat": 44.8032367, "lon": 14.7260057, "tags": {"amenity": "charging_station", "capacity": "3", "name": "AC Marina", "socket:schuko": "1", "socket:tesla_destination": "2", "socket:tesla_destination:output": "22kW", "socket:type2": "1"}}, {"type": "node", "id": 8485980647, "lat": 44.835852, "lon": 14.7253738, "tags": {"amenity": "charging_station", "capacity": "2", "fee": "no", "name": "ELEN Trajektna luka LOPAR", "operator": "ELEN", "socket:type2": "2", "socket:type2:output": "22kW"}}, {"type": "node", "id": 12186499041, "lat": 44.5222179, "lon": 14.4597553, "tags": {"amenity": "charging_station", "capacity": "2", "man_made": "charge_point", "name": "Jadranka turizam - Hotel Aurora", "network": "Hrvatski Telekom", "operator": "Hrvatski Telekom"}}, {"type": "node", "id": 12186499042, "lat": 44.5335556, "lon": 14.4644907, "tags": {"amenity": "charging_station", "capacity": "2", "man_made": "charge_point", "name": "Losinj", "network": "Hrvatski Telekom", "operator": "Hrvatski Telekom"}}, {"type": "node", "id": 12186499043, "lat": 44.5412074, "lon": 14.4643512, "tags": {"amenity": "charging_station", "capacity": "2", "man_made": "charge_point", "name": "Losinj Shipyard", "network": "Hrvatski Telekom", "operator": "Hrvatski Telekom", "socket:type2_cable": "2"}}]}