{"version": 0.6, "generator": "Overpass API 0.7.62.1 084b4234", "osm3s": {"timestamp_osm_base": "2024-11-20T16:39:00Z", "copyright": "The data included in this document is from www.openstreetmap.org. The data is made available under ODbL."}, "elements": [{"type": "node", "id": 2588260272, "lat": 45.9899843, "lon": 13.46801, "tags": {"amenity": "charging_station"}}, {"type": "node", "id": 4273080497, "lat": 45.9668086, "lon": 13.4734389, "tags": {"amenity": "charging_station", "note": "power to be verified / verificare se funziona"}}, {"type": "node", "id": 4273216200, "lat": 45.9465457, "lon": 13.5115689, "tags": {"amenity": "charging_station", "note": "power to be verified / verificare se funziona"}}, {"type": "node", "id": 4273261119, "lat": 45.9456641, "lon": 13.5455219, "tags": {"amenity": "charging_station", "note": "power to be verified / verificare se funziona"}}, {"type": "node", "id": 4439633164, "lat": 45.9177649, "lon": 13.7215409, "tags": {"amenity": "charging_station", "authentication:membership_card": "yes", "authentication:nfc": "yes", "authentication:none": "no", "capacity": "2", "fee": "yes", "name": "\u0160empas - server", "opening_hours": "24/7", "operator": "SODO", "socket:chademo": "1", "socket:type2": "1", "socket:type2_combo": "1"}}, {"type": "node", "id": 4439633165, "lat": 45.9168322, "lon": 13.7197047, "tags": {"amenity": "charging_station", "authentication:membership_card": "yes", "authentication:nfc": "yes", "authentication:none": "no", "capacity": "2", "fee": "yes", "name": "\u0160empas - jug", "opening_hours": "24/7", "operator": "SODO", "socket:chademo": "1", "socket:type2": "1", "socket:type2_combo": "1"}}, {"type": "node", "id": 4571887206, "lat": 45.9541681, "lon": 13.6389467, "tags": {"amenity": "charging_station", "name": "Elektri\u010dna polnilna postaja"}}, {"type": "node", "id": 4938038915, "lat": 45.9571797, "lon": 13.6481788, "tags": {"amenity": "charging_station", "authentication:none": "no", "capacity": "2", "operator": "Petrol", "socket:type2": "2"}}, {"type": "node", "id": 5064800176, "lat": 45.8514245, "lon": 13.582512, "tags": {"access": "yes", "amenity": "charging_station", "capacity": "2", "description": "https://www.gremonaelektriko.si/", "name": "Electric station"}}, {"type": "node", "id": 5122941875, "lat": 45.8213862, "lon": 13.4903159, "tags": {"amenity": "charging_station", "amperage": "32", "authentication:membership_card": "yes", "authentication:rfid": "yes", "capacity": "1", "fee": "no", "motorcar": "yes", "name": "Aeroporto FVG", "opening_hours": "24/7", "operator": "Aeroporto FVG", "socket:type2": "1"}}, {"type": "node", "id": 5760062722, "lat": 45.9329824, "lon": 13.605533, "tags": {"amenity": "charging_station", "authentication:membership_card": "yes", "capacity": "2", "fee": "yes", "motorcar": "yes", "name": "Hera", "opening_hours": "24/7", "operator": "Gruppo Hera", "socket:type2": "2", "voltage": "400"}}, {"type": "node", "id": 5760504072, "lat": 45.9402418, "lon": 13.6163011, "tags": {"amenity": "charging_station", "capacity": "1", "fee": "no", "motorcar": "yes", "name": "Enel drive", "opening_hours": "24/7", "operator": "AcegasApsAmga", "ref": "Best Western Gorizia Palace Hotel", "socket:tesla_supercharger": "1", "voltage": "22"}}, {"type": "node", "id": 6142937958, "lat": 45.998831, "lon": 13.5233733, "tags": {"amenity": "charging_station", "car": "yes"}}, {"type": "node", "id": 6834401377, "lat": 45.8233606, "lon": 13.8447658, "tags": {"amenity": "charging_station", "capacity": "2", "fee": "no", "motorcar": "yes", "name": "Grad \u0160tanjel", "opening_hours": "24/7", "socket:type2": "2", "socket:type2:output": "22 kW"}}, {"type": "node", "id": 7765410888, "lat": 45.8896987, "lon": 13.6697663, "tags": {"access": "yes", "amenity": "charging_station", "capacity": "2"}}, {"type": "node", "id": 7797960177, "lat": 45.8992119, "lon": 13.6687173, "tags": {"amenity": "charging_station"}}, {"type": "node", "id": 7814697322, "lat": 45.8172568, "lon": 13.7464207, "tags": {"amenity": "charging_station", "capacity": "2"}}, {"type": "node", "id": 8615566322, "lat": 45.8198895, "lon": 13.4850833, "tags": {"access": "customers", "amenity": "charging_station"}}, {"type": "node", "id": 8730690595, "lat": 45.8404271, "lon": 13.4929058, "tags": {"amenity": "charging_station", "motorcar": "yes", "operator": "Marine Interiors"}}, {"type": "node", "id": 8760746824, "lat": 46.1162883, "lon": 13.4833942, "tags": {"access": "permissive", "amenity": "charging_station", "bicycle": "yes"}}, {"type": "node", "id": 8815545919, "lat": 46.1759385, "lon": 13.5565309, "tags": {"amenity": "charging_station", "bicycle": "yes"}}, {"type": "node", "id": 8901538235, "lat": 45.886656, "lon": 13.8953134, "tags": {"amenity": "charging_station"}}, {"type": "node", "id": 9160620324, "lat": 46.179719, "lon": 13.6601864, "tags": {"access": "yes", "amenity": "charging_station", "authentication:none": "yes", "bicycle": "yes", "capacity": "4", "fee": "no", "motorcar": "no", "motorcycle": "no", "name": "Bluenergy", "opening_hours": "24/7", "scooter": "no", "socket:schuko": "4", "socket:schuko:voltage": "230", "truck": "no"}}, {"type": "node", "id": 9310285282, "lat": 45.9179916, "lon": 13.625832, "tags": {"amenity": "charging_station"}}, {"type": "node", "id": 9366348817, "lat": 45.8898309, "lon": 13.9029987, "tags": {"access": "yes", "amenity": "charging_station", "capacity": "2", "covered": "no", "fee": "no", "operator": "Ob\u010dina Ajdov\u0161\u010dina", "socket:type2:output": "22 kW"}}, {"type": "node", "id": 9366348818, "lat": 45.8883254, "lon": 13.9058882, "tags": {"access": "yes", "amenity": "charging_station", "capacity": "2", "fee": "no", "operator": "Ob\u010dina Ajdov\u0161\u010dina", "socket:type2": "2", "socket:type2:output": "22 kW"}}, {"type": "node", "id": 9661676504, "lat": 46.034813, "lon": 13.485184, "tags": {"amenity": "charging_station", "bicycle": "yes", "network": "DINAclub", "operator": "Repower", "operator:wikidata": "Q674712", "operator:wikipedia": "it:Repower", "website": "https://www.repower.com/it/dina/"}}, {"type": "node", "id": 9708869235, "lat": 45.8238064, "lon": 13.5005988, "tags": {"amenity": "charging_station", "operator": "Chiurlo energia"}}, {"type": "node", "id": 9842192068, "lat": 45.9395391, "lon": 13.638181, "tags": {"amenity": "charging_station", "capacity": "2", "operator": "Casin\u00f2 Fortuna"}}, {"type": "node", "id": 9897678587, "lat": 46.1417002, "lon": 13.6035249, "tags": {"access": "customers", "amenity": "charging_station", "bicycle": "yes", "capacity": "4", "motorcar": "no", "motorcycle": "no", "panoramax": "f1b8d2c5-0522-49bd-b125-b6ea6966092f", "panoramax:0": "5f6c3c85-365b-4fdd-b8a4-985b8ba35f24", "scooter": "no", "socket:typee": "1", "truck": "no", "voltage": "230"}}, {"type": "node", "id": 9968541445, "lat": 45.858088, "lon": 13.483937, "tags": {"access": "yes", "amenity": "charging_station", "bicycle": "yes", "fee": "no", "network": "DINAclub", "operator": "Repower", "operator:wikidata": "Q674712", "operator:wikipedia": "it:Repower", "socket:schuko": "2", "voltage": "230", "website": "https://www.repower.com/it/dina/"}}, {"type": "node", "id": 9968543279, "lat": 45.9634795, "lon": 13.4933166, "tags": {"amenity": "charging_station", "bicycle": "yes", "network": "DINAclub", "operator": "Repower", "operator:wikidata": "Q674712", "operator:wikipedia": "it:Repower", "website": "https://www.repower.com/it/dina/"}}, {"type": "node", "id": 9970896366, "lat": 45.901672, "lon": 13.5159608, "tags": {"amenity": "charging_station", "bicycle": "yes", "network": "DINAclub", "operator": "Repower", "operator:wikidata": "Q674712", "operator:wikipedia": "it:Repower", "website": "https://www.repower.com/it/dina/"}}, {"type": "node", "id": 9970959932, "lat": 45.9378945, "lon": 13.5425545, "tags": {"amenity": "charging_station", "bicycle": "yes", "network": "DINAclub", "operator": "Repower", "operator:wikidata": "Q674712", "operator:wikipedia": "it:Repower", "website": "https://www.repower.com/it/dina/"}}, {"type": "node", "id": 11013731002, "lat": 45.9484214, "lon": 13.7179629, "tags": {"amenity": "charging_station", "authentication:none": "yes", "fee": "no", "name": "Avto Elite", "socket:type2": "1"}}, {"type": "node", "id": 11013740577, "lat": 45.881406, "lon": 13.8614792, "tags": {"amenity": "charging_station", "operator": "elevat", "socket:type2": "2"}}, {"type": "node", "id": 11191548411, "lat": 46.1828913, "lon": 13.7269511, "tags": {"access": "yes", "addr:city": "Tolmin", "addr:housenumber": "1", "addr:postcode": "5220", "addr:street": "Na noglu", "amenity": "charging_station", "authentication:membership_card": "yes", "capacity": "2", "fee": "yes", "level": "0", "motorcar": "yes", "motorcycle": "yes", "network": "Moon", "note": "At opening hours of the autocenter the charging can also be started and payed by the office", "opening_hours": "24/7", "operator": "Autocenter Stavanja", "parking:fee": "no", "socket:type2:output": "11 kW", "socket:type2_cable": "1", "socket:type2_combo": "1", "socket:type2_combo:output": "30"}}, {"type": "node", "id": 11283472838, "lat": 45.8106433, "lon": 13.8283547, "tags": {"amenity": "charging_station"}}, {"type": "node", "id": 11377848626, "lat": 45.8072927, "lon": 13.5218912, "tags": {"access": "yes", "amenity": "charging_station", "brand": "Enel", "brand:wikidata": "Q651222", "capacity": "2", "name": "Enel Way", "note": "Under construction", "operator": "Enel", "operator:wikidata": "Q651222"}}, {"type": "node", "id": 11388436966, "lat": 45.8916368, "lon": 13.6052619}, {"type": "node", "id": 11388436967, "lat": 45.8916559, "lon": 13.6053157}, {"type": "node", "id": 11388436968, "lat": 45.8916134, "lon": 13.6053468}, {"type": "node", "id": 11388444869, "lat": 45.8915943, "lon": 13.6052931}, {"type": "node", "id": 11607446073, "lat": 45.9560679, "lon": 13.63552}, {"type": "node", "id": 11607446074, "lat": 45.9560777, "lon": 13.6354596}, {"type": "node", "id": 11607446076, "lat": 45.9560099, "lon": 13.6355008}, {"type": "node", "id": 11607446077, "lat": 45.9560208, "lon": 13.6354389}, {"type": "node", "id": 11782629295, "lat": 46.1754218, "lon": 13.4793615}, {"type": "node", "id": 11782629296, "lat": 46.1754111, "lon": 13.4793351}, {"type": "node", "id": 11782629297, "lat": 46.1753738, "lon": 13.4793666}, {"type": "node", "id": 11782629298, "lat": 46.1753845, "lon": 13.479393}, {"type": "node", "id": 11932674662, "lat": 45.9420607, "lon": 13.6427036, "tags": {"amenity": "charging_station", "brand": "moon"}}, {"type": "node", "id": 12059006569, "lat": 46.086902, "lon": 13.634951, "tags": {"amenity": "charging_station", "operator": "Petrol"}}, {"type": "node", "id": 12229581078, "lat": 45.8905094, "lon": 13.9004151, "tags": {"amenity": "charging_station"}}, {"type": "node", "id": 12265726017, "lat": 45.9413446, "lon": 13.6379861, "tags": {"amenity": "charging_station", "capacity": "2", "operator": "Lidl", "operator:wikidata": "Q151954"}}, {"type": "way", "id": 1228086112, "nodes": [11388436966, 11388436967, 11388436968, 11388444869, 11388436966], "tags": {"access": "yes", "amenity": "charging_station", "area": "yes", "capacity": "2", "name": "Electric car charger Typ2", "operator": "OMV", "socket:type2": "yes"}}, {"type": "way", "id": 1248771176, "nodes": [11607446073, 11607446076, 11607446077, 11607446074, 11607446073], "tags": {"access": "yes", "amenity": "charging_station", "area": "yes", "capacity": "2"}}, {"type": "way", "id": 1268617728, "nodes": [11782629295, 11782629296, 11782629297, 11782629298, 11782629295], "tags": {"amenity": "charging_station"}}]}