{"version": 0.6, "generator": "Overpass API 0.7.62.1 084b4234", "osm3s": {"timestamp_osm_base": "2024-11-20T16:38:00Z", "copyright": "The data included in this document is from www.openstreetmap.org. The data is made available under ODbL."}, "elements": [{"type": "node", "id": 2561570911, "lat": 45.8743972, "lon": 12.6122798}, {"type": "node", "id": 2561570915, "lat": 45.8744137, "lon": 12.6122256}, {"type": "node", "id": 6528179508, "lat": 45.9067844, "lon": 12.3386394, "tags": {"amenity": "charging_station", "capacity": "2"}}, {"type": "node", "id": 6528179509, "lat": 45.9066881, "lon": 12.3387911, "tags": {"amenity": "charging_station", "capacity": "2"}}, {"type": "node", "id": 6528179510, "lat": 45.9065924, "lon": 12.3389497, "tags": {"amenity": "charging_station", "capacity": "2"}}, {"type": "node", "id": 6528179511, "lat": 45.9062835, "lon": 12.3394243, "tags": {"amenity": "charging_station"}}, {"type": "node", "id": 6528179512, "lat": 45.9062, "lon": 12.3395727, "tags": {"amenity": "charging_station"}}, {"type": "node", "id": 6528179513, "lat": 45.9060954, "lon": 12.3397333, "tags": {"amenity": "charging_station"}}, {"type": "node", "id": 7137458478, "lat": 45.878021, "lon": 12.3383282, "tags": {"amenity": "charging_station", "brand": "Tesla, Inc.", "brand:wikidata": "Q478214", "name": "Tesla Destination Charger", "operator": "Tesla", "short_name": "Tesla"}}, {"type": "node", "id": 8178792048, "lat": 45.7972354, "lon": 12.8192045, "tags": {"access": "yes", "amenity": "charging_station", "brand": "Ionity", "brand:wikidata": "Q42717773", "capacity": "6", "covered": "no", "fee": "yes", "name": "IONITY Portogruaro", "opening_hours": "24/7", "operator": "Ionity", "payment:app": "yes", "payment:contactless": "yes", "socket:type2_combo": "6", "socket:type2_combo:output": "350 kW"}}, {"type": "node", "id": 8195061623, "lat": 45.7988614, "lon": 12.8145031, "tags": {"amenity": "charging_station", "brand": "Enel", "brand:wikidata": "Q651222", "brand:wikipedia": "en:ChargePoint", "capacity": "2", "name": "Enel", "operator": "Enel", "operator:wikidata": "Q651222", "socket:type2": "1", "socket:type2:output": "22 kW"}}, {"type": "node", "id": 8712917010, "lat": 45.9584439, "lon": 12.6530138, "tags": {"amenity": "charging_station"}}, {"type": "node", "id": 8730096183, "lat": 45.9640649, "lon": 12.6375351, "tags": {"access": "yes", "amenity": "charging_station", "capacity": "2", "fee": "yes", "name": "Becharge", "operator": "Be Charge", "operator:wikidata": "Q113289535"}}, {"type": "node", "id": 9034613775, "lat": 45.9591019, "lon": 12.6588515, "tags": {"access": "yes", "amenity": "charging_station", "capacity": "1", "fee": "yes", "operator": "Plenitude", "operator:wikidata": "Q96240525"}}, {"type": "node", "id": 9178044647, "lat": 45.7955065, "lon": 12.8173635, "tags": {"access": "yes", "amenity": "charging_station", "capacity": "2", "operator": "Be Charge", "operator:wikidata": "Q113289535"}}, {"type": "node", "id": 9347609232, "lat": 46.1816581, "lon": 12.2761566, "tags": {"amenity": "charging_station", "brand": "Enel X", "brand:wikidata": "Q5376815", "brand:wikipedia": "en:Enel X", "capacity": "4", "name": "Enel X", "operator": "Enel X", "operator:wikidata": "Q5376815", "operator:wikipedia": "en:Enel X"}}, {"type": "node", "id": 9676332488, "lat": 46.173617, "lon": 12.3000439, "tags": {"amenity": "charging_station", "name": "becharge"}}, {"type": "node", "id": 9676332494, "lat": 46.173624, "lon": 12.2999927, "tags": {"amenity": "charging_station", "name": "becharge"}}, {"type": "node", "id": 9788576470, "lat": 45.795254, "lon": 12.6815751, "tags": {"amenity": "charging_station", "capacity": "2", "fee": "yes", "motorcar": "yes", "name": "Be Charge", "opening_hours": "24/7", "operator": "Be Charge", "operator:wikidata": "Q113289535"}}, {"type": "node", "id": 9788576471, "lat": 45.7952879, "lon": 12.6815355, "tags": {"amenity": "charging_station", "brand": "ChargePoint", "brand:wikidata": "Q5176149", "capacity": "2", "fee": "yes", "motorcar": "yes", "name": "ChargePoint", "opening_hours": "24/7", "operator": "ChargePoint", "operator:wikidata": "Q5176149", "operator:wikipedia": "en:ChargePoint"}}, {"type": "node", "id": 9920651693, "lat": 46.2130249, "lon": 12.7261264, "tags": {"access": "yes", "amenity": "charging_station", "authentication:none": "yes", "bicycle": "yes", "capacity": "4", "fee": "no", "motorcar": "no", "motorcycle": "no", "opening_hours": "24/7", "operator": "Comune di Frisanco", "panoramax": "85349adf-eec6-4d69-b29b-88ea6bdda35c", "scooter": "no", "socket:schuko": "4", "truck": "no", "voltage": "230"}}, {"type": "node", "id": 9961027734, "lat": 46.0078101, "lon": 12.8146434, "tags": {"amenity": "charging_station", "bicycle": "yes", "network": "DINAclub", "operator": "Repower", "operator:wikidata": "Q674712", "operator:wikipedia": "it:Repower", "website": "https://www.repower.com/it/dina/"}}, {"type": "node", "id": 9967494400, "lat": 46.1904016, "lon": 12.5537481, "tags": {"amenity": "charging_station", "bicycle": "yes", "name": "DINAclub - Stazione di Ricarica e-Bike", "network": "DINAclub", "operator": "Repower", "operator:wikidata": "Q674712", "website": "https://www.repower.com/it/dina/"}}, {"type": "node", "id": 10281304652, "lat": 46.1662248, "lon": 12.243635, "tags": {"amenity": "charging_station", "operator": "ALDI", "operator:wikidata": "Q125054"}}, {"type": "node", "id": 10292294482, "lat": 45.8774965, "lon": 12.3151625, "tags": {"access": "yes", "amenity": "charging_station", "brand": "Ionity", "brand:wikidata": "Q42717773", "capacity": "6", "fee": "yes", "fixme": "location aproximately", "name": "IONITY Conegliano", "network": "Ionity", "operator": "Ionity", "socket:type2_combo": "6", "socket:type2_combo:output": "350 kW"}}, {"type": "node", "id": 10600647900, "lat": 45.9531957, "lon": 12.2899428, "tags": {"access": "yes", "amenity": "charging_station", "bicycle": "yes", "network": "DINAclub", "operator": "Repower", "operator:wikidata": "Q674712", "operator:wikipedia": "it:Repower", "website": "https://www.repower.com/it/dina/"}}, {"type": "node", "id": 10600681365, "lat": 45.9971509, "lon": 12.2467797, "tags": {"access": "yes", "amenity": "charging_station", "bicycle": "yes", "name": "DINAclub - Stazione di Ricarica e-Bike", "network": "DINAclub", "operator": "Repower", "operator:wikidata": "Q674712", "website": "https://www.repower.com/it/dina/"}}, {"type": "node", "id": 10741080658, "lat": 45.8668433, "lon": 12.3151545, "tags": {"amenity": "charging_station", "capacity": "2"}}, {"type": "node", "id": 10858243597, "lat": 46.0044274, "lon": 12.4155754, "tags": {"amenity": "charging_station", "authentication:none": "yes", "bicycle": "yes", "capacity": "4", "fee": "no", "socket:schuko": "4", "socket:schuko:output": "700", "socket:schuko:voltage": "230"}}, {"type": "node", "id": 10875761675, "lat": 45.8827048, "lon": 12.2944125, "tags": {"access": "yes", "amenity": "charging_station", "brand": "Fadelli", "capacity": "2", "charge": "0,6\u20ac kWh", "fee": "yes", "operator": "ZapGrid", "payment:app": "yes"}}, {"type": "node", "id": 10885764796, "lat": 45.8869954, "lon": 12.3019363, "tags": {"access": "yes", "amenity": "charging_station", "brand": "Fadelli", "capacity": "2", "charge": "0,6\u20ac kWh", "fee": "yes", "operator": "ZapGrid", "payment:app": "yes"}}, {"type": "node", "id": 10909710607, "lat": 45.8710679, "lon": 12.2729107, "tags": {"amenity": "charging_station", "capacity": "2"}}, {"type": "node", "id": 11068063931, "lat": 45.9439421, "lon": 12.324584, "tags": {"amenity": "charging_station", "capacity": "2"}}, {"type": "node", "id": 11087810808, "lat": 45.8985322, "lon": 12.2984132, "tags": {"amenity": "charging_station", "capacity": "2"}}, {"type": "node", "id": 11266877269, "lat": 45.8984118, "lon": 12.7322265, "tags": {"amenity": "charging_station", "capacity": "2", "fee": "yes", "motorcar": "yes", "opening_hours": "24/7"}}, {"type": "node", "id": 11291711786, "lat": 46.203621, "lon": 12.3034289, "tags": {"amenity": "charging_station", "capacity": "4"}}, {"type": "node", "id": 11840594574, "lat": 45.8744512, "lon": 12.6122518}, {"type": "node", "id": 11840594575, "lat": 45.8744339, "lon": 12.6123055}, {"type": "node", "id": 11862629167, "lat": 45.8563127, "lon": 12.536677, "tags": {"amenity": "charging_station", "capacity": "2", "fee": "yes", "motorcar": "yes", "name": "Enel X Way", "opening_hours": "24/7", "operator": "Enel X Way"}}, {"type": "node", "id": 11865496295, "lat": 45.8547938, "lon": 12.5363421, "tags": {"amenity": "charging_station", "capacity": "2", "operator": "Enel X Way"}}, {"type": "node", "id": 11865922372, "lat": 45.8781751, "lon": 12.3138816, "tags": {"amenity": "charging_station", "amperage": "16", "bicycle": "yes", "capacity": "2", "covered": "yes", "fee": "no", "opening_hours": "24/7", "operator": "Centro Commerciale Cone", "voltage": "230"}}, {"type": "node", "id": 11865922373, "lat": 45.8781601, "lon": 12.3139068, "tags": {"amenity": "charging_station", "amperage": "16", "bicycle": "yes", "capacity": "2", "covered": "yes", "fee": "no", "opening_hours": "24/7", "operator": "Centro Commerciale Cone", "voltage": "230"}}, {"type": "node", "id": 12046939671, "lat": 45.8801868, "lon": 12.3171389, "tags": {"access": "yes", "amenity": "charging_station", "brand": "Tesla Supercharger", "brand:wikidata": "Q17089620", "capacity": "8", "fee": "yes", "name": "Tesla Supercharger", "operator": "Tesla, Inc.", "operator:wikidata": "Q478214", "short_name": "Tesla", "socket:type2_combo": "6", "socket:type2_combo:output": "350 kW"}}, {"type": "node", "id": 12097396158, "lat": 46.0723162, "lon": 12.5897106, "tags": {"amenity": "charging_station", "capacity": "2", "motorcar": "yes", "operator": "enel"}}, {"type": "way", "id": 1275183303, "nodes": [11840594574, 11840594575, 2561570911, 2561570915, 11840594574], "tags": {"amenity": "charging_station", "capacity": "2", "ref": "EVSE=IT-ENX-E19XP22T3KK1AT00080"}}]}