{"version": 0.6, "generator": "Overpass API 0.7.62.1 084b4234", "osm3s": {"timestamp_osm_base": "2024-11-21T00:16:42Z", "copyright": "The data included in this document is from www.openstreetmap.org. The data is made available under ODbL."}, "elements": [{"type": "node", "id": 431342202, "lat": 41.9109582, "lon": 12.4458961, "tags": {"amenity": "restaurant", "name": "Nuraghe Sardo"}}, {"type": "node", "id": 1024173489, "lat": 41.9104463, "lon": 12.4450372, "tags": {"addr:city": "Roma", "addr:country": "IT", "addr:housenumber": "16", "addr:postcode": "00136", "addr:street": "Via Gualtiero Serafino", "amenity": "restaurant", "cuisine": "pizza;italian", "name": "Oscar", "oven": "wood_fired", "phone": "+39 06 39725442"}}, {"type": "node", "id": 1559428843, "lat": 41.9127224, "lon": 12.442022, "tags": {"amenity": "restaurant", "cuisine": "italian", "name": "Pizzeria Caselli"}}, {"type": "node", "id": 4247215713, "lat": 41.9136631, "lon": 12.4413234, "tags": {"addr:city": "Roma", "addr:country": "IT", "addr:housenumber": "14", "addr:postcode": "00136", "addr:street": "Via Ugo De Carolis", "amenity": "restaurant", "cuisine": "pizza", "name": "Il Farinaio", "takeaway": "yes"}}, {"type": "node", "id": 4837129621, "lat": 41.9132971, "lon": 12.4427043, "tags": {"addr:housenumber": "51", "addr:postcode": "00136", "addr:street": "Via Elio Donato", "amenity": "restaurant", "name": "Trattoria Picchiapo"}}, {"type": "node", "id": 5899943885, "lat": 41.909915, "lon": 12.4462766, "tags": {"addr:housenumber": "7", "addr:postcode": "00136", "addr:street": "Via Mario Savini", "amenity": "restaurant", "name": "Cuochin Casa"}}, {"type": "node", "id": 7820118329, "lat": 41.9133563, "lon": 12.4434817, "tags": {"addr:city": "Roma", "addr:housenumber": "127", "addr:postcode": "00136", "addr:street": "Viale delle Medaglie d'Oro", "amenity": "restaurant", "cuisine": "filipino", "name": "Kalatog Pinggan"}}]}