{"version": 0.6, "generator": "Overpass API 0.7.62.1 084b4234", "osm3s": {"timestamp_osm_base": "2024-11-21T00:16:42Z", "copyright": "The data included in this document is from www.openstreetmap.org. The data is made available under ODbL."}, "elements": [{"type": "node", "id": 1133758461, "lat": 44.845971, "lon": 11.5989314, "tags": {"addr:housenumber": "10/12", "addr:postcode": "44100", "addr:street": "Via Guglielmo Marconi", "amenity": "restaurant", "cuisine": "japanese;chinese;asian;thai", "description": "Asian Fusion", "facebook": "https://www.facebook.com/mizuumiferrara/", "name": "Ristorante Giapponese Mizuumi", "opening_hours": "Tu-Su,PH 11:00-15:00,18:00-24:00; Mo off", "operator": "Mizuumi di Jiang Peixuan", "payment:cash": "yes", "payment:debit_cards": "yes", "phone": "+39 0532 593187", "ref:vatin": "IT01895830386", "twitter": "https://twitter.com/MizuumiFerrara", "website": "https://www.mizuumi-fe.it/"}}, {"type": "node", "id": 1133758523, "lat": 44.8481485, "lon": 11.5999421, "tags": {"amenity": "restaurant", "cuisine": "korean;asian", "name": "Ristorante \"Moon\""}}, {"type": "node", "id": 4761822586, "lat": 44.847391, "lon": 11.5970187, "tags": {"addr:city": "Ferrara", "addr:housenumber": "20", "addr:street": "Via Modena", "amenity": "restaurant", "brand": "Old Wild West", "brand:wikidata": "Q25402475", "cuisine": "burger;chicken", "name": "Old Wild West", "website": "https://www.oldwildwest.it/code/22013/home"}}]}