{"version": 0.6, "generator": "Overpass API 0.7.62.1 084b4234", "osm3s": {"timestamp_osm_base": "2024-11-21T00:17:33Z", "copyright": "The data included in this document is from www.openstreetmap.org. The data is made available under ODbL."}, "elements": [{"type": "node", "id": 1848025930, "lat": 44.9089596, "lon": 8.6369653}, {"type": "node", "id": 1848025936, "lat": 44.9089809, "lon": 8.6366521}, {"type": "node", "id": 1848026065, "lat": 44.9093418, "lon": 8.6373112}, {"type": "node", "id": 1848026071, "lat": 44.9093642, "lon": 8.6369883}, {"type": "node", "id": 1848026080, "lat": 44.9093445, "lon": 8.6370174}, {"type": "node", "id": 1848026090, "lat": 44.9093658, "lon": 8.6367041}, {"type": "node", "id": 1848026167, "lat": 44.9095623, "lon": 8.6373408}, {"type": "node", "id": 1848026174, "lat": 44.9095839, "lon": 8.6370186}, {"type": "node", "id": 3545734927, "lat": 44.9092728, "lon": 8.6336221}, {"type": "node", "id": 3545734928, "lat": 44.9093108, "lon": 8.6334818}, {"type": "node", "id": 3545734933, "lat": 44.9094295, "lon": 8.633707}, {"type": "node", "id": 3545734936, "lat": 44.9094674, "lon": 8.6335668}, {"type": "node", "id": 3547314006, "lat": 44.9091733, "lon": 8.6351265, "tags": {"addr:city": "Alessandria", "addr:housenumber": "136", "addr:postcode": "15121", "addr:street": "Via Marengo", "amenity": "restaurant", "cuisine": "pizza", "name": "Mezza Luna", "toilets:wheelchair": "yes", "wheelchair": "yes"}}, {"type": "node", "id": 6456602428, "lat": 44.907341, "lon": 8.6367261}, {"type": "node", "id": 6456602429, "lat": 44.9075488, "lon": 8.6368398}, {"type": "node", "id": 6456602430, "lat": 44.9074834, "lon": 8.6370778}, {"type": "node", "id": 6456602431, "lat": 44.9072757, "lon": 8.6369641}, {"type": "node", "id": 6456602437, "lat": 44.9080907, "lon": 8.6348589}, {"type": "node", "id": 6456602438, "lat": 44.9076746, "lon": 8.6346324}, {"type": "node", "id": 6463119973, "lat": 44.9076155, "lon": 8.6348475}, {"type": "node", "id": 6463119974, "lat": 44.908031, "lon": 8.6350751}, {"type": "way", "id": 174045848, "nodes": [1848026065, 1848026071, 1848026174, 1848026167, 1848026065], "tags": {"addr:city": "Alessandria", "addr:housenumber": "162b", "addr:postcode": "15121", "addr:street": "Via Marengo", "amenity": "restaurant", "brand": "Old Wild West", "brand:wikidata": "Q25402475", "brand:wikipedia": "it:Old Wild West", "cuisine": "american", "name": "Old Wild West", "opening_hours": "12:00-15:00,19:00-00:00", "smoking": "no", "takeaway": "yes"}}, {"type": "way", "id": 174045855, "nodes": [1848026090, 1848026080, 1848025930, 1848025936, 1848026090], "tags": {"addr:city": "Alessandria", "addr:housenumber": "162", "addr:postcode": "15121", "addr:street": "Via Marengo", "amenity": "restaurant", "building": "yes", "cuisine": "chinese", "name": "Zen Ake Bono", "note": "verificare esattezza del nome; tofix", "wheelchair": "yes"}}, {"type": "way", "id": 348430296, "nodes": [3545734936, 3545734933, 3545734927, 3545734928, 3545734936], "tags": {"addr:city": "Alessandria", "addr:housenumber": "130", "addr:postcode": "15121", "addr:street": "Via Marengo", "amenity": "restaurant", "building": "yes", "cuisine": "chinese", "name": "Ristorante Wok", "note": "wc per disabili limitato da apertura porta verso l'interno", "wheelchair": "yes", "wheelchair:description": "limited"}}, {"type": "way", "id": 688509536, "nodes": [6456602428, 6456602429, 6456602430, 6456602431, 6456602428], "tags": {"addr:city": "Alessandria", "addr:postcode": "15121", "addr:street": "Via Marengo", "amenity": "restaurant", "brand": "Roadhouse", "brand:wikidata": "Q7339591", "brand:wikipedia": "it:Roadhouse Grill", "building": "commercial", "cuisine": "steak_house", "name": "Roadhouse", "start_date": "2018", "takeaway": "yes", "website": "https://www.roadhouse.it/", "wheelchair": "yes"}}, {"type": "way", "id": 689012637, "nodes": [6456602437, 6456602438, 6463119973, 6463119974, 6456602437], "tags": {"amenity": "restaurant", "building": "retail", "cuisine": "sushi;chinese;japanese;asian", "name": "Sushizero", "outdoor_seating": "no"}}]}