{"version": 0.6, "generator": "Overpass API 0.7.62.1 084b4234", "osm3s": {"timestamp_osm_base": "2024-11-20T16:40:00Z", "copyright": "The data included in this document is from www.openstreetmap.org. The data is made available under ODbL."}, "elements": [{"type": "node", "id": 4439553229, "lat": 45.8983999, "lon": 14.2546665, "tags": {"amenity": "charging_station", "authentication:membership_card": "yes", "authentication:nfc": "yes", "authentication:none": "no", "capacity": "2", "fee": "yes", "name": "Lom - zahod", "opening_hours": "24/7", "operator": "SODO", "socket:chademo": "1", "socket:type2": "1", "socket:type2_combo": "1"}}, {"type": "node", "id": 4439567054, "lat": 45.8986206, "lon": 14.2566537, "tags": {"amenity": "charging_station", "authentication:membership_card": "yes", "authentication:nfc": "yes", "authentication:none": "no", "capacity": "2", "fee": "yes", "name": "Lom - vzhod", "opening_hours": "24/7", "operator": "SODO", "socket:chademo": "1", "socket:type2": "1", "socket:type2_combo": "1"}}, {"type": "node", "id": 10944451782, "lat": 46.0561186, "lon": 14.1106785}, {"type": "node", "id": 10944451783, "lat": 46.0560717, "lon": 14.1106528}, {"type": "node", "id": 10944451784, "lat": 46.0560555, "lon": 14.1107228}, {"type": "node", "id": 10944451785, "lat": 46.056096, "lon": 14.1107462}, {"type": "way", "id": 1178146442, "nodes": [10944451782, 10944451783, 10944451784, 10944451785, 10944451782], "tags": {"access": "yes", "amenity": "charging_station", "brand": "GreenGo", "fee": "no", "operator": "T2"}}]}