{"version": 0.6, "generator": "Overpass API 0.7.62.1 084b4234", "osm3s": {"timestamp_osm_base": "2024-11-20T16:40:00Z", "copyright": "The data included in this document is from www.openstreetmap.org. The data is made available under ODbL."}, "elements": [{"type": "node", "id": 6683527641, "lat": 42.3992539, "lon": 14.1639891, "tags": {"amenity": "charging_station", "brand": "Tesla Supercharger", "brand:wikidata": "Q17089620", "capacity": "8", "fee": "yes", "name": "Tesla Supercharger", "opening_hours": "24/7", "operator": "Tesla, Inc.", "operator:wikidata": "Q478214", "short_name": "Tesla", "socket:tesla_supercharger": "8", "socket:tesla_supercharger:output": "150 kW", "website": "https://www.tesla.com/findus/location/supercharger/sangiovanniteatinosupercharger"}}, {"type": "node", "id": 7559663811, "lat": 42.4560207, "lon": 14.2083952, "tags": {"amenity": "charging_station", "capacity": "2", "operator": "Lidl", "operator:wikidata": "Q151954", "operator:wikipedia": "en:Lidl"}}, {"type": "node", "id": 7810908225, "lat": 42.3433146, "lon": 14.1675323, "tags": {"amenity": "charging_station", "capacity": "2"}}, {"type": "node", "id": 7812116391, "lat": 42.3496147, "lon": 14.1791641, "tags": {"access": "yes", "amenity": "charging_station", "brand": "Enel X", "brand:wikidata": "Q5376815", "capacity": "3", "fee": "yes", "name": "Enel X", "note": "maximum 1 charging per point.", "operator": "Enel X", "operator:wikidata": "Q5376815", "parking:fee": "no"}}, {"type": "node", "id": 7817784653, "lat": 42.3517814, "lon": 14.1702369, "tags": {"access": "yes", "amenity": "charging_station", "brand": "Enel X", "brand:wikidata": "Q5376815", "brand:wikipedia": "en:Enel X", "capacity": "2", "covered": "no", "fee": "yes", "motorcar": "yes", "name": "Enel", "network": "Enel X", "operator": "Enel X", "operator:wikidata": "Q5376815", "operator:wikipedia": "en:Enel X", "parking:fee": "no", "parking_space": "charging", "payment:contactless": "yes"}}, {"type": "node", "id": 8016637320, "lat": 42.4039019, "lon": 14.316101, "tags": {"access": "yes", "amenity": "charging_station", "capacity": "2", "description": "fast charge", "description:it": "fuori servizi causa mancanza di alimentazione", "fee": "yes", "man_made": "pipeline", "name": "Atlante", "operator": "Atlanta Gas Light", "operator:wikidata": "Q4816074", "payment:app": "yes", "service": "disabled", "website": "https://insideevs.it/news/523560/piemonte-atlante-nhoa-free2move-esolutions/"}}, {"type": "node", "id": 8099925330, "lat": 42.4915735, "lon": 14.1829731, "tags": {"access": "yes", "amenity": "charging_station", "brand": "Enel", "brand:wikidata": "Q651222", "brand:wikipedia": "en:Enel", "capacity": "2", "fee": "yes", "motorcar": "yes", "name": "Enel", "network": "Enel X", "operator": "Enel", "operator:wikidata": "Q651222", "operator:wikipedia": "en:Enel", "parking:fee": "no", "parking_space": "charging", "payment:contactless": "yes"}}, {"type": "node", "id": 8345538548, "lat": 42.4346038, "lon": 14.2592347, "tags": {"access": "yes", "amenity": "charging_station", "brand": "Enel", "brand:wikidata": "Q651222", "brand:wikipedia": "en:Enel", "capacity": "2", "fee": "yes", "motorcar": "yes", "name": "Enel", "network": "Enel X", "operator": "Enel", "operator:wikidata": "Q651222", "parking:fee": "no", "parking_space": "charging", "payment:contactless": "yes"}}, {"type": "node", "id": 8378745163, "lat": 42.3394904, "lon": 14.3178793, "tags": {"access": "yes", "amenity": "charging_station", "capacity": "4", "fee": "yes", "motorcar": "yes", "name": "BeCharge", "note": "coop with Plenitude, an ENI company", "operator": "Be Charge S.r.l.", "parking:fee": "no", "parking_space": "charging", "payment:contactless": "yes", "website": "https://www.bec.energy/?lang=en"}}, {"type": "node", "id": 8489483203, "lat": 42.4535737, "lon": 14.2200849, "tags": {"access": "yes", "amenity": "charging_station", "bicycle": "designated", "bicycle_parking:position": "pedestrian_area", "capacity": "4", "charging_station": "pedelec", "covered": "yes", "description:en": "Part 1 of a 10 stations mobility project run by the city of pescara.", "fee": "yes", "motor_vehicle": "no", "name": "Pescara Ebike power station", "note": "part of 10 location network in Pescara", "payment:contactless": "yes", "website": "https://mobilita.comune.pescara.it/wp-content/uploads/2021/01/PUMSPescara_agg_25giugno20201-1.pdf"}}, {"type": "node", "id": 8528656793, "lat": 42.4573811, "lon": 14.2127785, "tags": {"access": "yes", "amenity": "charging_station", "bicycle": "yes", "bicycle_parking:position": "pedestrian_area", "capacity:charging": "4", "covered": "yes", "description:en": "Part 2 of a 10 stations mobility project run by the city of pescara.", "fee": "yes", "motor_vehicle": "no", "motorcar": "no", "name": "Pescara Ebike power station", "parking:fee": "no"}}, {"type": "node", "id": 8533315885, "lat": 42.4730872, "lon": 14.2106142, "tags": {"access": "yes", "addr:city": "Pescara", "addr:housenumber": "129", "addr:postcode": "65129", "addr:street": "Corso Umberto I", "amenity": "charging_station", "brand": "Enel X", "brand:wikidata": "Q5376815", "brand:wikipedia": "en:Enel", "capacity": "2", "fee": "yes", "motorcar": "yes", "name": "Enel X", "network": "Enel X", "operator": "Enel X", "operator:wikidata": "Q5376815", "operator:wikipedia": "it:Enel X", "parking:fee": "no", "parking_space": "charging", "payment:contactless": "yes"}}, {"type": "node", "id": 8557631738, "lat": 42.4701831, "lon": 14.1934381, "tags": {"access": "yes", "amenity": "charging_station", "bicycle": "designated", "bicycle_parking:position": "parking_lot", "capacity": "2", "charging_station": "pedelec", "covered": "yes", "description:en": "Part 3 of a 10 stations mobility project run by the city of pescara.", "fee": "yes", "motor_vehicle": "no", "name": "Pescara Ebike power station", "payment:contactless": "yes", "website": "https://mobilita.comune.pescara.it/wp-content/uploads/2021/01/PUMSPescara_agg_25giugno20201-1.pdf"}}, {"type": "node", "id": 8655926266, "lat": 42.4499825, "lon": 14.2198668, "tags": {"access": "yes", "amenity": "charging_station", "bicycle": "designated", "bicycle_parking:position": "parking_lot", "capacity": "2", "charging_station": "pedelec", "covered": "yes", "description:en": "Part 4 of a 10 stations mobility project run by the city of pescara.", "fee": "yes", "motor_vehicle": "no", "name": "Pescara Ebike power station", "payment:contactless": "yes", "website": "https://mobilita.comune.pescara.it/wp-content/uploads/2021/01/PUMSPescara_agg_25giugno20201-1.pdf"}}, {"type": "node", "id": 8655926275, "lat": 42.4919728, "lon": 14.1821791, "tags": {"access": "yes", "amenity": "charging_station", "bicycle": "designated", "bicycle_parking:position": "parking_lot", "capacity": "4", "charging_station": "pedelec", "covered": "yes", "description:en": "Part 5 of a 10 stations mobility project run by the city of pescara.", "fee": "yes", "motor_vehicle": "no", "name": "Pescara Ebike power station", "payment:contactless": "yes", "website": "https://mobilita.comune.pescara.it/wp-content/uploads/2021/01/PUMSPescara_agg_25giugno20201-1.pdf"}}, {"type": "node", "id": 8721428885, "lat": 42.434934, "lon": 14.2682614}, {"type": "node", "id": 8721428886, "lat": 42.4348838, "lon": 14.268204}, {"type": "node", "id": 8721428887, "lat": 42.4348613, "lon": 14.2682401}, {"type": "node", "id": 8721428888, "lat": 42.4349115, "lon": 14.2682975}, {"type": "node", "id": 8722546622, "lat": 42.4535312, "lon": 14.2357295, "tags": {"access": "yes", "amenity": "charging_station", "bicycle": "designated", "bus": "no", "capacity": "6", "description": "Stazione di ricarica ebike", "hgv": "no", "motor_vehicle": "no", "motorcar": "no", "name": "DriWE", "note": "First time observed in Pescara at May 11, 2021 by this operator. Regular 220v 600 watts ground plugs.", "operator": "DriWE.eu", "phone": "+39 0445 162 0036", "voltage": "220", "website": "https://www.driwe.eu"}}, {"type": "node", "id": 8756273875, "lat": 42.4662446, "lon": 14.1989612, "tags": {"access": "yes", "amenity": "charging_station", "brand": "Enel", "brand:wikidata": "Q651222", "brand:wikipedia": "en:Enel", "capacity": "2", "fee": "yes", "name": "Enel X", "parking:fee": "no"}}, {"type": "node", "id": 8773117616, "lat": 42.4650973, "lon": 14.1902038, "tags": {"access": "yes", "amenity": "charging_station", "bicycle": "designated", "bicycle_parking:position": "parking_lot", "capacity": "4", "charging_station": "pedelec", "covered": "yes", "description:en": "Part 6 of a 10 stations mobility project run by the city of pescara.", "fee": "yes", "motor_vehicle": "no", "name": "Pescara Ebike power station", "payment:contactless": "yes", "website": "https://mobilita.comune.pescara.it/wp-content/uploads/2021/01/PUMSPescara_agg_25giugno20201-1.pdf"}}, {"type": "node", "id": 8773133615, "lat": 42.4668001, "lon": 14.228647, "tags": {"access": "customers", "amenity": "charging_station", "capacity": "3", "name": "E-Mobility", "operator": "Porche"}}, {"type": "node", "id": 8789623387, "lat": 42.4543156, "lon": 14.2353266, "tags": {"access": "yes", "amenity": "charging_station", "bicycle": "designated", "bicycle_parking:position": "pedestrian_area", "capacity": "2", "charging_station": "pedelec", "covered": "yes", "description:en": "Part 7 of a 10 stations mobility project run by the city of pescara.", "fee": "yes", "motor_vehicle": "no", "name": "Pescara Ebike power station", "payment:contactless": "yes", "website": "https://mobilita.comune.pescara.it/wp-content/uploads/2021/01/PUMSPescara_agg_25giugno20201-1.pdf"}}, {"type": "node", "id": 8792630228, "lat": 42.3590599, "lon": 14.2936941, "tags": {"access": "yes", "amenity": "charging_station", "brand": "Enel", "brand:wikidata": "Q651222", "brand:wikipedia": "en:Enel", "capacity": "2", "fee": "yes", "name": "Enel X"}}, {"type": "node", "id": 8853947733, "lat": 42.45061, "lon": 14.2251021, "tags": {"access": "yes", "amenity": "charging_station", "brand": "Enel", "brand:wikidata": "Q651222", "brand:wikipedia": "en:Enel", "capacity": "2", "fee": "yes", "name": "Enel X", "operator": "Enel", "operator:wikidata": "Q651222", "operator:wikipedia": "en:Enel"}}, {"type": "node", "id": 8870491183, "lat": 42.3834627, "lon": 14.1523993, "tags": {"access": "yes", "amenity": "charging_station", "capacity": "2", "fee": "yes", "motorcar": "yes", "name": "BeCharge", "operator": "Be Charge", "operator:wikidata": "Q113289535", "parking:fee": "no", "parking_space": "charging", "payment:contactless": "yes", "website": "https://www.bec.energy/?lang=en"}}, {"type": "node", "id": 8879062948, "lat": 42.5103465, "lon": 14.1534579, "tags": {"access": "yes", "amenity": "charging_station", "brand": "Enel", "brand:wikidata": "Q651222", "brand:wikipedia": "en:Enel", "capacity": "2", "fee": "yes", "motorcar": "yes", "name": "Enel X", "network": "Enel X", "operator": "Enel", "operator:wikidata": "Q651222", "parking:fee": "no", "parking_space": "charging", "payment:contactless": "yes", "phone:IT": "800 069 850"}}, {"type": "node", "id": 9064685291, "lat": 42.4549962, "lon": 14.2079527, "tags": {"access": "yes", "amenity": "charging_station", "capacity": "2", "fee": "yes", "name": "BE Charge", "operator": "Be Charge", "operator:wikidata": "Q113289535", "payment:app": "meadow_orchard"}}, {"type": "node", "id": 9117765071, "lat": 42.4877855, "lon": 14.1846894, "tags": {"access": "yes", "amenity": "charging_station", "brand": "Enel", "brand:wikidata": "Q651222", "brand:wikipedia": "en:Enel", "capacity": "2", "fee": "yes", "motorcar": "yes", "name": "Enel Way", "network": "Enel X", "operator": "Enel", "operator:wikidata": "Q651222", "operator:wikipedia": "en:Enel", "parking:fee": "no", "parking_space": "charging", "payment:contactless": "yes"}}, {"type": "node", "id": 9117765072, "lat": 42.4846217, "lon": 14.1886747, "tags": {"access": "yes", "amenity": "charging_station", "capacity": "2", "fee": "yes", "motorcar": "yes", "name": "BE Charge", "operator": "Be Charge", "operator:wikidata": "Q113289535", "parking:fee": "no", "parking_space": "charging", "payment:contactless": "yes", "website": "https://www.bec.energy/?lang=en"}}, {"type": "node", "id": 9195610753, "lat": 42.4670372, "lon": 14.2016542, "tags": {"access": "yes", "amenity": "charging_station", "bicycle": "designated", "bicycle_parking:position": "parking_lot", "capacity": "2", "charging_station": "pedelec", "covered": "yes", "description:en": "Part 8 of a 10 stations mobility project run by the city of pescara.", "fee": "yes", "motor_vehicle": "no", "name": "Pescara Ebike power station", "payment:contactless": "yes", "website": "https://mobilita.comune.pescara.it/wp-content/uploads/2021/01/PUMSPescara_agg_25giugno20201-1.pdf"}}, {"type": "node", "id": 9248507711, "lat": 42.4877904, "lon": 14.191583, "tags": {"access": "yes", "amenity": "charging_station", "capacity": "2", "fee": "yes", "motorcar": "yes", "name": "BeCharge", "operator": "Be Charge S.r.l.", "parking:fee": "no", "parking_space": "charging", "payment:contactless": "yes", "website": "https://www.bec.energy/?lang=en"}}, {"type": "node", "id": 9347425879, "lat": 42.396174, "lon": 14.1664508, "tags": {"access": "yes", "addr:city": "San Giovanni Teatino", "addr:postcode": "65129", "addr:street": "Via Regolizie", "amenity": "charging_station", "brand": "Enel", "brand:wikidata": "Q651222", "brand:wikipedia": "en:Enel", "capacity": "2", "fee": "yes", "motorcar": "yes", "name": "Enel X", "network": "Enel X", "nohousenumber": "yes", "operator": "Enel", "operator:wikidata": "Q651222", "operator:wikipedia": "en:Enel", "parking:fee": "no", "parking_space": "charging", "payment:contactless": "yes"}}, {"type": "node", "id": 9350642083, "lat": 42.424705, "lon": 14.1910634, "tags": {"access": "yes", "amenity": "charging_station", "brand": "Enel", "brand:wikidata": "Q651222", "brand:wikipedia": "en:Enel", "capacity": "2", "fee": "yes", "motorcar": "yes", "name": "Enel X", "network": "Enel X", "nohousenumber": "yes", "operator": "Enel", "operator:wikidata": "Q651222", "operator:wikipedia": "en:Enel", "parking:fee": "no", "parking_space": "charging", "payment:contactless": "yes"}}, {"type": "node", "id": 9439739805, "lat": 42.4684198, "lon": 14.1985769, "tags": {"access": "yes", "addr:city": "Pescara", "addr:housenumber": "129", "addr:postcode": "65129", "addr:street": "Via Arapietra", "amenity": "charging_station", "brand": "Enel", "brand:wikidata": "Q651222", "brand:wikipedia": "en:Enel", "capacity": "2", "fee": "yes", "motorcar": "yes", "name": "Enel X", "network": "Enel X", "note": "Has 3 cables with different plugs.", "operator": "Enel", "operator:wikidata": "Q651222", "operator:wikipedia": "en:Enel", "parking:fee": "no", "parking_space": "charging", "payment:contactless": "yes"}}, {"type": "node", "id": 9508163577, "lat": 42.4697088, "lon": 14.1931254, "tags": {"access": "yes", "amenity": "charging_station", "brand": "Blitz", "capacity": "2", "fax": "+39 0825 780896", "fee": "yes", "motorcar": "yes", "name": "Blitz Power", "network": "Blitz", "operator": "Italia Vento Power Corporation", "parking:fee": "no", "parking_space": "charging", "payment:contactless": "yes", "phone": "+39 0825 38741", "ref:vatin": "IT01969560646", "website": "https://www.ivpc.com/gruppo/blitz-power/"}}, {"type": "node", "id": 9508163582, "lat": 42.4626979, "lon": 14.1966426, "tags": {"access": "yes", "amenity": "charging_station", "brand": "Blitz", "capacity": "2", "fax": "+39 0825 780896", "fee": "yes", "motorcar": "yes", "name": "Blitz Power", "network": "Blitz", "note": "Socket type \"C\"", "operator": "Italia Vento Power Corporation", "parking:fee": "no", "parking_space": "charging", "payment:contactless": "yes", "phone": "+39 0825 38741", "ref:vatin": "IT01969560646", "website": "https://www.ivpc.com/gruppo/blitz-power/"}}, {"type": "node", "id": 9566215566, "lat": 42.468521, "lon": 14.1965277, "tags": {"access": "yes", "addr:city": "Pescara", "addr:housenumber": "129", "addr:postcode": "65129", "addr:street": "Via Arapietra", "amenity": "charging_station", "brand": "Enel", "brand:wikidata": "Q651222", "brand:wikipedia": "en:Enel", "capacity": "2", "fee": "yes", "motorcar": "yes", "name": "Enel X", "network": "Enel X", "note": "Has 3 cables with different plugs.", "operator": "Enel", "operator:wikidata": "Q651222", "operator:wikipedia": "en:Enel", "parking:fee": "no", "parking_space": "charging", "payment:contactless": "yes"}}, {"type": "node", "id": 9588559743, "lat": 42.473547, "lon": 14.2024181, "tags": {"access": "customers", "amenity": "charging_station", "capacity": "1", "name": "Todis"}}, {"type": "node", "id": 9588569119, "lat": 42.4865252, "lon": 14.1851068, "tags": {"amenity": "charging_station", "capacity": "2", "name": "ABB", "operator": "ABB", "operator:wikidata": "Q52825", "operator:wikipedia": "en:ABB"}}, {"type": "node", "id": 9680085499, "lat": 42.449503, "lon": 14.2464626, "tags": {"access": "yes", "amenity": "charging_station", "brand": "Blitz", "capacity": "2", "fax": "+39 0825 780896", "fee": "yes", "motorcar": "yes", "name": "Blitz Power", "network": "Blitz", "operator": "Italia Vento Power Corporation", "parking:fee": "no", "parking_space": "charging", "payment:contactless": "yes", "phone": "+39 0825 38741", "ref:vatin": "IT01969560646", "website": "https://www.ivpc.com/gruppo/blitz-power/"}}, {"type": "node", "id": 9680128115, "lat": 42.4517915, "lon": 14.2432405, "tags": {"amenity": "charging_station", "capacity": "2", "operator": "Be Charge", "operator:wikidata": "Q113289535"}}, {"type": "node", "id": 9685645098, "lat": 42.4912813, "lon": 14.1757806, "tags": {"access": "yes", "alt_name": "plenitude", "amenity": "charging_station", "capacity": "4", "fee": "yes", "motorcar": "yes", "name": "BeCharge", "operator": "Be Charge S.r.l.", "parking:fee": "no", "parking_space": "charging", "payment:contactless": "yes", "website": "https://www.bec.energy/?lang=en"}}, {"type": "node", "id": 9689699746, "lat": 42.3520108, "lon": 14.402266, "tags": {"amenity": "charging_station", "operator": "Zecca Energia"}}, {"type": "node", "id": 9744135516, "lat": 42.4764297, "lon": 14.2053779, "tags": {"access": "yes", "amenity": "charging_station", "brand": "Blitz", "capacity": "2", "fax": "+39 0825 780896", "fee": "yes", "fee:parking": "no", "motorcar": "yes", "name": "Blitz Power", "network": "Blitz", "operator": "Italia Vento Power Corporation", "parking:fee": "no", "parking_space": "charging", "payment:contactless": "yes", "phone": "+39 0825 38741", "ref:vatin": "IT01969560646", "website": "https://www.ivpc.com/gruppo/blitz-power/"}}, {"type": "node", "id": 9776929947, "lat": 42.4539802, "lon": 14.2190467, "tags": {"access": "yes", "amenity": "charging_station", "brand": "Blitz", "capacity": "2", "fax": "+39 0825 780896", "fee": "yes", "motorcar": "yes", "name": "Blitz Power", "network": "Blitz", "operator": "Italia Vento Power Corporation", "parking:fee": "no", "parking_space": "charging", "payment:contactless": "yes", "phone": "+39 0825 38741", "ref:vatin": "IT01969560646", "website": "https://www.ivpc.com/gruppo/blitz-power/"}}, {"type": "node", "id": 9782294925, "lat": 42.4681239, "lon": 14.2032893, "tags": {"access": "yes", "addr:city": "Pescara", "addr:housenumber": "129", "addr:postcode": "65129", "addr:street": "Via Enzo Ferrari", "amenity": "charging_station", "brand": "Enel", "brand:wikidata": "Q651222", "brand:wikipedia": "en:Enel", "capacity": "2", "fee": "yes", "motorcar": "yes", "name": "Enel X", "network": "Enel X", "old_name": "Via Salaria", "operator": "Enel", "operator:wikidata": "Q651222", "operator:wikipedia": "en:Enel", "parking:fee": "no", "parking_space": "charging", "payment:contactless": "yes"}}, {"type": "node", "id": 9782643522, "lat": 42.4462229, "lon": 14.2492497, "tags": {"access": "yes", "addr:city": "Pescara", "addr:housenumber": "129", "addr:postcode": "65129", "addr:street": "Viale Primo Vere", "amenity": "charging_station", "brand": "Enel", "brand:wikidata": "Q651222", "brand:wikipedia": "en:Enel", "capacity": "2", "fee": "yes", "motorcar": "yes", "name": "Enel X", "network": "Enel X", "operator": "Enel", "operator:wikidata": "Q651222", "operator:wikipedia": "en:Enel", "parking:fee": "no", "parking_space": "charging", "payment:contactless": "yes"}}, {"type": "node", "id": 9783650652, "lat": 42.4350858, "lon": 14.2367347, "tags": {"access": "yes", "amenity": "charging_station", "bicycle": "designated", "bicycle_parking:position": "pedestrian_area", "capacity": "4", "charging_station": "pedelec", "covered": "yes", "description:en": "Site 9 of a 10 stations mobility project run by the city of pescara.", "fee": "yes", "motor_vehicle": "no", "name": "Pescara Ebike power station", "note": "sito 9 of 10 location network in Pescara", "operator": "https://www.ecospazio.it", "payment:contactless": "yes", "website": "https://mobilita.comune.pescara.it/wp-content/uploads/2021/01/PUMSPescara_agg_25giugno20201-1.pdf"}}, {"type": "node", "id": 9889070091, "lat": 42.3631386, "lon": 14.1689766, "tags": {"amenity": "charging_station", "fee": "yes", "name": "Be Charge", "operator": "Be Charge", "operator:wikidata": "Q113289535"}}, {"type": "node", "id": 9889070092, "lat": 42.3404841, "lon": 14.159717, "tags": {"access": "yes", "amenity": "charging_station", "capacity": "2", "fee": "yes", "name": "Be Charge", "operator": "Be Charge", "operator:wikidata": "Q113289535", "parking:fee": "no"}}, {"type": "node", "id": 9891981445, "lat": 42.4446772, "lon": 14.1762761, "tags": {"access": "yes", "amenity": "charging_station", "capacity": "2", "fee": "yes", "name": "LogiNet", "operator": "Nissan", "operator:wikidata": "Q20165", "payment:contactless": "yes"}}, {"type": "node", "id": 9918949177, "lat": 42.5080029, "lon": 14.1590541, "tags": {"access": "yes", "amenity": "charging_station", "brand": "Enel X", "brand:wikidata": "Q5376815", "capacity": "2", "fee": "yes", "name": "Enel X", "operator": "Enel X", "operator:wikidata": "Q5376815"}}, {"type": "node", "id": 9970957443, "lat": 42.4396595, "lon": 14.1727579, "tags": {"amenity": "charging_station", "bicycle": "yes", "fee": "yes", "network": "DINAclub", "operator": "Repower", "operator:wikidata": "Q674712", "operator:wikipedia": "it:Repower", "website": "https://www.repower.com/it/dina/"}}, {"type": "node", "id": 10049143398, "lat": 42.4686389, "lon": 14.1812087, "tags": {"access": "yes", "amenity": "charging_station", "brand": "Blitz", "capacity": "2", "colour": "white;lightgreen", "fax": "+39 0825 780 896", "fee": "yes", "motorcar": "yes", "name": "Blitz Power", "network": "Blitz", "operator": "Italia Vento Power Corporation", "parking:fee": "no", "parking_space": "charging", "payment:contactless": "yes", "phone": "+39 0825 38741", "ref:vatin": "IT01969560646", "website": "https://www.ivpc.com/gruppo/blitz-power/"}}, {"type": "node", "id": 10050921785, "lat": 42.4522366, "lon": 14.2265532, "tags": {"access": "yes", "amenity": "charging_station", "capacity": "2", "fee": "yes", "maxstay": "1 hour", "name": "BE Charge", "operator": "Be Charge", "operator:wikidata": "Q113289535", "parking:fee": "no", "payment:app": "yes"}}, {"type": "node", "id": 10050921786, "lat": 42.4522093, "lon": 14.225352, "tags": {"access": "yes", "amenity": "charging_station", "capacity": "2", "fee": "yes", "name": "BE Charge", "operator": "Be Charge", "operator:wikidata": "Q113289535", "parking:fee": "no", "payment:app": "yes"}}, {"type": "node", "id": 10096984243, "lat": 42.4448996, "lon": 14.245307, "tags": {"access": "yes", "amenity": "charging_station", "capacity": "2", "check_date": "2022-08", "fee": "yes", "name": "ABB", "operator": "ABB", "operator:wikidata": "Q52825", "payment:app": "yes"}}, {"type": "node", "id": 10106571376, "lat": 42.4625681, "lon": 14.1984774, "tags": {"access": "yes", "amenity": "charging_station", "capacity": "2", "fee": "yes", "name": "BE Charge", "operator": "Be Charge", "operator:wikidata": "Q113289535", "parking:fee": "no", "payment:app": "yes"}}, {"type": "node", "id": 10106571377, "lat": 42.4433661, "lon": 14.1989935, "tags": {"access": "yes", "amenity": "charging_station", "capacity": "2", "fee": "yes", "name": "BE Charge", "operator": "Be Charge", "operator:wikidata": "Q113289535", "parking:fee": "no", "payment:app": "yes"}}, {"type": "node", "id": 10106571383, "lat": 42.4364777, "lon": 14.1940366, "tags": {"access": "customers", "amenity": "charging_station", "capacity": "2", "operator": "Porsche", "operator:wikidata": "Q40993"}}, {"type": "node", "id": 10118828448, "lat": 42.4160392, "lon": 14.1685448, "tags": {"access": "yes", "amenity": "charging_station", "capacity": "2", "fixme": "position", "name": "EnerHub", "opening_hours": "24/7", "website": "https://www.enerhub.it"}}, {"type": "node", "id": 10118851450, "lat": 42.4366843, "lon": 14.1943543, "tags": {"access": "customers", "amenity": "charging_station", "capacity": "2", "operator": "Porsche", "operator:wikidata": "Q40993"}}, {"type": "node", "id": 10118865106, "lat": 42.4568393, "lon": 14.2090849, "tags": {"access": "yes", "amenity": "charging_station", "brand": "Blitz", "capacity": "2", "fax": "+39 0825 780896", "fee": "yes", "motorcar": "yes", "name": "Blitz Power", "network": "Blitz", "operator": "Italia Vento Power Corporation", "parking:fee": "no", "parking_space": "charging", "payment:contactless": "yes", "phone": "+39 0825 38741", "ref:vatin": "IT01969560646", "website": "https://www.ivpc.com/gruppo/blitz-power/"}}, {"type": "node", "id": 10121215276, "lat": 42.4809068, "lon": 14.1929223, "tags": {"access": "yes", "amenity": "charging_station", "brand": "Blitz", "capacity": "2", "fax": "+39 0825 780896", "fee": "yes", "motorcar": "yes", "name": "Blitz Power", "network": "Blitz", "operator": "Italia Vento Power Corporation", "parking:fee": "no", "parking_space": "charging", "payment:contactless": "yes", "phone": "+39 0825 38741", "ref:vatin": "IT01969560646", "website": "https://www.ivpc.com/gruppo/blitz-power/"}}, {"type": "node", "id": 10121215277, "lat": 42.4645562, "lon": 14.2053068, "tags": {"access": "yes", "amenity": "charging_station", "capacity": "2", "fee": "yes", "name": "BE Charge", "operator": "Be Charge", "operator:wikidata": "Q113289535", "parking:fee": "no", "payment:app": "yes"}}, {"type": "node", "id": 10142862657, "lat": 42.480567, "lon": 14.1936756, "tags": {"access": "yes", "amenity": "charging_station", "bicycle": "designated", "bicycle_parking:position": "parking_lot", "capacity": "4", "charging_station": "pedelec", "covered": "yes", "description:en": "Part 10 of a 10 stations mobility project run by the city of pescara.", "fee": "yes", "motor_vehicle": "no", "name": "Pescara Ebike power station", "payment:contactless": "yes", "website": "https://mobilita.comune.pescara.it/wp-content/uploads/2021/01/PUMSPescara_agg_25giugno20201-1.pdf"}}, {"type": "node", "id": 10152486618, "lat": 42.4829271, "lon": 14.1973521, "tags": {"access": "yes", "amenity": "charging_station", "brand": "Blitz", "capacity": "2", "colour": "white;lightgreen", "fax": "+39 0825 780 896", "fee": "yes", "motorcar": "yes", "name": "Blitz Power", "network": "Blitz", "operator": "Italia Vento Power Corporation", "parking:fee": "no", "parking_space": "charging", "payment:contactless": "yes", "phone": "+39 0825 38741", "ref:vatin": "IT01969560646", "website": "https://www.ivpc.com/gruppo/blitz-power/"}}, {"type": "node", "id": 10163838977, "lat": 42.4627791, "lon": 14.205302, "tags": {"access": "yes", "amenity": "charging_station", "capacity": "1", "email": "contattaci@ewiva.com", "facebook": "https://www.facebook.com/ewiva.official", "fee": "yes", "name": "Ewiva", "operator": "Ewiva", "operator:wikidata": "Q123272416", "ref:vatin": "IT16223171006", "website": "https://ewiva.com"}}, {"type": "node", "id": 10218112287, "lat": 42.4647681, "lon": 14.2126868, "tags": {"access": "yes", "amenity": "charging_station", "brand": "Blitz", "capacity": "2", "fax": "+39 0825 780896", "fee": "yes", "motorcar": "yes", "name": "Blitz Power", "network": "Blitz", "operator": "Italia Vento Power Corporation", "parking:fee": "no", "parking_space": "charging", "payment:contactless": "yes", "phone": "+39 0825 38741", "ref:vatin": "IT01969560646", "website": "https://www.ivpc.com/gruppo/blitz-power/"}}, {"type": "node", "id": 10857925152, "lat": 42.4556183, "lon": 14.1982694, "tags": {"access": "yes", "amenity": "charging_station", "brand": "Blitz", "capacity": "2", "fax": "+39 0825 780896", "fee": "yes", "motorcar": "yes", "name": "Blitz Power", "network": "Blitz", "note": "Socket type \"C\"", "operator": "Italia Vento Power Corporation", "parking:fee": "no", "parking_space": "charging", "payment:contactless": "yes", "phone": "+39 0825 38741", "ref:vatin": "IT01969560646", "website": "https://www.ivpc.com/gruppo/blitz-power/"}}, {"type": "node", "id": 10857962397, "lat": 42.467606, "lon": 14.2091602, "tags": {"access": "yes", "amenity": "charging_station", "capacity": "2", "fee": "yes", "name": "BE Charge", "operator": "Be Charge", "operator:wikidata": "Q113289535", "parking:fee": "no", "payment:app": "yes", "socket:type2": "2"}}, {"type": "node", "id": 10857963669, "lat": 42.4497393, "lon": 14.2196828, "tags": {"access": "yes", "amenity": "charging_station", "brand": "Blitz", "capacity": "2", "fax": "+39 0825 780896", "fee": "yes", "motorcar": "yes", "name": "Blitz Power", "network": "Blitz", "note": "Socket type \"C\"", "operator": "Italia Vento Power Corporation", "parking:fee": "no", "parking_space": "charging", "payment:contactless": "yes", "phone": "+39 0825 38741", "ref:vatin": "IT01969560646", "website": "https://www.ivpc.com/gruppo/blitz-power/"}}, {"type": "node", "id": 10920189096, "lat": 42.4241392, "lon": 14.1858179, "tags": {"access": "private", "amenity": "charging_station", "capacity": "1", "operator": "Orbis"}}, {"type": "node", "id": 10951200835, "lat": 42.4551728, "lon": 14.2177805, "tags": {"access": "yes", "amenity": "charging_station", "brand": "Blitz", "capacity": "2", "fax": "+39 0825 780896", "fee": "yes", "motorcar": "yes", "name": "Blitz Power", "network": "Blitz", "operator": "Italia Vento Power Corporation", "parking:fee": "no", "parking_space": "charging", "payment:contactless": "yes", "phone": "+39 0825 38741", "ref:vatin": "IT01969560646", "website": "https://www.ivpc.com/gruppo/blitz-power/"}}, {"type": "node", "id": 11001647979, "lat": 42.4957617, "lon": 14.176233, "tags": {"access": "yes", "amenity": "charging_station", "brand": "Plenitude", "capacity": "2", "check_date": "2024-03", "fee": "yes", "name": "BE Charge", "note": "hypercharge type", "operator": "Be Charge", "operator:wikidata": "Q113289535", "parking:fee": "no", "payment:app": "yes"}}, {"type": "node", "id": 11054840211, "lat": 42.3545283, "lon": 14.1836433, "tags": {"amenity": "charging_station", "capacity": "4", "fee": "yes", "motorcar": "yes", "name": "Eurospin", "operator": "Eurospin", "socket:type2": "4"}}, {"type": "node", "id": 11061259768, "lat": 42.4214632, "lon": 14.2882009, "tags": {"access": "yes", "amenity": "charging_station", "bicycle": "yes", "capacity": "3", "fee": "no", "motorcar": "no", "small_electric_vehicle": "yes"}}, {"type": "node", "id": 11153555788, "lat": 42.5000259, "lon": 14.166684, "tags": {"amenity": "charging_station", "authentication:app": "yes", "brand": "BE Charge", "capacity": "4", "lit": "yes", "motorcar": "yes", "name": "Be Charge", "operator": "Plenitude", "operator:wikidata": "Q113289535"}}, {"type": "node", "id": 11165042627, "lat": 42.5208493, "lon": 14.1496456, "tags": {"amenity": "charging_station", "authentication:app": "yes", "brand": "Enel X", "brand:wikidata": "Q5376815", "capacity": "4", "fee": "yes", "motorcar": "yes", "name": "Enel X", "note": "type JuicePump Ultra350", "opening_hours": "24/7", "operator": "Enel X", "operator:wikidata": "Q5376815"}}, {"type": "node", "id": 11186771120, "lat": 42.3958276, "lon": 14.1668774, "tags": {"amenity": "charging_station", "brand": "Enel X", "brand:wikidata": "Q5376815", "capacity": "2", "name": "Enel X", "operator": "Enel X", "operator:wikidata": "Q5376815"}}, {"type": "node", "id": 11186771121, "lat": 42.3958581, "lon": 14.1669063, "tags": {"amenity": "charging_station", "brand": "Enel X", "brand:wikidata": "Q5376815", "capacity": "2", "name": "Enel X", "operator": "Enel X", "operator:wikidata": "Q5376815"}}, {"type": "node", "id": 11193940744, "lat": 42.4506071, "lon": 14.2244991, "tags": {"amenity": "charging_station", "capacity": "2", "motorcar": "yes", "note": "now separated fr0om the road by a cycleway, impossible to use.", "operator": "Be Charge", "operator:wikidata": "Q113289535"}}, {"type": "node", "id": 11270114073, "lat": 42.4471968, "lon": 14.2115477, "tags": {"access": "yes", "amenity": "charging_station", "brand": "Enel", "brand:wikidata": "Q651222", "brand:wikipedia": "en:Enel", "capacity": "2", "fee": "yes", "motorcar": "yes", "name": "Enel Way", "network": "Enel X", "operator": "Enel", "operator:wikidata": "Q651222", "operator:wikipedia": "en:Enel", "parking:fee": "no", "parking_space": "charging", "payment:contactless": "yes"}}, {"type": "node", "id": 11349069781, "lat": 42.4705997, "lon": 14.1793011, "tags": {"access": "yes", "alt_name": "plenitude", "amenity": "charging_station", "capacity": "2", "fee": "yes", "motorcar": "yes", "name": "BeCharge", "opening_hours": "24/7", "operator": "Be Charge", "operator:wikidata": "Q113289535", "parking:fee": "no", "parking_space": "charging", "payment:contactless": "yes", "website": "https://www.bec.energy/?lang=en"}}, {"type": "node", "id": 11355703014, "lat": 42.4604608, "lon": 14.2178703, "tags": {"access": "yes", "amenity": "charging_station", "capacity": "2", "fee": "yes", "motorcar": "yes", "name": "BE Charge", "operator": "Be Charge", "operator:wikidata": "Q113289535", "parking:fee": "no", "parking_space": "charging", "payment:contactless": "yes", "website": "https://www.bec.energy/?lang=en"}}, {"type": "node", "id": 11359034198, "lat": 42.5212099, "lon": 14.149301, "tags": {"amenity": "charging_station", "capacity": "2", "fee": "yes", "motorcar": "yes", "opening_hours": "24/7", "operator": "ABB", "operator:wikidata": "Q52825"}}, {"type": "node", "id": 11379721530, "lat": 42.4881123, "lon": 14.1840725, "tags": {"access": "yes", "amenity": "charging_station", "brand": "Enel", "brand:wikidata": "Q651222", "brand:wikipedia": "en:Enel", "capacity": "2", "fee": "yes", "motorcar": "yes", "name": "Enel Way", "network": "Enel X", "note": "brand/operator not visible, likely housebrand of Todis.", "operator": "Enel", "operator:wikidata": "Q651222", "operator:wikipedia": "en:Enel", "parking:fee": "no", "parking_space": "charging", "payment:contactless": "yes"}}, {"type": "node", "id": 11379855856, "lat": 42.4637153, "lon": 14.2043138, "tags": {"access": "yes", "amenity": "charging_station", "capacity": "4", "email": "contattaci@ewiva.com", "facebook": "https://www.facebook.com/ewiva.official", "fee": "yes", "name": "Ewiva", "operator": "Ewiva", "operator:wikidata": "Q123272416", "ref:vatin": "IT16223171006", "website": "https://ewiva.com"}}, {"type": "node", "id": 11384199490, "lat": 42.474648, "lon": 14.2094019, "tags": {"access": "yes", "amenity": "charging_station", "capacity": "2", "check_date": "2024-11-19", "fee": "yes", "motorcar": "yes", "name": "BeCharge", "operator": "Be Charge S.r.l.", "operator:wikidata": "Q113289535", "parking:fee": "no", "parking_space": "charging", "payment:contactless": "yes", "website": "https://www.bec.energy/?lang=en"}}, {"type": "node", "id": 11394164396, "lat": 42.4525367, "lon": 14.2282632, "tags": {"amenity": "charging_station", "capacity": "3", "name": "Scame", "note": "labelled with 'D' as socket"}}, {"type": "node", "id": 11708419069, "lat": 42.4200493, "lon": 14.1760335, "tags": {"amenity": "charging_station", "capacity": "2"}}, {"type": "node", "id": 11831567356, "lat": 42.4086563, "lon": 14.1721432, "tags": {"access": "private", "amenity": "charging_station", "covered": "no"}}, {"type": "node", "id": 11841774986, "lat": 42.4036776, "lon": 14.3157119, "tags": {"access": "yes", "amenity": "charging_station", "capacity": "2", "charging_station:type": "fastcharging", "description": "fast charge", "description:it": "fast charge type", "fee": "yes", "man_made": "pipeline", "name": "Atlante", "operator": "Atlanta Gas Light", "operator:wikidata": "Q4816074", "payment:app": "yes", "website": "https://insideevs.it/news/523560/piemonte-atlante-nhoa-free2move-esolutions/"}}, {"type": "node", "id": 11953883229, "lat": 42.4533669, "lon": 14.225471, "tags": {"amenity": "charging_station", "brand": "Enel", "brand:wikidata": "Q651222", "capacity": "2", "covered": "no", "fee": "yes", "motorcar": "yes", "motorcycle": "no", "name": "Enel", "note": "fast charge station.", "opening_hours": "Mo-Su 08:30-21:00", "operator": "Enel", "operator:wikidata": "Q651222", "parking:fee": "no"}}, {"type": "node", "id": 11962444357, "lat": 42.4654323, "lon": 14.2137554, "tags": {"access": "yes", "amenity": "charging_station", "brand": "Be Charge", "capacity": "2", "not:operator:wikidata": "Q113289535", "operator": "Be Charge", "website": "https://www.goingelectric.de/stromtankstellen/Italien/Pescara/Blitz-Power-Via-Calabria-Via-Calabria/88250/"}}, {"type": "node", "id": 12063587152, "lat": 42.4293658, "lon": 14.1988458, "tags": {"amenity": "charging_station", "capacity": "2", "operator": "Enel X Way", "operator:wikidata": "Q116116836"}}, {"type": "node", "id": 12193175903, "lat": 42.4988888, "lon": 14.1716216, "tags": {"amenity": "charging_station", "capacity": "2", "fee": "yes", "motorcar": "yes", "motorcycle": "yes", "name": "JOINON", "operator": "Gewiss", "website": "https://www.gewiss.com/ch/it/mobility/joinon"}}, {"type": "node", "id": 12255362112, "lat": 42.4372157, "lon": 14.2578111, "tags": {"amenity": "charging_station", "covered": "no", "fee": "yes", "motorcar": "yes", "motorcycle": "yes", "name": "GasGas", "parking:fee": "no", "website": "https://www.gasgas.fun/"}}, {"type": "node", "id": 12285326129, "lat": 42.4160658, "lon": 14.1685647, "tags": {"access": "yes", "amenity": "charging_station", "capacity": "2", "fixme": "position", "name": "EnerHub", "opening_hours": "24/7", "website": "https://www.enerhub.it"}}, {"type": "node", "id": 12288167515, "lat": 42.4362024, "lon": 14.194812, "tags": {"amenity": "charging_station", "brand": "Enel X", "brand:wikidata": "Q5376815", "capacity": "2", "covered": "no", "fee": "yes", "motorcar": "yes", "motorcycle": "yes", "name": "Enel X", "operator": "Enel X", "operator:wikidata": "Q5376815", "parking:fee": "no"}}, {"type": "node", "id": 12297261320, "lat": 42.3962963, "lon": 14.1664465}, {"type": "node", "id": 12297261321, "lat": 42.3962106, "lon": 14.1666236}, {"type": "node", "id": 12297304622, "lat": 42.3964471, "lon": 14.1668259}, {"type": "node", "id": 12297304623, "lat": 42.396531, "lon": 14.1666515}, {"type": "way", "id": 941778465, "nodes": [8721428885, 8721428886, 8721428887, 8721428888, 8721428885], "tags": {"amenity": "charging_station", "building": "shed", "building:levels": "1", "hgv": "no", "mobility_scooter": "yes", "motorcar": "no", "roof:shape": "flat"}}, {"type": "way", "id": 1329144834, "nodes": [12297261320, 12297304623, 12297304622, 12297261321, 12297261320], "tags": {"access": "yes", "addr:city": "San Giovanni Teatino", "addr:postcode": "65129", "addr:street": "Via Regolizie", "amenity": "charging_station", "capacity": "14", "capacity:charging": "14", "fee": "yes", "motorcar": "yes", "name": "BE charge", "operator": "Be Charge", "operator:wikidata": "Q113289535", "parking:fee": "no", "parking_space": "charging", "payment:contactless": "yes"}}]}