{"version": 0.6, "generator": "Overpass API 0.7.62.1 084b4234", "osm3s": {"timestamp_osm_base": "2024-11-20T22:04:06Z", "copyright": "The data included in this document is from www.openstreetmap.org. The data is made available under ODbL."}, "elements": [{"type": "node", "id": 3280925951, "lat": 45.4123474, "lon": 10.9701856, "tags": {"access": "customers", "addr:city": "Verona", "addr:country": "IT", "addr:housenumber": "16", "addr:postcode": "37135", "addr:street": "Via Belgio", "amenity": "charging_station", "brand": "Tesla Supercharger", "brand:wikidata": "Q17089620", "capacity": "10", "fee": "yes", "motorcar": "yes", "name": "Verona Supercharger", "opening_hours": "24/7", "operator": "Tesla, Inc.", "operator:wikidata": "Q478214", "operator:wikipedia": "en:Tesla, Inc.", "short_name": "Tesla", "socket:tesla_supercharger": "10", "socket:tesla_supercharger:output": "150 kW", "socket:tesla_supercharger_ccs": "10", "socket:tesla_supercharger_ccs:output": "150 kW", "website": "https://www.tesla.com/findus/location/supercharger/veronasupercharger"}}, {"type": "node", "id": 4128107268, "lat": 45.5513501, "lon": 10.7873936, "tags": {"access": "customers", "addr:city": "Affi", "addr:country": "IT", "addr:housenumber": "27", "addr:postcode": "37010", "addr:street": "Via San Pieretto", "amenity": "charging_station", "brand": "Tesla, Inc.", "brand:wikidata": "Q478214", "capacity": "24", "fee": "yes", "motorcar": "yes", "name": "Affi Supercharger", "opening_hours": "24/7", "operator": "Tesla, Inc.", "operator:wikidata": "Q478214", "operator:wikipedia": "en:Tesla, Inc.", "short_name": "Tesla", "socket:tesla_supercharger": "16", "socket:tesla_supercharger:output": "150 kW", "socket:tesla_supercharger_ccs": "8", "socket:tesla_supercharger_ccs:output": "250 kW", "website": "https://www.tesla.com/findus/location/supercharger/affisupercharger"}}, {"type": "node", "id": 5233080500, "lat": 45.6919529, "lon": 10.6684712, "tags": {"amenity": "charging_station", "authentication:membership_card": "yes", "capacity:car": "2", "capacity:scooter": "2", "motorcar": "yes", "note": "During the test of the GardaUno charging station network there are no electricity costs, you just have to order the GardaUno card (no fee). - Information up to date July 2017", "operator": "GardaUno", "scooter": "yes"}}, {"type": "node", "id": 5474263813, "lat": 45.4969876, "lon": 10.7377922, "tags": {"amenity": "charging_station", "capacity": "2", "power": "22Kw"}}, {"type": "node", "id": 5787655604, "lat": 45.4347498, "lon": 10.6802041, "tags": {"amenity": "charging_station", "amperage": "32A", "operator": "Lidl", "operator:wikidata": "Q151954", "socket:type2": "2"}}, {"type": "node", "id": 6298119185, "lat": 45.5636625, "lon": 10.4303267, "tags": {"amenity": "charging_station", "fee": "no", "payment:none": "yes"}}, {"type": "node", "id": 6851448495, "lat": 45.5514422, "lon": 10.787629, "tags": {"access": "yes", "amenity": "charging_station", "capacity": "2", "fee": "no", "opening_hours": "24/7", "operator": "A22", "socket:chademo": "1", "socket:chademo:output": "50kW", "socket:type2": "1", "socket:type2:output": "43kW", "socket:type2_combo": "1", "socket:type2_combo:output": "50kW"}}, {"type": "node", "id": 7663858369, "lat": 45.483085, "lon": 10.7282366, "tags": {"access": "private", "amenity": "charging_station", "capacity": "1", "motorcar": "yes"}}, {"type": "node", "id": 7801490759, "lat": 45.4710431, "lon": 10.8501508, "tags": {"amenity": "charging_station", "capacity": "2"}}, {"type": "node", "id": 7801490760, "lat": 45.4746337, "lon": 10.8463247, "tags": {"amenity": "charging_station", "capacity": "2", "operator": "Enel"}}, {"type": "node", "id": 7876262330, "lat": 45.4442441, "lon": 10.9667782, "tags": {"access": "yes", "amenity": "charging_station", "capacity": "2", "fee": "no", "name": "Corso Milano", "opening_hours": "24/7", "operator": "Agsm Verona Spa", "operator:wikidata": "Q17620223", "operator:wikipedia": "it:AGSM Verona", "outdoor": "yes", "parking:fee": "no", "socket:type2": "2", "socket:type2:current": "32", "socket:type2:output": "22 kW", "socket:type2:voltage": "400", "website": "https://www.agsm.it"}}, {"type": "node", "id": 7913305463, "lat": 45.4221665, "lon": 10.9316805, "tags": {"access": "yes", "amenity": "charging_station", "capacity": "2", "fee": "no", "name": "Gumpert", "opening_hours": "24/7", "operator": "Agsm Verona Spa", "operator:wikidata": "Q17620223", "operator:wikipedia": "it:AGSM Verona", "outdoor": "yes", "parking:fee": "no", "socket:type2": "2", "socket:type2:current": "32", "socket:type2:output": "22 kW", "socket:type2:voltage": "400", "website": "https://www.agsm.it"}}, {"type": "node", "id": 7913305466, "lat": 45.4760401, "lon": 10.9488201, "tags": {"access": "yes", "amenity": "charging_station", "capacity": "2", "fee": "no", "name": "PiazzaPorto", "opening_hours": "24/7", "operator": "Agsm Verona Spa", "operator:wikidata": "Q17620223", "operator:wikipedia": "it:AGSM Verona", "outdoor": "yes", "parking:fee": "no", "socket:type2": "2", "socket:type2:current": "32", "socket:type2:output": "22 kW", "socket:type2:voltage": "400", "website": "https://www.agsm.it"}}, {"type": "node", "id": 7951643334, "lat": 45.447201, "lon": 10.945936, "tags": {"access": "yes", "amenity": "charging_station", "capacity": "2", "fee": "no", "name": "Stanga", "opening_hours": "24/7", "operator": "Agsm Verona Spa", "operator:wikidata": "Q17620223", "operator:wikipedia": "it:AGSM Verona", "outdoor": "yes", "parking:fee": "no", "socket:type2": "2", "socket:type2:current": "32", "socket:type2:output": "22 kW", "socket:type2:voltage": "400", "website": "https://www.agsm.it"}}, {"type": "node", "id": 7997856714, "lat": 45.4074483, "lon": 10.8403137, "tags": {"access": "yes", "amenity": "charging_station", "capacity": "2", "fee": "varies", "name": "Enel X", "opening_hours": "24/7", "operator": "Enel X", "socket:chademo": "1", "socket:chademo:output": "50 kW", "socket:type2": "1", "socket:type2:output": "43 kW", "socket:type2_combo": "1", "socket:type2_combo:output": "50 kW"}}, {"type": "node", "id": 8357547606, "lat": 45.3472986, "lon": 10.8440225, "tags": {"amenity": "charging_station", "capacity": "4", "operator": "Becharge"}}, {"type": "node", "id": 8662541441, "lat": 45.3960759, "lon": 10.9148821, "tags": {"amenity": "charging_station", "capacity": "4", "opening_hours": "24/7", "operator": "Be charge", "operator:wikidata": "Q113289535"}}, {"type": "node", "id": 8760572012, "lat": 45.4530569, "lon": 10.9668496, "tags": {"access": "yes", "amenity": "charging_station", "capacity": "1", "fee": "no", "name": "Faliero", "opening_hours": "24/7", "operator": "Agsm Verona Spa", "operator:wikidata": "Q17620223", "operator:wikipedia": "it:AGSM Verona", "outdoor": "yes", "parking:fee": "no", "socket:type2": "1", "socket:type2:current": "32", "socket:type2:output": "22 kW", "socket:type2:voltage": "400", "website": "https://www.agsm.it"}}, {"type": "node", "id": 8831990001, "lat": 45.3897493, "lon": 10.9035144, "tags": {"amenity": "charging_station", "brand": "Enel X", "brand:wikidata": "Q5376815", "brand:wikipedia": "en:Enel X", "capacity": "2", "motorcar": "yes", "name": "McDonald's", "operator": "Enel X", "operator:wikidata": "Q5376815", "operator:wikipedia": "en:Enel X", "socket:type2": "2"}}, {"type": "node", "id": 8842344252, "lat": 45.4486216, "lon": 10.8819668, "tags": {"amenity": "charging_station", "fee": "no", "operator": "MediaWorld", "socket:chademo": "1", "socket:type2": "2", "socket:type2_combo": "1"}}, {"type": "node", "id": 9404223663, "lat": 45.5076386, "lon": 10.506912, "tags": {"amenity": "charging_station", "capacity": "1", "name": "e-way", "operator": "Garda Uno"}}, {"type": "node", "id": 9406981234, "lat": 45.4802242, "lon": 10.9033332, "tags": {"amenity": "charging_station", "capacity": "4"}}, {"type": "node", "id": 9584793456, "lat": 45.4076282, "lon": 10.6882188, "tags": {"access": "yes", "amenity": "charging_station", "charge": "0.6\u20ac/kWh", "fee": "yes", "operator": "Be Charge", "operator:wikidata": "Q113289535", "socket:type2": "2", "socket:type2:output": "22kW"}}, {"type": "node", "id": 9740918096, "lat": 45.308395, "lon": 10.411141, "tags": {"amenity": "charging_station", "capacity": "2", "motorcar": "yes", "operator": "Be Charge"}}, {"type": "node", "id": 9741008946, "lat": 45.2991752, "lon": 10.4750171, "tags": {"amenity": "charging_station", "capacity": "2", "motorcar": "yes", "operator": "Be Charge"}}, {"type": "node", "id": 9773085231, "lat": 45.4058241, "lon": 10.9670768, "tags": {"amenity": "charging_station", "capacity": "2", "motorcar": "yes", "name": "Volvo"}}, {"type": "node", "id": 9963992884, "lat": 45.6530484, "lon": 10.7252781, "tags": {"amenity": "charging_station", "bicycle": "yes", "network": "DINAclub", "operator": "Repower", "operator:wikidata": "Q674712", "operator:wikipedia": "it:Repower", "website": "https://www.repower.com/it/dina/"}}, {"type": "node", "id": 9967749354, "lat": 45.4414045, "lon": 10.7581452, "tags": {"amenity": "charging_station", "bicycle": "only", "fixme": "La posizione non sembra ccurata. Sul posto indicato c'\u00e8 una casa privata. Da controllare sul posto", "network": "DINAclub", "operator": "Repower", "operator:wikidata": "Q674712", "operator:wikipedia": "it:Repower", "website": "https://www.repower.com/it/dina/"}}, {"type": "node", "id": 9967761843, "lat": 45.6312949, "lon": 10.7252499, "tags": {"amenity": "charging_station", "bicycle": "yes", "network": "DINAclub", "operator": "Repower", "operator:wikidata": "Q674712", "operator:wikipedia": "it:Repower", "website": "https://www.repower.com/it/dina/"}}, {"type": "node", "id": 9967788976, "lat": 45.5514111, "lon": 10.718759, "tags": {"amenity": "charging_station", "bicycle": "yes", "description": "Camping San Nicol\u00f2 - https://www.komoot.com/highlight/5124634", "network": "DINAclub", "operator": "Repower", "operator:wikidata": "Q674712", "operator:wikipedia": "it:Repower", "website": "https://www.repower.com/it/dina/"}}, {"type": "node", "id": 9968715775, "lat": 45.6036617, "lon": 10.4578158, "tags": {"access": "yes", "amenity": "charging_station", "brand": "Enel X", "brand:wikidata": "Q5376815", "capacity": "2", "fee": "yes", "name": "Enel X", "operator": "Enel X", "operator:wikidata": "Q5376815"}}, {"type": "node", "id": 10017434397, "lat": 45.4608924, "lon": 10.56723, "tags": {"amenity": "charging_station", "capacity": "2", "fee": "yes", "operator": "GuardaUno", "socket:type2": "2"}}, {"type": "node", "id": 10178152280, "lat": 45.3568479, "lon": 10.7518597, "tags": {"amenity": "charging_station", "brand": "Enel X", "fee": "yes", "motorcar": "yes", "name": "Enel X", "opening_hours": "24/7", "operator": "Enel X", "operator:wikidata": "Q5376815"}}, {"type": "node", "id": 10232551075, "lat": 45.4805625, "lon": 10.7229005, "tags": {"amenity": "charging_station", "capacity": "2", "operator": "wallbox"}}, {"type": "node", "id": 10765636805, "lat": 45.5522072, "lon": 10.7879798, "tags": {"access": "yes", "amenity": "charging_station", "brand": "Ionity", "brand:wikidata": "Q42717773", "capacity": "18", "fee": "yes", "name": "Ionity Affi", "network": "Ionity", "opening_hours": "24/7", "operator": "Ionity", "ref": "469", "socket:type2_combo": "18", "socket:type2_combo:output": "350 kW"}}, {"type": "node", "id": 10781823035, "lat": 45.4623799, "lon": 10.8504347, "tags": {"amenity": "charging_station", "brand": "Enel X", "brand:wikidata": "Q5376815", "name": "Enel X", "operator": "Enel X", "operator:wikidata": "Q5376815"}}, {"type": "node", "id": 10826752296, "lat": 45.4746259, "lon": 10.8475072, "tags": {"access": "yes", "amenity": "charging_station", "bicycle": "yes", "brand": "Bosch eBike Systems", "capacity": "4", "motorcar": "no", "name": "Bosch eBike Systems", "operator": "Bosch eBike Systems", "operator:wikidata": "Q234021", "scooter": "no", "wikimedia_commons": "File:Colonnina di ricarica E-bike BOSCH posta nel comune di Bussolengo (VR) 01.jpg"}}, {"type": "node", "id": 10862580746, "lat": 45.47473, "lon": 10.84736, "tags": {"access": "yes", "amenity": "charging_station", "brand": "Pradella Sistemi srl", "fee": "no", "name": "Charge Point - Pradella Sistemi", "operator": "Pradella Sistemi srl"}}, {"type": "node", "id": 10864075187, "lat": 45.5697237, "lon": 10.5460678}, {"type": "node", "id": 10864075188, "lat": 45.5697239, "lon": 10.5459355}, {"type": "node", "id": 10864075189, "lat": 45.5697712, "lon": 10.5459226}, {"type": "node", "id": 10864075190, "lat": 45.5697713, "lon": 10.5460525}, {"type": "node", "id": 10896225605, "lat": 45.4261179, "lon": 10.6024833, "tags": {"amenity": "charging_station", "amperage": "32", "brand": "Repower", "capacity": "2", "motorcar": "yes", "network": "Ricarica 101", "opening_hours": "24/7", "operator": "Repower", "operator:wikidata": "Q674712", "operator:wikipedia": "it:Repower", "website": "https://www.repower.com/it/la-mobilita-elettrica/"}}, {"type": "node", "id": 11013731003, "lat": 45.4378757, "lon": 10.7608968, "tags": {"amenity": "charging_station", "capacity": "4", "charging_station:output": "22 kWh", "operator": "driwe", "socket:type2": "4"}}, {"type": "node", "id": 11227872626, "lat": 45.4721967, "lon": 10.7473871, "tags": {"amenity": "charging_station", "description": "11 kW CCS"}}, {"type": "node", "id": 11237079438, "lat": 45.4340664, "lon": 10.7103967, "tags": {"access": "yes", "amenity": "charging_station", "brand": "Electra", "capacity": "2", "covered": "no", "fee": "yes", "source": "https://www.hdmotori.it/auto/articoli/n574192/electra-stazione-superfast-italia-ricarica-auto/", "start_date": "2023-10-02"}}, {"type": "node", "id": 11369408885, "lat": 45.4114851, "lon": 10.9025779, "tags": {"access": "yes", "amenity": "charging_station", "brand": "Porsche", "capacity": "2", "operator": "Porsche", "operator:wikidata": "Q40993"}}, {"type": "node", "id": 11369408886, "lat": 45.4115111, "lon": 10.9026469, "tags": {"access": "yes", "amenity": "charging_station", "brand": "Tesla, Inc.", "brand:wikidata": "Q478214", "capacity": "2", "name": "Tesla Destination Charger", "short_name": "Tesla"}}, {"type": "node", "id": 11414282067, "lat": 45.4733556, "lon": 10.8448343, "tags": {"access": "yes", "amenity": "charging_station"}}, {"type": "node", "id": 11417162012, "lat": 45.4458014, "lon": 10.9554154, "tags": {"amenity": "charging_station", "capacity": "2"}}, {"type": "node", "id": 11498536521, "lat": 45.4457264, "lon": 10.9568842, "tags": {"access": "customers", "amenity": "charging_station", "name": "Esselunga"}}, {"type": "node", "id": 11498536522, "lat": 45.4457476, "lon": 10.9568842, "tags": {"access": "customers", "amenity": "charging_station", "name": "Esselunga"}}, {"type": "node", "id": 11498536523, "lat": 45.445772, "lon": 10.9568822, "tags": {"access": "customers", "amenity": "charging_station", "name": "Esselunga"}}, {"type": "node", "id": 11498536524, "lat": 45.4457941, "lon": 10.9568815, "tags": {"access": "customers", "amenity": "charging_station", "name": "Esselunga"}}, {"type": "node", "id": 11811588182, "lat": 45.4612354, "lon": 10.4855631, "tags": {"amenity": "charging_station", "authentication:contactless": "yes", "capacity": "2", "name": "Via Ugo da Como \u2013 Torre Civica \u2013 Lonato", "opening_hours": "24/7", "operator": "Garda Uno SpA"}}, {"type": "node", "id": 11821360242, "lat": 45.4584491, "lon": 10.5515212, "tags": {"access": "yes", "amenity": "charging_station", "brand": "Comune di Desenzano del Garda", "fee": "no", "operator": "GaraGeeks", "socket:device:USB-A": "6", "socket:device:qi-wireless": "3", "source": "survey"}}, {"type": "node", "id": 11922101263, "lat": 45.6107256, "lon": 10.7059954, "tags": {"amenity": "charging_station", "capacity": "2"}}, {"type": "node", "id": 11989648590, "lat": 45.4127461, "lon": 10.8612162, "tags": {"access": "yes", "addr:city": "Sommacampagna", "addr:housenumber": "16", "addr:postcode": "37066", "addr:street": "via Cesarina", "amenity": "charging_station", "bicycle": "no", "brand": "Clean Energy", "capacity": "4", "description": "- da queste colonnine \u00e8 possibile pagare con C.C. o Bancomat\n- at this charging station it is possible to pay by credit card or ATM", "fee": "no", "fuel:electricity": "yes", "image": "https://maps.app.goo.gl/mQVrfRVnimf2horS8", "name": "Stazione di Ricarica Clean Energy", "name:de": "Ladestation", "name:es": "Estaci\u00f2n de Carga", "name:fr": "Station de Recharge", "opening_hours": "24/7", "operator": "Clean Energy", "photo": "https://drive.google.com/file/d/1iwKSxikLuIxVYWJO452YbdTBDtY1G06t/view?usp=sharing", "picture": "https://cfmedia.electromaps.com/fichas_images/944a3608f48cca1b35a8cd5122c6c445_l.jpg", "socket:type2": "2", "socket:type2:output": "22 kW", "socket:type2_combo": "4", "socket:type2_combo:output": "150 kW", "website": "https://www.cleanenergysrl.net/"}}, {"type": "node", "id": 12119809161, "lat": 45.4465515, "lon": 10.8625409, "tags": {"amenity": "charging_station", "capacity": "2"}}, {"type": "node", "id": 12119954581, "lat": 45.5300975, "lon": 10.5529017, "tags": {"access": "customers", "amenity": "charging_station", "capacity": "2"}}, {"type": "node", "id": 12123543255, "lat": 45.4614303, "lon": 10.559786, "tags": {"amenity": "charging_station", "bicycle": "yes", "socket:schuko": "2"}}, {"type": "node", "id": 12145074526, "lat": 45.4795713, "lon": 10.7224473, "tags": {"addr:street": "Localit\u00e0 Fossalta", "amenity": "charging_station"}}, {"type": "node", "id": 12153575212, "lat": 45.4341271, "lon": 10.7102292, "tags": {"access": "yes", "amenity": "charging_station", "brand": "Electra", "capacity": "2", "covered": "no", "fee": "yes", "source": "https://www.hdmotori.it/auto/articoli/n574192/electra-stazione-superfast-italia-ricarica-auto/", "start_date": "2023-10-02"}}, {"type": "node", "id": 12153575213, "lat": 45.4340095, "lon": 10.7105593, "tags": {"access": "yes", "amenity": "charging_station", "brand": "Electra", "capacity": "2", "covered": "no", "fee": "yes", "source": "https://www.hdmotori.it/auto/articoli/n574192/electra-stazione-superfast-italia-ricarica-auto/", "start_date": "2023-10-02"}}, {"type": "node", "id": 12153575214, "lat": 45.4339527, "lon": 10.7107022, "tags": {"access": "yes", "amenity": "charging_station", "brand": "Electra", "capacity": "2", "covered": "no", "fee": "yes", "source": "https://www.hdmotori.it/auto/articoli/n574192/electra-stazione-superfast-italia-ricarica-auto/", "start_date": "2023-10-02"}}, {"type": "node", "id": 12238362033, "lat": 45.5410341, "lon": 10.7793413, "tags": {"amenity": "charging_station", "capacity": "2"}}, {"type": "node", "id": 12243615490, "lat": 45.42022, "lon": 10.9522324, "tags": {"amenity": "charging_station"}}, {"type": "way", "id": 1168181448, "nodes": [10864075190, 10864075187, 10864075188, 10864075189, 10864075190], "tags": {"access": "customers", "amenity": "charging_station", "operator": "Residence Onda Blu", "source": "Bing"}}]}