{"version": 0.6, "generator": "Overpass API 0.7.62.1 084b4234", "osm3s": {"timestamp_osm_base": "2024-11-20T16:39:00Z", "copyright": "The data included in this document is from www.openstreetmap.org. The data is made available under ODbL."}, "elements": [{"type": "node", "id": 8186645272, "lat": 41.4966052, "lon": 13.7043975, "tags": {"amenity": "charging_station"}}, {"type": "node", "id": 9964752721, "lat": 41.7739108, "lon": 14.1027917, "tags": {"amenity": "charging_station", "bicycle": "yes", "network": "DINAclub", "operator": "Repower", "operator:wikidata": "Q674712", "operator:wikipedia": "it:Repower", "website": "https://www.repower.com/it/dina/"}}, {"type": "node", "id": 9967495574, "lat": 41.5436366, "lon": 13.6580766, "tags": {"amenity": "charging_station", "bicycle": "yes", "network": "DINAclub", "operator": "Repower", "operator:wikidata": "Q674712", "operator:wikipedia": "it:Repower", "website": "https://www.repower.com/it/dina/"}}, {"type": "node", "id": 10297844216, "lat": 41.497787, "lon": 13.6842337, "tags": {"access": "yes", "amenity": "charging_station", "capacity": "8", "name": "Free to X", "source": "https://www.forumelettrico.it/forum/colonnine-free-to-x-high-power-ads-casilina-est-castrocielo-stro-fr-km-93-a1-verso-roma-t27959.html", "start_date": "2022-12-30"}}, {"type": "node", "id": 10651136152, "lat": 41.4968933, "lon": 13.6830988, "tags": {"access": "yes", "amenity": "charging_station", "brand": "Free to X", "operator": "Free to X", "source": "https://www.facebook.com/FreeToX", "start_date": "2023-02-11"}}, {"type": "node", "id": 10980281105, "lat": 41.837468, "lon": 13.930154, "tags": {"access": "yes", "amenity": "charging_station", "brand": "Pradella Sistemi srl", "fee": "no", "name": "Charge Point - Pradella Sistemi", "operator": "Pradella Sistemi srl"}}, {"type": "node", "id": 11112187697, "lat": 41.7737629, "lon": 14.0972842, "tags": {"access": "yes", "amenity": "charging_station", "bicycle": "yes", "fixme": "verificare la posizione", "name": "DINAclub - Stazione di Ricarica e-Bike", "network": "DINAclub", "operator": "Repower", "operator:wikidata": "Q674712", "website": "https://www.repower.com/it/dina/"}}, {"type": "node", "id": 11112211743, "lat": 41.8526763, "lon": 14.074819, "tags": {"amenity": "charging_station", "brand": "Enel X", "brand:wikidata": "Q5376815", "name": "Enel X", "operator": "Enel X", "operator:wikidata": "Q5376815"}}, {"type": "node", "id": 11112211897, "lat": 41.8476835, "lon": 14.0796046, "tags": {"amenity": "charging_station", "brand": "Enel X", "brand:wikidata": "Q5376815", "name": "Enel X", "operator": "Enel X", "operator:wikidata": "Q5376815"}}, {"type": "node", "id": 11787249172, "lat": 41.6444, "lon": 14.0877, "tags": {"access": "yes", "amenity": "charging_station", "brand": "Pradella Sistemi srl", "fee": "no", "name": "Charge Point - Pradella Sistemi", "operator": "Pradella Sistemi srl"}}, {"type": "node", "id": 11787249173, "lat": 41.6122, "lon": 14.0593, "tags": {"access": "yes", "amenity": "charging_station", "brand": "Pradella Sistemi srl", "fee": "no", "name": "Charge Point - Pradella Sistemi", "operator": "Pradella Sistemi srl"}}, {"type": "node", "id": 11787249270, "lat": 41.5403, "lon": 13.897, "tags": {"access": "yes", "amenity": "charging_station", "brand": "Pradella Sistemi srl", "fee": "no", "name": "Charge Point - Pradella Sistemi", "operator": "Pradella Sistemi srl"}}, {"type": "node", "id": 11787250370, "lat": 41.7348, "lon": 14.0372, "tags": {"access": "yes", "amenity": "charging_station", "brand": "Pradella Sistemi srl", "fee": "no", "name": "Charge Point - Pradella Sistemi", "operator": "Pradella Sistemi srl"}}, {"type": "node", "id": 11818337374, "lat": 41.7802488, "lon": 14.1078935, "tags": {"access": "yes", "amenity": "charging_station", "bicycle": "yes", "brand": "IIS Patini Liberatore", "fee": "no", "operator": "GaraGeeks", "socket:typee": "8", "source": "survey"}}, {"type": "node", "id": 11818341105, "lat": 41.7812254, "lon": 14.1088067, "tags": {"access": "yes", "amenity": "charging_station", "bicycle": "yes", "brand": "IIS Patini Liberatore", "fee": "no", "operator": "GaraGeeks", "socket:typee": "8", "source": "survey"}}, {"type": "node", "id": 11901966000, "lat": 41.6018566, "lon": 13.6345277, "tags": {"amenity": "charging_station"}}, {"type": "node", "id": 11947060070, "lat": 41.7781, "lon": 13.8563, "tags": {"access": "yes", "amenity": "charging_station", "brand": "Pradella Sistemi srl", "fee": "no", "name": "Charge Point - Pradella Sistemi", "operator": "Pradella Sistemi srl"}}, {"type": "node", "id": 11947060071, "lat": 41.6716, "lon": 13.8505, "tags": {"access": "yes", "amenity": "charging_station", "brand": "Pradella Sistemi srl", "fee": "no", "name": "Charge Point - Pradella Sistemi", "operator": "Pradella Sistemi srl"}}, {"type": "node", "id": 11947060072, "lat": 41.7738, "lon": 13.9451, "tags": {"access": "yes", "amenity": "charging_station", "brand": "Pradella Sistemi srl", "fee": "no", "name": "Charge Point - Pradella Sistemi", "operator": "Pradella Sistemi srl"}}, {"type": "node", "id": 11947088669, "lat": 41.8667, "lon": 13.6264, "tags": {"access": "yes", "amenity": "charging_station", "brand": "Pradella Sistemi srl", "fee": "no", "name": "Charge Point - Pradella Sistemi", "operator": "Pradella Sistemi srl"}}, {"type": "node", "id": 11947088670, "lat": 41.6068, "lon": 13.9633, "tags": {"access": "yes", "amenity": "charging_station", "brand": "Pradella Sistemi srl", "fee": "no", "name": "Charge Point - Pradella Sistemi", "operator": "Pradella Sistemi srl"}}, {"type": "node", "id": 11947088769, "lat": 41.7526, "lon": 13.728, "tags": {"access": "yes", "amenity": "charging_station", "brand": "Pradella Sistemi srl", "fee": "no", "name": "Charge Point - Pradella Sistemi", "operator": "Pradella Sistemi srl"}}, {"type": "node", "id": 12330843053, "lat": 41.4614825, "lon": 13.9323067, "tags": {"access": "yes", "addr:city": "San Vittore del Lazio", "addr:housenumber": "13", "addr:postcode": "03040", "addr:street": "Via dei Greci", "amenity": "charging_station", "capacity": "4", "name": "Be Charge Charging Station", "operator": "Be Charge", "operator:wikidata": "Q113289535"}}]}