{"version": 0.6, "generator": "Overpass API 0.7.62.1 084b4234", "osm3s": {"timestamp_osm_base": "2024-11-20T16:41:00Z", "copyright": "The data included in this document is from www.openstreetmap.org. The data is made available under ODbL."}, "elements": [{"type": "node", "id": 7092847766, "lat": 38.1023582, "lon": 15.6370188, "tags": {"access": "customers", "amenity": "charging_station", "brand": "enel x", "operator": "enel x"}}, {"type": "node", "id": 9142429976, "lat": 38.3669564, "lon": 15.8695713, "tags": {"amenity": "charging_station", "brand": "Tesla Supercharger", "brand:wikidata": "Q17089620", "capacity": "4", "covered": "yes", "fee": "yes", "name": "Palmi Supercharger", "not:brand:wikidata": "Q478214", "opening_hours": "24/7", "operator": "Tesla, Inc.", "operator:wikidata": "Q478214", "short_name": "Tesla", "socket:tesla_supercharger": "4", "socket:tesla_supercharger:output": "150 kW", "socket:tesla_supercharger_ccs": "4", "socket:tesla_supercharger_ccs:output": "150 kW", "website": "https://www.tesla.com/findus/location/supercharger/palmisupercharger"}}, {"type": "node", "id": 10300869539, "lat": 38.0964624, "lon": 15.6471374, "tags": {"access": "yes", "amenity": "charging_station", "capacity": "22", "name": "Enel X", "operator": "Enel X"}}, {"type": "node", "id": 10770203671, "lat": 38.1415781, "lon": 15.6575596, "tags": {"access": "yes", "amenity": "charging_station", "brand": "enel X Way", "capacity": "22", "fee": "yes", "operator": "enel X Way"}}, {"type": "node", "id": 10862580320, "lat": 38.0935472, "lon": 15.6312045, "tags": {"access": "yes", "amenity": "charging_station", "brand": "Pradella Sistemi srl", "fee": "no", "name": "Charge Point - PradellaSistemi", "operator": "Pradella Sistemi srl"}}, {"type": "node", "id": 10862580354, "lat": 38.0949, "lon": 15.633, "tags": {"access": "yes", "amenity": "charging_station", "brand": "Pradella Sistemi srl", "fee": "no", "name": "Charge Point - Pradella Sistemi", "operator": "Pradella Sistemi srl"}}, {"type": "node", "id": 10862580755, "lat": 38.0942, "lon": 15.6333, "tags": {"access": "yes", "amenity": "charging_station", "brand": "Pradella Sistemi srl", "fee": "no", "name": "Charge Point - Pradella Sistemi", "operator": "Pradella Sistemi srl"}}, {"type": "node", "id": 10926275224, "lat": 38.2684654, "lon": 15.6511724, "tags": {"amenity": "charging_station", "motorcar": "yes", "socket:type2": "2"}}, {"type": "node", "id": 11190585760, "lat": 38.1929499, "lon": 15.5550797, "tags": {"amenity": "charging_station", "capacity": "2", "name": "Duferco"}}, {"type": "node", "id": 11285833572, "lat": 38.2534497, "lon": 15.7134401, "tags": {"access": "yes", "amenity": "charging_station", "amperage": "16", "authentication:none": "yes", "bicycle": "yes", "capacity": "4", "colour": "green", "covered": "no", "fee": "no", "manufacturer": "Clorofilla bike", "opening_hours": "24/7", "survey:date": "2023-10-28", "voltage": "230"}}, {"type": "node", "id": 11285833654, "lat": 38.2534794, "lon": 15.7134677, "tags": {"access": "yes", "amenity": "charging_station", "capacity": "2", "fee": "yes", "motorcar": "yes", "opening_hours": "24/7", "operator": "Mercedes-Benz", "operator:wikidata": "Q36008", "survey:date": "2023-10-28"}}, {"type": "node", "id": 11431785709, "lat": 38.2182361, "lon": 15.5654165, "tags": {"amenity": "charging_station", "brand": "Enel X", "fee": "yes", "motorcar": "yes", "name": "Enel X", "opening_hours": "24/7", "operator": "Enel X", "operator:wikidata": "Q5376815"}}, {"type": "node", "id": 11431785711, "lat": 38.2182539, "lon": 15.565341, "tags": {"amenity": "charging_station", "brand": "Enel X", "fee": "yes", "motorcar": "yes", "name": "Enel X", "opening_hours": "24/7", "operator": "Enel X", "operator:wikidata": "Q5376815"}}, {"type": "node", "id": 11515797866, "lat": 37.9992526, "lon": 15.4192373, "tags": {"amenity": "charging_station", "brand": "Enel X", "capacity": "2", "fee": "yes", "motorcar": "yes", "name": "Enel X", "opening_hours": "24/7", "operator": "Enel X", "operator:wikidata": "Q5376815"}}, {"type": "node", "id": 11700295920, "lat": 38.0909787, "lon": 15.5029749, "tags": {"amenity": "charging_station", "capacity": "2", "fee": "yes", "motorcar": "yes", "name": "Enel X Way", "opening_hours": "24/7", "operator": "Enel X Way"}}, {"type": "node", "id": 11700295921, "lat": 38.0910443, "lon": 15.5030168, "tags": {"amenity": "charging_station", "capacity": "2", "fee": "yes", "motorcar": "yes", "name": "Enel X Way", "opening_hours": "24/7", "operator": "Enel X Way"}}, {"type": "node", "id": 11700398721, "lat": 38.1692677, "lon": 15.544954, "tags": {"amenity": "charging_station", "capacity": "2", "fee": "yes", "motorcar": "yes", "name": "Enel X Way", "opening_hours": "24/7", "operator": "Enel X Way"}}, {"type": "node", "id": 11700398722, "lat": 38.1691915, "lon": 15.5448856, "tags": {"amenity": "charging_station", "capacity": "2", "fee": "yes", "motorcar": "yes", "name": "Enel X Way", "opening_hours": "24/7", "operator": "Enel X Way"}}, {"type": "node", "id": 11700412343, "lat": 38.2013715, "lon": 15.5588033, "tags": {"amenity": "charging_station", "capacity": "2", "fee": "yes", "motorcar": "yes", "name": "Enel X Way", "opening_hours": "24/7", "operator": "Enel X Way"}}, {"type": "node", "id": 11700502452, "lat": 38.2138016, "lon": 15.5626537, "tags": {"amenity": "charging_station", "capacity": "2", "operator": "Be Charge", "operator:wikidata": "Q113289535"}}, {"type": "node", "id": 11700649449, "lat": 38.27156, "lon": 15.6254465, "tags": {"amenity": "charging_station", "capacity": "2", "operator": "Be Charge", "operator:wikidata": "Q113289535"}}, {"type": "node", "id": 11703976462, "lat": 38.2261775, "lon": 15.5682225, "tags": {"amenity": "charging_station", "capacity": "2", "operator": "Joinon"}}, {"type": "node", "id": 11704037578, "lat": 38.2068744, "lon": 15.5612657, "tags": {"amenity": "charging_station", "capacity": "2", "fee": "yes", "motorcar": "yes", "name": "Enel X Way", "opening_hours": "24/7", "operator": "Enel X Way"}}, {"type": "node", "id": 11704037579, "lat": 38.2070223, "lon": 15.5613044, "tags": {"amenity": "charging_station", "capacity": "2", "fee": "yes", "motorcar": "yes", "name": "Enel X Way", "opening_hours": "24/7", "operator": "Enel X Way"}}, {"type": "node", "id": 11704037580, "lat": 38.2069239, "lon": 15.5612774, "tags": {"amenity": "charging_station", "capacity": "2", "fee": "yes", "motorcar": "yes", "name": "Enel X Way", "opening_hours": "24/7", "operator": "Enel X Way"}}, {"type": "node", "id": 11704037581, "lat": 38.2069723, "lon": 15.5612888, "tags": {"amenity": "charging_station", "capacity": "2", "fee": "yes", "motorcar": "yes", "name": "Enel X Way", "opening_hours": "24/7", "operator": "Enel X Way"}}, {"type": "node", "id": 11705294517, "lat": 38.2534544, "lon": 15.7155365, "tags": {"amenity": "charging_station", "capacity": "1"}}, {"type": "node", "id": 11708181704, "lat": 38.3103344, "lon": 15.840739, "tags": {"amenity": "charging_station", "brand": "Enel X", "brand:wikidata": "Q5376815", "capacity": "2", "fee": "yes", "motorcar": "yes", "name": "Enel X Way", "opening_hours": "24/7", "operator": "Enel X", "operator:wikidata": "Q5376815"}}, {"type": "node", "id": 11818066963, "lat": 38.0948204, "lon": 15.652499, "tags": {"access": "yes", "amenity": "charging_station", "brand": "IIS Ferrari Da Empoli", "fee": "no", "operator": "GaraGeeks", "socket:device:USB-A": "4", "socket:device:qi-wireless": "2", "source": "survey"}}, {"type": "node", "id": 11818341062, "lat": 38.0946866, "lon": 15.6520447, "tags": {"access": "yes", "amenity": "charging_station", "bicycle": "yes", "brand": "IIS FERRARIS EMPOLI", "fee": "no", "operator": "GaraGeeks", "socket:typee": "8", "source": "survey"}}, {"type": "node", "id": 11821463688, "lat": 37.9450196, "lon": 15.7056603, "tags": {"access": "yes", "amenity": "charging_station", "brand": "Comune di Montebello Jonico", "fee": "no", "operator": "GaraGeeks", "socket:device:USB-A": "4", "socket:device:qi-wireless": "1", "source": "survey"}}, {"type": "node", "id": 12222088901, "lat": 38.1055602, "lon": 15.6441641, "tags": {"amenity": "charging_station"}}, {"type": "node", "id": 12223012301, "lat": 38.1030435, "lon": 15.6419288, "tags": {"amenity": "charging_station"}}]}