{"version": 0.6, "generator": "Overpass API 0.7.62.1 084b4234", "osm3s": {"timestamp_osm_base": "2024-11-20T16:40:00Z", "copyright": "The data included in this document is from www.openstreetmap.org. The data is made available under ODbL."}, "elements": [{"type": "node", "id": 2468994997, "lat": 41.0490112, "lon": 14.3230794}, {"type": "node", "id": 2468995002, "lat": 41.0490298, "lon": 14.3232633}, {"type": "node", "id": 2468995003, "lat": 41.0491039, "lon": 14.3230628}, {"type": "node", "id": 2468995006, "lat": 41.0491225, "lon": 14.3232468}, {"type": "node", "id": 5207387194, "lat": 41.0030597, "lon": 14.3295655, "tags": {"access": "yes", "amenity": "charging_station", "brand": "Tesla, Inc.", "brand:wikidata": "Q478214", "capacity": "2", "name": "Tesla Charger", "old_name": "Enel X", "operator": "Centro Commerciale Campania", "short_name": "Tesla"}}, {"type": "node", "id": 5207406985, "lat": 41.0684352, "lon": 14.3226379, "tags": {"amenity": "charging_station", "brand": "Enel", "brand:wikidata": "Q651222", "brand:wikipedia": "en:Enel", "capacity": "2", "name": "Enel", "operator": "Enel", "operator:wikidata": "Q651222", "operator:wikipedia": "en:Enel"}}, {"type": "node", "id": 5207407511, "lat": 41.0737295, "lon": 14.2969462, "tags": {"access": "no", "amenity": "charging_station", "brand": "Enel", "brand:wikidata": "Q651222", "brand:wikipedia": "en:Enel", "capacity": "2", "disused": "yes", "disused:amenity": "charging_station", "name": "Renault Charging", "operator": "Renault", "operator:wikidata": "Q6686"}}, {"type": "node", "id": 7843833930, "lat": 41.0946097, "lon": 14.4918831, "tags": {"access": "yes", "amenity": "charging_station", "brand": "Enel X", "brand:wikidata": "Q5376815", "brand:wikipedia": "en:Enel", "capacity": "1", "name": "Enel X", "operator": "Enel X", "operator:wikidata": "Q5376815", "operator:wikipedia": "en:Enel"}}, {"type": "node", "id": 8300206537, "lat": 41.0436594, "lon": 14.3655611, "tags": {"access": "yes", "amenity": "charging_station", "brand": "Enel X", "brand:wikidata": "Q5376815", "brand:wikipedia": "en:Enel X", "capacity": "4", "name": "Enel X", "operator": "Enel X", "operator:wikidata": "Q5376815", "operator:wikipedia": "en:Enel X"}}, {"type": "node", "id": 8300206561, "lat": 41.0280601, "lon": 14.3740241, "tags": {"access": "yes", "amenity": "charging_station", "brand": "Enel X", "brand:wikidata": "Q5376815", "brand:wikipedia": "en:Enel X", "capacity": "2", "name": "Enel X", "operator": "Enel X", "operator:wikidata": "Q5376815", "operator:wikipedia": "en:Enel X"}}, {"type": "node", "id": 8341713308, "lat": 41.0892418, "lon": 14.4975561, "tags": {"access": "yes", "amenity": "charging_station", "brand": "Enel X", "brand:wikidata": "Q5376815", "brand:wikipedia": "en:Enel", "capacity": "2", "name": "Enel X Way", "operator": "Enel X", "operator:wikidata": "Q5376815", "operator:wikipedia": "en:Enel"}}, {"type": "node", "id": 8375207257, "lat": 41.0736299, "lon": 14.3448176, "tags": {"amenity": "charging_station", "brand": "Enel X", "brand:wikidata": "Q5376815", "brand:wikipedia": "en:Enel X", "capacity": "2", "name": "Enel X", "operator": "Enel X", "operator:wikidata": "Q5376815", "operator:wikipedia": "en:Enel X"}}, {"type": "node", "id": 8421513530, "lat": 41.2666213, "lon": 14.507623, "tags": {"amenity": "charging_station", "brand": "Enel", "brand:wikidata": "Q651222", "brand:wikipedia": "en:Enel", "capacity": "2", "description": "Tipo 2\n\u00b7 22.1 kW\nTotali 1\n\nConnettore sconosciuto\n\u00b7 11 kW\nTotali 1", "name": "ENEL Charging Station", "operator": "Enel", "operator:wikidata": "Q651222"}}, {"type": "node", "id": 8632474460, "lat": 41.2851263, "lon": 14.5565453, "tags": {"amenity": "charging_station", "brand": "Enel X", "brand:wikidata": "Q5376815", "brand:wikipedia": "en:Enel", "name": "Enel X", "operator": "Enel X", "operator:wikidata": "Q5376815"}}, {"type": "node", "id": 8632474473, "lat": 41.2884989, "lon": 14.565688, "tags": {"amenity": "charging_station", "brand": "Enel", "brand:wikidata": "Q651222", "brand:wikipedia": "en:Enel", "name": "Enel X"}}, {"type": "node", "id": 8757901849, "lat": 41.0882959, "lon": 14.501213, "tags": {"amenity": "charging_station", "brand": "Enel X", "brand:wikidata": "Q5376815", "brand:wikipedia": "en:Enel", "capacity": "2", "name": "Enel X Charging Station", "operator": "Enel X", "operator:wikidata": "Q5376815", "operator:wikipedia": "en:Enel"}}, {"type": "node", "id": 8812261909, "lat": 41.0669238, "lon": 14.328254, "tags": {"addr:city": "Caserta", "addr:street": "Viale della Libert\u00e0", "amenity": "charging_station", "brand": "Enel X", "brand:wikidata": "Q5376815", "brand:wikipedia": "en:Enel", "name": "Enel X Way", "operator": "Enel X", "operator:wikidata": "Q5376815", "operator:wikipedia": "en:Enel"}}, {"type": "node", "id": 8838883895, "lat": 41.1309603, "lon": 14.4108939, "tags": {"access": "yes", "amenity": "charging_station", "capacity": "4", "name": "Mooby Stazione di Ricarica"}}, {"type": "node", "id": 8913233466, "lat": 41.0152364, "lon": 14.3295064, "tags": {"amenity": "charging_station", "brand": "Enel", "brand:wikidata": "Q651222", "brand:wikipedia": "en:Enel", "capacity": "2", "name": "Enel", "operator": "Enel", "operator:wikidata": "Q651222", "operator:wikipedia": "en:Enel"}}, {"type": "node", "id": 8997146198, "lat": 41.0797895, "lon": 14.3521732, "tags": {"amenity": "charging_station", "brand": "Enel X", "brand:wikidata": "Q5376815", "brand:wikipedia": "en:Enel X", "capacity": "1", "name": "Enel X", "operator": "Enel X", "operator:wikidata": "Q5376815", "operator:wikipedia": "en:Enel X"}}, {"type": "node", "id": 9025007183, "lat": 41.0664396, "lon": 14.3437023, "tags": {"amenity": "charging_station", "brand": "Enel X", "brand:wikidata": "Q5376815", "brand:wikipedia": "en:Enel X", "capacity": "2", "name": "Enel X", "operator": "Enel X", "operator:wikidata": "Q5376815", "operator:wikipedia": "en:Enel X"}}, {"type": "node", "id": 9025007897, "lat": 41.0801833, "lon": 14.3412188, "tags": {"access": "yes", "amenity": "charging_station", "brand": "Enel X", "brand:wikidata": "Q5376815", "brand:wikipedia": "en:Enel X", "name": "Enel X", "operator": "Enel X", "operator:wikidata": "Q5376815", "operator:wikipedia": "en:Enel X"}}, {"type": "node", "id": 9032489686, "lat": 41.2191251, "lon": 14.5187438, "tags": {"amenity": "charging_station", "brand": "Enel X", "brand:wikidata": "Q5376815", "brand:wikipedia": "en:Enel X", "name": "Enel X", "operator": "Enel X", "operator:wikidata": "Q5376815", "operator:wikipedia": "en:Enel X"}}, {"type": "node", "id": 9183423394, "lat": 41.0370571, "lon": 14.3802874, "tags": {"access": "yes", "amenity": "charging_station", "branch": "Maddaloni via Caudina", "brand": "Eni Be Charge", "capacity": "25 kW", "fee": "yes", "name": "Be Charge", "operator": "Be Charge", "operator:wikidata": "Q113289535", "payment:cards": "yes"}}, {"type": "node", "id": 9201168676, "lat": 41.0083023, "lon": 14.3216466, "tags": {"access": "yes", "amenity": "charging_station", "brand": "Enel", "brand:wikidata": "Q651222", "brand:wikipedia": "en:Enel", "capacity": "2", "name": "Enel", "operator": "Enel", "operator:wikidata": "Q651222", "operator:wikipedia": "en:Enel"}}, {"type": "node", "id": 9231219926, "lat": 41.0769611, "lon": 14.3374212, "tags": {"access": "yes", "amenity": "charging_station", "brand": "Enel X", "brand:wikidata": "Q5376815", "brand:wikipedia": "en:Enel X", "capacity": "2", "name": "Enel X", "operator": "Enel X", "operator:wikidata": "Q5376815", "operator:wikipedia": "en:Enel X"}}, {"type": "node", "id": 9288534756, "lat": 41.0554414, "lon": 14.3416639, "tags": {"amenity": "charging_station", "brand": "Enel X", "brand:wikidata": "Q5376815", "brand:wikipedia": "en:Enel X", "name": "Enel X", "operator": "Enel X", "operator:wikidata": "Q5376815", "operator:wikipedia": "en:Enel X"}}, {"type": "node", "id": 9327738009, "lat": 41.0773469, "lon": 14.3001946, "tags": {"amenity": "charging_station", "capacity": "2", "name": "Innogy Charging Station"}}, {"type": "node", "id": 9380199359, "lat": 41.0955964, "lon": 14.2270314, "tags": {"amenity": "charging_station", "brand": "Enel X", "brand:wikidata": "Q5376815", "brand:wikipedia": "en:Enel X", "name": "Enel X", "operator": "Enel X", "operator:wikidata": "Q5376815", "operator:wikipedia": "en:Enel X"}}, {"type": "node", "id": 9442181501, "lat": 41.2200287, "lon": 14.534043, "tags": {"amenity": "charging_station", "brand": "Enel X", "brand:wikidata": "Q5376815", "brand:wikipedia": "en:Enel X", "name": "Enel X", "operator": "Enel X", "operator:wikidata": "Q5376815", "operator:wikipedia": "en:Enel X"}}, {"type": "node", "id": 9683817276, "lat": 41.0422246, "lon": 14.3250644, "tags": {"amenity": "charging_station", "name": "Stazione di ricarica UnicoGO", "operator": "Lidl", "operator:wikidata": "Q151954"}}, {"type": "node", "id": 9693579940, "lat": 41.0924499, "lon": 14.5001174, "tags": {"amenity": "charging_station", "brand": "Enel X", "brand:wikidata": "Q5376815", "name": "Enel X", "operator": "Enel X", "operator:wikidata": "Q5376815"}}, {"type": "node", "id": 9770179839, "lat": 41.0947945, "lon": 14.2535267, "tags": {"access": "no", "amenity": "charging_station", "condition": "working", "construction": "yes", "opening_hours": "closed", "operator": "Lidl", "operator:wikidata": "Q151954"}}, {"type": "node", "id": 9980608072, "lat": 41.0490678, "lon": 14.3231622, "tags": {"access": "yes", "amenity": "charging_station", "name": "Free To X", "source": "https://www.facebook.com/FreeToX/", "start_date": "2002-08-23"}}, {"type": "node", "id": 10095636793, "lat": 41.0876158, "lon": 14.2427942, "tags": {"access": "yes", "amenity": "charging_station", "capacity": "2"}}, {"type": "node", "id": 10873108703, "lat": 41.0786405, "lon": 14.3515409, "tags": {"access": "yes", "amenity": "charging_station", "brand": "Atlante", "capacity": "4", "covered": "no", "description": "Con Adattatore Tipo 1 e Tipo 2 (Tesla Charging)", "manufacturer": "General Electric", "name": "Atlante Energy", "opening_hours": "24/7", "operator": "Atlante S.r.l.", "start_date": "2023-03", "website": "https://atlante.energy"}}, {"type": "node", "id": 11105056960, "lat": 41.127289, "lon": 14.2530872, "tags": {"access": "yes", "amenity": "charging_station", "brand": "Mooby", "name": "Mooby"}}, {"type": "node", "id": 11375256409, "lat": 41.3277074, "lon": 14.687546, "tags": {"amenity": "charging_station"}}, {"type": "node", "id": 11391674375, "lat": 41.0761042, "lon": 14.4160261, "tags": {"amenity": "charging_station", "construction": "yes", "construction_date": "2024"}}, {"type": "node", "id": 11391674376, "lat": 41.0759718, "lon": 14.4158959, "tags": {"amenity": "charging_station", "construction": "yes", "construction_date": "2024"}}, {"type": "node", "id": 11622612833, "lat": 41.0646673, "lon": 14.4089074, "tags": {"access": "yes", "amenity": "charging_station", "brand": "Next Charge", "capacity": "2", "maxstay": "1 day", "name": "Next Charge - Variante Sannitica", "operator": "Next Charge", "website": "https://nextcharge.app/map?lang=it&station=OCPI-287-IT*MEC*PME00015&provider=MeCharge&location=41.064707,14.408889"}}, {"type": "node", "id": 11672710734, "lat": 41.0609957, "lon": 14.6342216, "tags": {"access": "yes", "amenity": "charging_station", "brand": "ZapGrid", "name": "ZapGrid Stazione di Ricarica"}}, {"type": "node", "id": 11672725374, "lat": 41.0631455, "lon": 14.6386445, "tags": {"access": "yes", "amenity": "charging_station", "brand": "Molinaro", "capacity": "1", "name": "Molinaro Energy"}}, {"type": "node", "id": 11748897605, "lat": 41.0693102, "lon": 14.3290468, "tags": {"amenity": "charging_station", "brand": "Enel X", "brand:wikidata": "Q5376815", "name": "Enel X", "operator": "Enel X", "operator:wikidata": "Q5376815"}}, {"type": "node", "id": 12137444113, "lat": 41.0801048, "lon": 14.3014591, "tags": {"access": "yes", "amenity": "charging_station", "brand": "Shell", "capacity": "2", "name": "Stazione di Ricarica Shell", "operator": "Shell", "operator:wikidata": "Q110716465"}}, {"type": "way", "id": 239086504, "nodes": [2468995003, 2468995006, 2468995002, 2468994997, 2468995003], "tags": {"amenity": "charging_station", "fee": "no", "hgv": "no", "motorcar": "designated", "parking": "surface"}}]}