{"version": 0.6, "generator": "Overpass API 0.7.62.1 084b4234", "osm3s": {"timestamp_osm_base": "2024-11-20T22:05:08Z", "copyright": "The data included in this document is from www.openstreetmap.org. The data is made available under ODbL."}, "elements": [{"type": "node", "id": 9072772076, "lat": 42.6363484, "lon": 8.9351284, "tags": {"access": "yes", "amenity": "charging_station", "capacity": "2"}}, {"type": "node", "id": 9081243318, "lat": 42.6045907, "lon": 8.9285065, "tags": {"amenity": "charging_station", "operator": "DriveEco"}}, {"type": "node", "id": 11109168883, "lat": 42.673079, "lon": 9.30191, "tags": {"amenity": "charging_station", "authentication:none": "true", "email": "contact@e-motum.net", "fee": "no", "network": "e-motum", "opening_hours": "24/7", "operator": "sas e-motum", "owner:ref:FR:SIREN": "752982645", "phone": "04 95 30 05 25", "ref": "ba5e516b-e37b-4cbd-9739-86be9084248a", "reservation": "no", "socket:type2_cable": "no", "socket:type2_combo": "yes", "start_date": "2022-06-22"}}, {"type": "node", "id": 11109168896, "lat": 42.6107488, "lon": 8.8894538, "tags": {"amenity": "charging_station", "authentication:none": "true", "email": "web@freshmile.com", "fee": "no", "network": "Freshmile", "opening_hours": "24/7", "operator": "Freshmile SAS", "phone": "0369246732", "ref": "EPVLVLOVWF", "reservation": "no", "socket:type2": "yes", "socket:type2_cable": "no", "socket:typee": "yes", "start_date": "2022-09-07"}}, {"type": "node", "id": 11109168900, "lat": 42.632429, "lon": 8.961906, "tags": {"amenity": "charging_station", "authentication:none": "true", "email": "contact@e-motum.net", "fee": "no", "network": "e-motum", "opening_hours": "24/7", "operator": "sas e-motum", "owner:ref:FR:SIREN": "752982645", "phone": "04 95 30 05 25", "ref": "0790a741-5825-4ddb-bae6-d6740ba4547e", "reservation": "no", "socket:type2": "yes", "socket:type2_cable": "no", "start_date": "2022-06-02"}}, {"type": "node", "id": 11109168902, "lat": 42.637722, "lon": 9.021637, "tags": {"amenity": "charging_station", "authentication:none": "true", "capacity": "4", "email": "contact@e-motum.net", "fee": "no", "network": "e-motum", "opening_hours": "24/7", "operator": "sas e-motum", "owner:ref:FR:SIREN": "752982645", "phone": "04 95 30 05 25", "ref": "0a91bd69-34a2-455d-b6b4-cb69691e05bc", "reservation": "no", "socket:type2_cable": "no", "socket:type2_combo": "yes", "start_date": "2021-12-13"}}, {"type": "node", "id": 12195180712, "lat": 42.6537903, "lon": 9.0668216, "tags": {"amenity": "charging_station", "capacity": "2", "operator": "Cahors E-Mobility"}}]}