{"version": 0.6, "generator": "Overpass API 0.7.62.1 084b4234", "osm3s": {"timestamp_osm_base": "2024-11-20T22:05:08Z", "copyright": "The data included in this document is from www.openstreetmap.org. The data is made available under ODbL."}, "elements": [{"type": "node", "id": 4277997935, "lat": 45.3894107, "lon": 8.130037, "tags": {"access": "customers", "amenity": "charging_station", "brand": "Tesla Supercharger", "brand:wikidata": "Q17089620", "capacity": "8", "fee": "yes", "motorcar": "yes", "name": "Cavagli\u00e0 Supercharger", "opening_hours": "24/7", "operator": "Tesla, Inc.", "operator:wikidata": "Q478214", "operator:wikipedia": "en:Tesla, Inc.", "short_name": "Tesla", "socket:tesla_supercharger": "8", "socket:tesla_supercharger:output": "150 kW", "socket:tesla_supercharger_ccs": "8", "socket:tesla_supercharger_ccs:output": "150 kW", "website": "https://www.tesla.com/findus/location/supercharger/cavagliasupercharger"}}, {"type": "node", "id": 5787662100, "lat": 45.3559602, "lon": 8.4643611, "tags": {"amenity": "charging_station", "amperage": "32A", "authentication:nfc": "yes", "socket:type2": "1"}}, {"type": "node", "id": 5845969839, "lat": 45.3655153, "lon": 8.17036, "tags": {"amenity": "charging_station", "brand": "Enel X", "capacity": "2", "not:operator:wikidata": "Q5376815", "operator": "Enel X"}}, {"type": "node", "id": 5939376887, "lat": 45.313438, "lon": 8.4235529, "tags": {"amenity": "charging_station", "capacity": "2", "operator": "IrenGo", "start_date": "2018"}}, {"type": "node", "id": 5939380760, "lat": 45.321693, "lon": 8.4266423, "tags": {"amenity": "charging_station", "brand": "IrenGo", "capacity": "2", "operator": "Iren"}}, {"type": "node", "id": 5939381636, "lat": 45.3238143, "lon": 8.4230597, "tags": {"amenity": "charging_station", "brand": "IrenGo", "capacity": "2", "operator": "Iren"}}, {"type": "node", "id": 6030283638, "lat": 45.3289924, "lon": 8.4164913, "tags": {"amenity": "charging_station", "capacity": "2", "operator": "IrenGo"}}, {"type": "node", "id": 6030293325, "lat": 45.3232033, "lon": 8.4152584, "tags": {"amenity": "charging_station", "capacity": "2", "operator": "IrenGo"}}, {"type": "node", "id": 6517624468, "lat": 45.5541641, "lon": 8.0254412, "tags": {"amenity": "charging_station", "brand": "Enel X", "brand:wikidata": "Q5376815", "capacity": "2", "motorcar": "yes", "name": "Enel X", "operator": "Enel X", "operator:wikidata": "Q5376815"}}, {"type": "node", "id": 6517624469, "lat": 45.555291, "lon": 8.0216808, "tags": {"amenity": "charging_station", "brand": "Enel X", "brand:wikidata": "Q5376815", "capacity": "1", "motorcar": "yes", "name": "Enel X", "operator": "Enel X", "operator:wikidata": "Q5376815"}}, {"type": "node", "id": 6517624470, "lat": 45.5541604, "lon": 8.0199239, "tags": {"amenity": "charging_station", "amperage": "63", "authentication:membership_card": "yes", "brand": "Enel X", "brand:wikidata": "Q5376815", "capacity": "1", "fee": "yes", "motorcar": "yes", "name": "Enel X", "opening_hours": "24/7", "operator": "Enel X", "operator:wikidata": "Q5376815", "ref": "19XP22T3KK4AH00375", "socket:type2": "2", "voltage": "400"}}, {"type": "node", "id": 6517624471, "lat": 45.5476797, "lon": 8.0143734, "tags": {"amenity": "charging_station", "brand": "Enel X", "brand:wikidata": "Q5376815", "capacity": "2", "motorcar": "yes", "name": "Enel X", "operator": "Enel X", "operator:wikidata": "Q5376815"}}, {"type": "node", "id": 6543043421, "lat": 45.6123925, "lon": 8.4085652, "tags": {"amenity": "charging_station", "brand": "Enel X", "brand:wikidata": "Q5376815", "brand:wikipedia": "en:Enel", "capacity": "2", "description": "Colonnina appena installata e collocata nei pressi dell'ingresso autostradale.", "fee": "yes", "name": "Enel", "operator": "Enel X", "operator:wikidata": "Q5376815"}}, {"type": "node", "id": 6568064982, "lat": 45.6109196, "lon": 8.368691, "tags": {"access": "yes", "amenity": "charging_station", "brand": "Enel X", "brand:wikidata": "Q5376815", "brand:wikipedia": "en:Enel", "fee": "yes", "name": "Enel", "operator": "Enel X", "operator:wikidata": "Q5376815", "ref": "18XP22T5AB1U000038"}}, {"type": "node", "id": 6568064984, "lat": 45.6175696, "lon": 8.3700511, "tags": {"amenity": "charging_station", "brand": "Enel X", "brand:wikidata": "Q5376815", "brand:wikipedia": "en:Enel", "capacity": "2", "fee": "yes", "name": "Enel", "operator": "Enel X", "operator:wikidata": "Q5376815", "ref": "18XP22T3BB1U000014"}}, {"type": "node", "id": 6568122010, "lat": 45.5332916, "lon": 8.4157888, "tags": {"access": "yes", "amenity": "charging_station", "brand": "Enel X", "brand:wikidata": "Q5376815", "brand:wikipedia": "en:Enel X", "capacity": "2", "fee": "yes", "name": "Enel", "operator": "Enel X", "operator:wikidata": "Q5376815", "operator:wikipedia": "en:Enel X", "ref": "18XP22T5LB4U000093"}}, {"type": "node", "id": 6568122011, "lat": 45.5363673, "lon": 8.4219429, "tags": {"access": "yes", "amenity": "charging_station", "brand": "Enel X", "brand:wikidata": "Q5376815", "brand:wikipedia": "en:Enel", "capacity": "2", "fee": "yes", "name": "Enel", "operator": "Enel X", "operator:wikidata": "Q5376815", "ref": "18XP22T3BB4U000117"}}, {"type": "node", "id": 6568122012, "lat": 45.5330043, "lon": 8.4196645, "tags": {"access": "yes", "amenity": "charging_station", "brand": "Enel X", "brand:wikidata": "Q5376815", "brand:wikipedia": "en:Enel X", "capacity": "2", "fee": "yes", "name": "Enel", "operator": "Enel X", "operator:wikidata": "Q5376815", "operator:wikipedia": "en:Enel X", "ref": "18XP22T5LB4U000091"}}, {"type": "node", "id": 6568127697, "lat": 45.529055, "lon": 8.4169218, "tags": {"access": "yes", "amenity": "charging_station", "brand": "Enel X", "brand:wikidata": "Q5376815", "brand:wikipedia": "en:Enel X", "capacity": "2", "fee": "yes", "name": "Enel", "operator": "Enel X", "operator:wikidata": "Q5376815", "operator:wikipedia": "en:Enel X", "ref": "18XP22T3BB4U000118"}}, {"type": "node", "id": 6568149183, "lat": 45.4599619, "lon": 8.4364305, "tags": {"access": "yes", "amenity": "charging_station", "brand": "Enel X", "brand:wikidata": "Q5376815", "brand:wikipedia": "en:Enel", "capacity": "2", "fee": "yes", "name": "Enel", "operator": "Enel X", "operator:wikidata": "Q5376815", "ref": "18XP22T5AB5U000348"}}, {"type": "node", "id": 6568163795, "lat": 45.4592812, "lon": 8.431337, "tags": {"access": "yes", "amenity": "charging_station", "brand": "Enel X", "brand:wikidata": "Q5376815", "brand:wikipedia": "en:Enel X", "capacity": "2", "fee": "yes", "name": "Enel", "operator": "Enel X", "operator:wikidata": "Q5376815", "operator:wikipedia": "en:Enel X", "ref": "18XP22T3BB5U000411"}}, {"type": "node", "id": 6839482954, "lat": 45.3248122, "lon": 8.3952317, "tags": {"amenity": "charging_station", "brand": "IrenGo", "capacity": "4", "description": "Stazione di ricarica per auto elettriche appena installata.", "operator": "Iren"}}, {"type": "node", "id": 6919646120, "lat": 45.3228479, "lon": 8.3918553, "tags": {"amenity": "charging_station", "brand": "Euronics", "capacity": "2", "operator": "Iren"}}, {"type": "node", "id": 7040770550, "lat": 45.4565633, "lon": 8.4438451, "tags": {"access": "yes", "amenity": "charging_station", "brand": "Enel", "brand:wikidata": "Q651222", "brand:wikipedia": "en:Enel", "capacity": "2", "description": "Colonnina elettrica disponibile nei primi giorni del 2020. Il modello di colonnina \u00e8 JuicePump.", "name": "Enel", "note": "Posizione approssimata", "operator": "Enel", "operator:wikidata": "Q651222"}}, {"type": "node", "id": 7252865930, "lat": 45.4240147, "lon": 8.0585213, "tags": {"amenity": "charging_station", "brand": "Enel", "brand:wikidata": "Q651222", "name": "Enel", "operator": "Enel", "operator:wikidata": "Q651222"}}, {"type": "node", "id": 7533883132, "lat": 45.3337667, "lon": 8.4168911, "tags": {"access": "yes", "amenity": "charging_station", "brand": "Enel", "brand:wikidata": "Q651222", "brand:wikipedia": "en:Enel", "capacity": "2", "name": "Enel", "operator": "Enel", "operator:wikidata": "Q651222"}}, {"type": "node", "id": 7599488824, "lat": 45.5735397, "lon": 8.4399049, "tags": {"access": "yes", "amenity": "charging_station", "capacity": "4", "description": "Qui il link che descrive la recente installazione: https://notiziaoggi.it/attualita/sizzano-colonnine-per-fare-il-pieno-alle-auto-elettriche/", "name": "Be Charge", "operator": "Be Charge", "operator:wikidata": "Q113289535"}}, {"type": "node", "id": 7998160817, "lat": 45.4981204, "lon": 8.4226835, "tags": {"amenity": "charging_station", "brand": "Enel X", "brand:wikidata": "Q5376815", "brand:wikipedia": "en:Enel X", "name": "Enel X", "operator": "Enel X", "operator:wikidata": "Q5376815", "operator:wikipedia": "en:Enel X"}}, {"type": "node", "id": 8033503590, "lat": 45.456906, "lon": 8.2807222, "tags": {"amenity": "charging_station", "brand": "Enel X", "brand:wikidata": "Q5376815", "brand:wikipedia": "en:Enel X", "name": "Enel X", "operator": "Enel X", "operator:wikidata": "Q5376815", "operator:wikipedia": "en:Enel X"}}, {"type": "node", "id": 8045238924, "lat": 45.4971766, "lon": 8.4229758, "tags": {"amenity": "charging_station", "brand": "Enel X", "brand:wikidata": "Q5376815", "name": "Enel X", "operator": "Enel X", "operator:wikidata": "Q5376815"}}, {"type": "node", "id": 8406161607, "lat": 45.6238727, "lon": 8.3988666, "tags": {"amenity": "charging_station"}}, {"type": "node", "id": 8603202202, "lat": 45.5817822, "lon": 8.0986539, "tags": {"access": "yes", "amenity": "charging_station", "brand": "Enel X", "brand:wikidata": "Q5376815", "capacity": "2", "name": "Enel X", "operator": "Enel X", "operator:wikidata": "Q5376815"}}, {"type": "node", "id": 8715368250, "lat": 45.3248115, "lon": 8.392188, "tags": {"amenity": "charging_station", "capacity": "2", "operator": "JOINON"}}, {"type": "node", "id": 8715368251, "lat": 45.324794, "lon": 8.3921873, "tags": {"amenity": "charging_station", "capacity": "2", "operator": "JOINON"}}, {"type": "node", "id": 8778469207, "lat": 45.3991011, "lon": 8.4600973, "tags": {"amenity": "charging_station", "brand": "Enel", "brand:wikidata": "Q651222", "name": "Enel", "operator": "Enel", "operator:wikidata": "Q651222", "ref": "19XP22T3KK4AH00389"}}, {"type": "node", "id": 8778544067, "lat": 45.3995524, "lon": 8.4624841, "tags": {"access": "yes", "amenity": "charging_station", "brand": "Enel X", "brand:wikidata": "Q5376815", "fee": "yes", "name": "Enel", "operator": "Enel X", "operator:wikidata": "Q5376815", "ref": "19XP22T3KK4AH00372"}}, {"type": "node", "id": 8806724632, "lat": 45.3180895, "lon": 8.0299438, "tags": {"amenity": "charging_station", "authentication:membership_card": "yes", "authentication:nfc": "yes", "brand": "Enel X", "brand:wikidata": "Q5376815", "capacity": "3", "fee": "yes", "motorcar": "yes", "name": "Briko Novax", "opening_hours": "24/7", "operator": "Enel X", "operator:wikidata": "Q5376815", "socket:chademo": "1"}}, {"type": "node", "id": 9219914940, "lat": 45.3648708, "lon": 8.169878, "tags": {"amenity": "charging_station", "brand": "Lidl", "capacity": "2", "not:operator:wikidata": "Q5376815", "operator": "Lidl", "operator:wikidata": "Q151954"}}, {"type": "node", "id": 9240395206, "lat": 45.5121123, "lon": 8.2174644, "tags": {"access": "customers", "amenity": "charging_station", "capacity": "1"}}, {"type": "node", "id": 9330138465, "lat": 45.2949225, "lon": 8.3932364, "tags": {"amenity": "charging_station", "capacity": "2"}}, {"type": "node", "id": 9382903940, "lat": 45.3205732, "lon": 8.3926994, "tags": {"amenity": "charging_station", "capacity": "4", "operator": "Be Charge", "operator:wikidata": "Q113289535"}}, {"type": "node", "id": 9428582566, "lat": 45.4553674, "lon": 8.2808221, "tags": {"amenity": "charging_station", "brand": "Enel X", "capacity": "2"}}, {"type": "node", "id": 9862219291, "lat": 45.5193253, "lon": 8.2248948, "tags": {"access": "yes", "amenity": "charging_station", "name": "Be Charge", "operator": "Be Charge", "operator:wikidata": "Q113289535", "source": "https://primabiella.it/attualita/castelletto-cervo-attivate-due-nuove-colonnine-di-ricarica-per-auto-elettriche/"}}, {"type": "node", "id": 9960902713, "lat": 45.5430207, "lon": 8.0707639, "tags": {"amenity": "charging_station", "bicycle": "yes", "network": "DINAclub", "operator": "Repower", "operator:wikidata": "Q674712", "operator:wikipedia": "it:Repower", "website": "https://www.repower.com/it/dina/"}}, {"type": "node", "id": 9964752722, "lat": 45.434494, "lon": 8.0240113, "tags": {"amenity": "charging_station", "bicycle": "yes", "network": "DINAclub", "operator": "Repower", "operator:wikidata": "Q674712", "operator:wikipedia": "it:Repower", "website": "https://www.repower.com/it/dina/"}}, {"type": "node", "id": 9970941412, "lat": 45.5140432, "lon": 8.2032631, "tags": {"amenity": "charging_station", "bicycle": "yes", "network": "DINAclub", "operator": "Repower", "operator:wikidata": "Q674712", "operator:wikipedia": "it:Repower", "website": "https://www.repower.com/it/dina/"}}, {"type": "node", "id": 10059101112, "lat": 45.3337521, "lon": 8.4168212, "tags": {"access": "yes", "amenity": "charging_station", "brand": "Enel", "brand:wikidata": "Q651222", "brand:wikipedia": "en:Enel", "capacity": "2", "name": "Enel", "operator": "Enel", "operator:wikidata": "Q651222"}}, {"type": "node", "id": 10586415443, "lat": 45.5824572, "lon": 8.1005402, "tags": {"amenity": "charging_station"}}, {"type": "node", "id": 10777587274, "lat": 45.3887728, "lon": 8.1292242, "tags": {"access": "yes", "amenity": "charging_station", "brand": "Ionity", "brand:wikidata": "Q42717773", "capacity": "12", "fee": "yes", "name": "Ionity Cavagli\u00e0", "network": "Ionity", "opening_hours": "24/7", "operator": "Ionity", "socket:type2_combo": "12", "socket:type2_combo:output": "350 kW"}}, {"type": "node", "id": 11013740579, "lat": 45.5239544, "lon": 7.8345649, "tags": {"amenity": "charging_station", "operator": "edison"}}, {"type": "node", "id": 11035565206, "lat": 45.4918519, "lon": 8.1644748, "tags": {"amenity": "charging_station", "brand": "Eni Plenitude;Be Charge"}}, {"type": "node", "id": 11049383870, "lat": 45.1894566, "lon": 7.8778625, "tags": {"amenity": "charging_station", "brand": "Enel X", "brand:wikidata": "Q5376815", "name": "Enel X Way", "operator": "Enel X", "operator:wikidata": "Q5376815"}}, {"type": "node", "id": 11049396964, "lat": 45.3496171, "lon": 8.2505546, "tags": {"amenity": "charging_station", "capacity": "2", "name": "plenitude + becharge"}}, {"type": "node", "id": 11204165938, "lat": 45.5986545, "lon": 8.0071374, "tags": {"access": "yes", "amenity": "charging_station", "bicycle": "yes", "capacity": "2", "network": "DINAclub", "operator": "Repower", "operator:wikidata": "Q674712", "operator:wikipedia": "it:Repower", "socket:schuko": "2", "voltage": "230", "website": "https://www.repower.com/it/dina/"}}, {"type": "node", "id": 11698259080, "lat": 45.4559335, "lon": 8.3482544, "tags": {"access": "yes", "amenity": "charging_station", "brand": "Enel X", "brand:wikidata": "Q5376815", "capacity": "2", "fee": "yes", "name": "Enel X", "operator": "Enel X", "operator:wikidata": "Q5376815", "payment:app": "yes"}}, {"type": "node", "id": 11700675373, "lat": 45.241753, "lon": 7.9740115, "tags": {"access": "yes", "amenity": "charging_station", "brand": "Enel", "brand:wikidata": "Q651222", "capacity": "2", "fee": "yes", "name": "Enel X", "not:operator:wikidata": "Q5376815", "operator": "Enel", "operator:wikidata": "Q651222", "payment:app": "yes"}}, {"type": "node", "id": 11809422795, "lat": 45.324013, "lon": 8.0883994, "tags": {"access": "yes", "amenity": "charging_station", "brand": "Soland", "charge": "0,17 EUR", "covered": "yes", "fee": "yes", "operator": "Soland", "source": "https://www.soland.it/colonnina-fast-charger/", "start_date": "2024-01-22"}}, {"type": "node", "id": 11821443534, "lat": 45.1937395, "lon": 8.1923368, "tags": {"access": "yes", "amenity": "charging_station", "brand": "Comune di Fontanetto Po", "fee": "no", "operator": "GaraGeeks", "socket:device:USB-A": "4", "socket:device:qi-wireless": "1", "source": "survey"}}, {"type": "node", "id": 11834594123, "lat": 45.5647434, "lon": 8.0911023, "tags": {"amenity": "charging_station", "capacity": "2", "name": "Becharge", "operator": "Becharge"}}, {"type": "node", "id": 11871389849, "lat": 45.5655117, "lon": 8.094452, "tags": {"amenity": "charging_station", "brand": "Enel X", "brand:wikidata": "Q5376815", "capacity": "2", "name": "Enel X", "operator": "Enel X", "operator:wikidata": "Q5376815"}}, {"type": "node", "id": 11871401189, "lat": 45.5618582, "lon": 8.1129634, "tags": {"amenity": "charging_station", "brand": "Enel X", "brand:wikidata": "Q5376815", "capacity": "4", "name": "Be Charge", "operator": "Be Charge", "operator:wikidata": "Q113289535"}}, {"type": "node", "id": 11880615574, "lat": 45.5480881, "lon": 8.1095282, "tags": {"amenity": "charging_station", "capacity": "4", "name": "Be Charge"}}, {"type": "node", "id": 11898077032, "lat": 45.5485512, "lon": 8.0793632, "tags": {"amenity": "charging_station", "capacity": "6", "name": "Atlante"}}, {"type": "node", "id": 11898099018, "lat": 45.5485512, "lon": 8.0793632, "tags": {"amenity": "charging_station", "capacity": "6", "name": "Atlante"}}, {"type": "node", "id": 12112292579, "lat": 45.3864727, "lon": 8.4335206, "tags": {"amenity": "charging_station", "capacity": "2", "operator": "Be Charge", "operator:wikidata": "Q113289535"}}, {"type": "node", "id": 12213776641, "lat": 45.3707193, "lon": 8.1759957, "tags": {"amenity": "charging_station", "capacity": "2", "operator": "Be Charge", "operator:wikidata": "Q113289535"}}, {"type": "node", "id": 12213776642, "lat": 45.3686809, "lon": 8.174019, "tags": {"amenity": "charging_station", "capacity": "2", "operator": "Be Charge", "operator:wikidata": "Q113289535"}}, {"type": "node", "id": 12213776643, "lat": 45.3661548, "lon": 8.1783668, "tags": {"amenity": "charging_station", "capacity": "2", "operator": "Be Charge", "operator:wikidata": "Q113289535"}}, {"type": "node", "id": 12213776644, "lat": 45.3661449, "lon": 8.1784312, "tags": {"amenity": "charging_station", "brand": "be charge", "capacity": "3", "fee": "yes", "operator": "Be Charge", "operator:wikidata": "Q113289535"}}, {"type": "node", "id": 12281946122, "lat": 45.3644425, "lon": 8.172029, "tags": {"amenity": "charging_station", "capacity": "2", "operator": "Be Charge", "operator:wikidata": "Q113289535"}}]}