{"version": 0.6, "generator": "Overpass API 0.7.62.1 084b4234", "osm3s": {"timestamp_osm_base": "2024-11-20T16:39:00Z", "copyright": "The data included in this document is from www.openstreetmap.org. The data is made available under ODbL."}, "elements": [{"type": "node", "id": 421152281, "lat": 46.2977071, "lon": 13.1197589, "tags": {"access": "yes", "amenity": "charging_station", "bicycle": "yes", "fixme": "verificare la posizione", "network": "DINAclub", "operator": "Repower", "operator:wikidata": "Q674712", "operator:wikipedia": "it:Repower", "website": "https://www.repower.com/it/dina/"}}, {"type": "node", "id": 1272874382, "lat": 46.6297053, "lon": 13.370463, "tags": {"amenity": "charging_station", "amperage": "32", "capacity": "2", "fee": "yes", "motorcar": "yes", "object:city": "Hermagor", "object:country": "AT", "object:postcode": "9620", "object:street": "Kelag", "opening_hours": "24/7", "operator": "Kelag", "operator:wikidata": "Q1453452", "operator:wikipedia": "de:Kelag", "ref": "BA-0691-1 / BA-0692-8", "rwetempcharging_station:plug": "Typ 2", "socket:type2": "2", "socket:type2:output": "11 kW", "source": "RWE Effizienz GmbH, Dortmund", "source:delivery_date": "2011/01/17", "voltage": "400"}}, {"type": "node", "id": 4890310204, "lat": 46.2760956, "lon": 13.1091081, "tags": {"amenity": "charging_station", "capacity": "2"}}, {"type": "node", "id": 5152768291, "lat": 46.6716176, "lon": 13.000617, "tags": {"amenity": "charging_station", "description": "Ladestation f\u00fcr Carsharing Fahrzeug", "operator": "Marktgemeinde K\u00f6tschach", "socket:schuko": "4", "socket:type2": "1"}}, {"type": "node", "id": 5698869225, "lat": 46.6712516, "lon": 13.0009001, "tags": {"amenity": "charging_station", "capacity": "6", "operator": "AAE Naturstrom", "power": "22kW"}}, {"type": "node", "id": 5699311385, "lat": 46.4095942, "lon": 13.3108693, "tags": {"access": "customers", "amenity": "charging_station", "bicycle": "yes", "capacity": "2", "fee": "no", "motorcar": "no", "name": "Stazione di Chiusaforte", "opening_hours": "Mo-Su,PH 09:00-18:00; Nov-Mar off", "scooter": "no", "socket:schuko": "2", "truck": "no"}}, {"type": "node", "id": 5699311387, "lat": 46.4095246, "lon": 13.3107623, "tags": {"access": "customers", "amenity": "charging_station", "authentication:none": "yes", "bicycle": "yes", "capacity": "2", "fee": "no", "motorcar": "no", "network": "DINAclub", "opening_hours": "Mo-Su,PH 09:00-18:00; Nov-Mar off", "operator": "Stazione di Chiusaforte", "operator:wikidata": "Q674712", "operator:wikipedia": "it:Repower", "panoramax": "06dcb79c-6b97-4cb7-80fd-9325e1c44a7c", "panoramax:0": "703f770f-d78b-4f8d-b707-16d13ebb7222", "ref": "11", "scooter": "no", "socket:schuko": "2", "socket:schuko:voltage": "230 V", "truck": "no", "website": "https://www.repower.com/it/dina/"}}, {"type": "node", "id": 5766931200, "lat": 46.6716256, "lon": 13.0006141, "tags": {"amenity": "charging_station", "capacity": "2", "operator": "AAE Naturstrom", "socket:type2": "1"}}, {"type": "node", "id": 5877996970, "lat": 46.6432901, "lon": 13.1199644, "tags": {"access": "yes", "amenity": "charging_station", "authentication:none": "yes", "bicycle": "yes", "description": "E-Bike Ladestelle", "fee": "no", "motorcar": "no", "motorcycle": "no", "opening_hours": "24/7", "scooter": "no", "socket:schuko": "yes", "truck": "no"}}, {"type": "node", "id": 5929401803, "lat": 46.2762936, "lon": 13.1405357, "tags": {"access": "yes", "amenity": "charging_station", "authentication:none": "yes", "bicycle": "yes", "capacity": "2", "fee": "no", "motorcar": "no", "motorcycle": "no", "opening_hours": "24/7", "scooter": "yes", "socket:schuko": "2", "truck": "no"}}, {"type": "node", "id": 5929401804, "lat": 46.2552074, "lon": 13.082663, "tags": {"access": "yes", "amenity": "charging_station", "authentication:app": "yes", "bicycle": "yes", "bus": "no", "car": "no", "fee": "no", "motorcar": "no", "opening_hours": "24/7", "scooter": "no", "socket:schuko": "2", "socket:schuko:voltage": "230", "truck": "no"}}, {"type": "node", "id": 6046801276, "lat": 46.6310763, "lon": 13.3914986, "tags": {"amenity": "charging_station", "socket:type2": "2"}}, {"type": "node", "id": 6844525925, "lat": 46.2662255, "lon": 13.1113491, "tags": {"amenity": "charging_station", "capacity": "2", "car": "yes", "charging_station:output": "93 kW", "operator": "EVAD", "ref": "19XM32T7CB3W000175", "socket:chademo": "1", "socket:type2": "1", "socket:type2_combo": "1"}}, {"type": "node", "id": 6844584995, "lat": 46.3686303, "lon": 13.070731, "tags": {"amenity": "charging_station", "capacity": "2", "car": "yes", "charging_station:output": "60 kW", "operator": "EVAD", "ref": "18XM32T77B3W000075", "socket:chademo": "1", "socket:type2": "1", "socket:type2_combo": "1"}}, {"type": "node", "id": 6844584996, "lat": 46.3685599, "lon": 13.0707096, "tags": {"amenity": "charging_station", "capacity": "2", "car": "yes", "charging_station:output": "60 kW", "operator": "EVAD", "ref": "17EM32T77B3W000037", "socket:chademo": "1", "socket:type2": "1", "socket:type2_combo": "1"}}, {"type": "node", "id": 8262068634, "lat": 46.3124303, "lon": 12.933907, "tags": {"amenity": "charging_station", "capacity": "3", "name": "Stazione di ricarica per bici elettriche"}}, {"type": "node", "id": 8628677665, "lat": 46.3123343, "lon": 12.9362333, "tags": {"amenity": "charging_station", "capacity": "3", "name": "Stazione di ricarica per bici elettriche"}}, {"type": "node", "id": 9842069536, "lat": 46.664954, "lon": 13.0562214, "tags": {"access": "customers", "amenity": "charging_station", "brand": "Tesla, Inc.", "brand:wikidata": "Q478214", "capacity": "2", "description": "Tesla Destination Charger"}}, {"type": "node", "id": 9872214874, "lat": 46.4714525, "lon": 13.0238193, "tags": {"access": "yes", "amenity": "charging_station", "bicycle": "yes", "capacity": "2", "fee": "no", "motorcar": "no", "motorcycle": "no", "network": "DINAclub", "opening_hours": "24/7", "operator": "Repower", "operator:wikidata": "Q674712", "operator:wikipedia": "it:Repower", "panoramax": "7e3baeab-9725-4c64-b273-796a0b3e6cd4", "panoramax:0": "0d1b2ad2-8a37-4ee8-9019-95f60bf95bb8", "scooter": "no", "socket:schuko": "2", "socket:schuko:voltage": "230", "truck": "no", "website": "https://www.repower.com/it/dina/"}}, {"type": "node", "id": 9872242020, "lat": 46.4712966, "lon": 13.0237073, "tags": {"amenity": "charging_station", "bicycle": "no", "capacity": "2", "fee": "yes", "motorcar": "yes", "motorcycle": "yes", "network": "Ricarica 101", "operator": "Repower", "operator:wikidata": "Q674712", "operator:wikipedia": "it:Repower", "panoramax": "ed1330ec-42c0-4e01-b92d-e05443b1d2fd", "panoramax:0": "1de0a6a3-d463-4513-8c13-708aeb08acf5", "socket:type2": "2", "website": "https://www.repower.com/it/la-mobilita-elettrica/"}}, {"type": "node", "id": 9897552601, "lat": 46.2743377, "lon": 13.1301336, "tags": {"access": "yes", "amenity": "charging_station", "authentication:none": "yes", "bicycle": "yes", "covered": "no", "fee": "no", "motorcar": "no", "motorcycle": "no", "opening_hours": "24/7", "panoramax": "4fbae384-0a5c-4375-a37c-63709bf36c59", "panoramax:0": "e0a2975c-f89f-4203-874f-bd52bb12b81b", "panoramax:1": "738927c5-7161-4808-bbde-7d7e8f8443ac", "scooter": "no", "socket:schuko": "4", "truck": "no", "voltage": "230"}}, {"type": "node", "id": 9897652334, "lat": 46.3335063, "lon": 13.1386694, "tags": {"access": "yes", "amenity": "charging_station", "authentication:none": "yes", "bicycle": "yes", "covered": "yes", "fee": "no", "motorcar": "no", "motorcycle": "no", "operator": "Comune di Venzone", "panoramax": "143589b8-7801-4712-bde4-0bb35aec285a", "scooter": "no", "truck": "no", "voltage": "230"}}, {"type": "node", "id": 9897675477, "lat": 46.4065505, "lon": 13.1968439, "tags": {"access": "customers", "amenity": "charging_station", "authentication:none": "yes", "bicycle": "yes", "capacity": "2", "fee": "no", "motorcar": "no", "motorcycle": "no", "opening_hours": "PH,Su-Th 10:00-14:00,17:00-22:00; Fr,Sa 10:00-14:00,16:30-21:00", "operator": "La Corte dei Miracoli", "scooter": "no", "socket:schuko": "2", "socket:schuko:voltage": "230", "truck": "no"}}, {"type": "node", "id": 9956363946, "lat": 46.2553006, "lon": 13.3693505, "tags": {"amenity": "charging_station", "bicycle": "yes", "capacity": "2"}}, {"type": "node", "id": 9957387425, "lat": 46.2763389, "lon": 13.1369852}, {"type": "node", "id": 9967329045, "lat": 46.3939263, "lon": 13.2216471, "tags": {"amenity": "charging_station", "bicycle": "yes", "network": "DINAclub", "operator": "Repower", "operator:wikidata": "Q674712", "operator:wikipedia": "it:Repower", "panoramax": "241ee6c2-d872-4b17-9201-4538a46f7756", "website": "https://www.repower.com/it/dina/"}}, {"type": "node", "id": 9967495440, "lat": 46.3156498, "lon": 13.1033576, "tags": {"amenity": "charging_station", "bicycle": "yes", "name": "DINAclub - Stazione di Ricarica e-Bike", "network": "DINAclub", "operator": "Repower", "operator:wikidata": "Q674712", "website": "https://www.repower.com/it/dina/"}}, {"type": "node", "id": 9967534751, "lat": 46.4765599, "lon": 13.0177798, "tags": {"amenity": "charging_station", "bicycle": "yes", "network": "DINAclub", "operator": "Repower", "operator:wikidata": "Q674712", "operator:wikipedia": "it:Repower", "website": "https://www.repower.com/it/dina/"}}, {"type": "node", "id": 9967560947, "lat": 46.5059727, "lon": 13.3052582, "tags": {"amenity": "charging_station", "authentication:none": "yes", "bicycle": "yes", "capacity": "2", "fee": "no", "name": "DINAclub - Stazione di Ricarica e-Bike", "network": "DINAclub", "operator": "Repower", "operator:wikidata": "Q674712", "panoramax": "27d1ef8d-af05-44d7-94bd-465446771239", "scooter": "no", "socket:schuko": "2", "website": "https://www.repower.com/it/dina/"}}, {"type": "node", "id": 9974411012, "lat": 46.2620842, "lon": 13.1086046, "tags": {"access": "yes", "amenity": "charging_station", "bicycle": "yes", "fee": "no", "motorcar": "no", "motorcycle": "no", "opening_hours": "24/7", "scooter": "no", "socket:schuko": "2", "socket:schuko:voltage": "230", "truck": "no"}}, {"type": "node", "id": 9986174990, "lat": 46.5059312, "lon": 13.3051183, "tags": {"amenity": "charging_station", "authentication:none": "yes", "bicycle": "yes", "capacity": "2", "fee": "no", "motorcar": "no", "motorcycle": "no", "network": "DINAclub", "operator": "Repower", "operator:wikidata": "Q674712", "operator:wikipedia": "it:Repower", "panoramax": "27d1ef8d-af05-44d7-94bd-465446771239", "scooter": "no", "socket:schuko": "2", "website": "https://www.repower.com/it/dina/"}}, {"type": "node", "id": 10018069014, "lat": 46.5289115, "lon": 13.1181818, "tags": {"amenity": "charging_station", "bicycle": "yes", "motorcar": "no", "network": "DINAclub", "operator:wikidata": "Q674712", "operator:wikipedia": "it:Repower", "panoramax": "97946354-e372-4291-ac60-6e82a1214d69", "panoramax:0": "2372a0f8-f6a4-4ceb-a517-df6953fe6ba0", "socket:schuko": "2", "website": "https://www.repower.com/it/dina/"}}, {"type": "node", "id": 10020187572, "lat": 46.2763569, "lon": 13.1370435}, {"type": "node", "id": 10020187573, "lat": 46.276219, "lon": 13.1371427}, {"type": "node", "id": 10020187574, "lat": 46.2762005, "lon": 13.137083}, {"type": "node", "id": 10100156790, "lat": 46.2743908, "lon": 13.1283304, "tags": {"access": "yes", "amenity": "charging_station", "bicycle": "yes", "bus": "no", "capacity": "9", "hgv": "no", "level": "0", "motorcar": "no", "panoramax": "96572521-ac87-47cd-ba29-bc5cd48f1b54", "panoramax:0": "57d5db3b-4192-48e8-aa24-1fce045ac31e", "scooter": "no", "socket:typee": "9", "socket:typee:voltage": "230 V"}}, {"type": "node", "id": 10166290462, "lat": 46.4673797, "lon": 13.1923018, "tags": {"access": "yes", "amenity": "charging_station", "bicycle": "yes", "level": "0", "motorcar": "no", "motorcycle": "no", "panoramax": "07cbab25-bf37-4b0f-83ac-6dd62428dacc", "socket:schuko": "4", "socket:schuko:voltage": "230 V"}}, {"type": "node", "id": 10567615818, "lat": 46.3681139, "lon": 13.0730009, "tags": {"access": "customers", "addr:city": "Amaro Udine", "addr:country": "IT", "addr:description": "Consorzio Valli di Carnia 1 Zona Industriale 33020 Amaro Udine", "addr:postcode": "33020", "addr:street": "1 Zona Industriale", "amenity": "charging_station", "brand": "Tesla, Inc.", "brand:wikidata": "Q478214", "capacity": "8", "fee": "yes", "name": "Valli di Carnia Supercharger", "opening_hours": "24/7", "operator": "Tesla, Inc.", "operator:wikidata": "Q478214", "short_name": "Tesla", "socket:tesla_supercharger_ccs": "8", "socket:tesla_supercharger_ccs:output": "250", "website": "https://www.tesla.com/findus/location/supercharger/dineitsupercharger"}}, {"type": "node", "id": 10599368057, "lat": 46.4061592, "lon": 13.0156703, "tags": {"access": "yes", "amenity": "charging_station", "bicycle": "yes", "network": "DINAclub", "operator": "Repower", "operator:wikidata": "Q674712", "operator:wikipedia": "it:Repower", "voltage": "230", "website": "https://www.repower.com/it/dina/"}}, {"type": "node", "id": 10600641387, "lat": 46.3949753, "lon": 13.0306279, "tags": {"access": "yes", "amenity": "charging_station", "bicycle": "yes", "network": "DINAclub", "operator": "Repower", "operator:wikidata": "Q674712", "operator:wikipedia": "it:Repower", "website": "https://www.repower.com/it/dina/"}}, {"type": "node", "id": 10600793992, "lat": 46.4912138, "lon": 12.8618954, "tags": {"access": "yes", "amenity": "charging_station", "bicycle": "yes", "network": "DINAclub", "operator": "Repower", "operator:wikidata": "Q674712", "operator:wikipedia": "it:Repower", "website": "https://www.repower.com/it/dina/"}}, {"type": "node", "id": 10600794094, "lat": 46.5163849, "lon": 12.8669041, "tags": {"access": "yes", "amenity": "charging_station", "bicycle": "yes", "network": "DINAclub", "operator": "Repower", "operator:wikidata": "Q674712", "operator:wikipedia": "it:Repower", "website": "https://www.repower.com/it/dina/"}}, {"type": "node", "id": 10600796807, "lat": 46.4812436, "lon": 12.8671897, "tags": {"access": "yes", "amenity": "charging_station", "bicycle": "yes", "name": "DINAclub - Stazione di Ricarica e-Bike", "network": "DINAclub", "operator": "Repower", "operator:wikidata": "Q674712", "website": "https://www.repower.com/it/dina/"}}, {"type": "node", "id": 10600910119, "lat": 46.4232246, "lon": 12.9321252, "tags": {"access": "yes", "amenity": "charging_station", "bicycle": "yes", "name": "DINAclub - Stazione di Ricarica e-Bike", "network": "DINAclub", "operator": "Repower", "operator:wikidata": "Q674712", "website": "https://www.repower.com/it/dina/"}}, {"type": "node", "id": 10601012368, "lat": 46.4811612, "lon": 13.0183991, "tags": {"access": "yes", "amenity": "charging_station", "bicycle": "yes", "network": "DINAclub", "operator": "Repower", "operator:wikidata": "Q674712", "operator:wikipedia": "it:Repower", "website": "https://www.repower.com/it/dina/"}}, {"type": "node", "id": 10601235264, "lat": 46.4064555, "lon": 13.1865415, "tags": {"access": "yes", "amenity": "charging_station", "bicycle": "yes", "network": "DINAclub", "operator": "Repower", "operator:wikidata": "Q674712", "operator:wikipedia": "it:Repower", "website": "https://www.repower.com/it/dina/"}}, {"type": "node", "id": 10601255381, "lat": 46.5282801, "lon": 13.0154265, "tags": {"access": "yes", "amenity": "charging_station", "bicycle": "yes", "network": "DINAclub", "operator": "Repower", "operator:wikidata": "Q674712", "operator:wikipedia": "it:Repower", "voltage": "230", "website": "https://www.repower.com/it/dina/"}}, {"type": "node", "id": 10601265422, "lat": 46.4134835, "lon": 12.9219297, "tags": {"access": "yes", "amenity": "charging_station", "bicycle": "yes", "name": "DINAclub - Stazione di Ricarica e-Bike", "network": "DINAclub", "operator": "Repower", "operator:wikidata": "Q674712", "video": "https://www.youtube.com/watch?v=An6LacK0mxI", "website": "https://www.repower.com/it/dina/"}}, {"type": "node", "id": 10601267981, "lat": 46.5228825, "lon": 12.9208516, "tags": {"access": "customers", "amenity": "charging_station", "bicycle": "yes", "capacity": "2", "covered": "yes", "level": "-1", "network": "DINAclub", "note": "Orange box in garage; access only for hotel guests.", "operator": "Repower", "operator:wikidata": "Q674712", "operator:wikipedia": "it:Repower", "ref": "3b8ca4dc-3203-40d6-bebd-d100d7f8fc93", "socket:schuko": "2", "website": "https://dinaclub.repower.com/check-in/?code=3b8ca4dc-3203-40d6-bebd-d100d7f8fc93"}}, {"type": "node", "id": 10601275115, "lat": 46.3642781, "lon": 13.1354962, "tags": {"access": "yes", "amenity": "charging_station", "bicycle": "yes", "network": "DINAclub", "operator": "Repower", "operator:wikidata": "Q674712", "operator:wikipedia": "it:Repower", "website": "https://www.repower.com/it/dina/"}}, {"type": "node", "id": 10989662052, "lat": 46.4051915, "lon": 13.1883359, "tags": {"access": "yes", "amenity": "charging_station", "authentication:none": "yes", "bicycle": "yes", "capacity": "4", "fee": "no", "level": "0", "motorcar": "no", "opening_hours": "24/7", "operator": "Comune di Moggio Udinese", "panoramax": "d63e082d-9002-4e0e-a43b-81e464153481", "panoramax:0": "cea31070-5c3d-47f3-a96c-bafa4b1d066b", "panoramax:1": "ee2a3219-d947-48a8-a443-0a11e4ca53ee", "panoramax:2": "66b86f74-92d8-459d-8c7e-57d486f06346", "socket:typee": "4"}}, {"type": "node", "id": 11058084287, "lat": 46.429094, "lon": 12.9464261, "tags": {"access": "yes", "amenity": "charging_station", "capacity": "2", "fee": "yes", "name": "Be Charge Charging Station", "operator": "Be Charge", "operator:wikidata": "Q113289535", "website": "https://www.bec.energy"}}, {"type": "node", "id": 11077495139, "lat": 46.5212254, "lon": 12.9202146, "tags": {"access": "yes", "addr:city": "Ravasletto", "addr:housenumber": "16", "addr:postcode": "33020", "addr:state": "UD", "addr:street": "Via Valcalda", "amenity": "charging_station", "capacity": "4", "fee": "yes", "opening_hours": "24/7", "operator": "Be Charge", "operator:wikidata": "Q113289535", "socket:type2": "4", "socket:type2:current": "32", "socket:type2:output": "22 kW", "socket:type2:voltage": "400"}}, {"type": "node", "id": 11077498607, "lat": 46.5521747, "lon": 12.8518807, "tags": {"access": "yes", "addr:city": "Rigolato", "addr:housenumber": "1", "addr:postcode": "33020", "addr:street": "Via Cadadorno", "amenity": "charging_station", "capacity": "4", "fee": "yes", "opening_hours": "24/7", "operator": "Be Charge", "operator:wikidata": "Q113289535", "socket:type2": "4", "socket:type2:current": "32", "socket:type2:output": "22 kW", "socket:type2:voltage": "400"}}, {"type": "node", "id": 11077577444, "lat": 46.4018949, "lon": 13.0057855, "tags": {"access": "yes", "addr:city": "Tolmezzo", "addr:postcode": "33028", "addr:street": "Via Val di Gorto", "amenity": "charging_station", "brand": "Enel X", "brand:wikidata": "Q5376815", "capacity": "2", "fee": "yes", "name": "Enel X", "opening_hours": "24/7", "operator": "Enel X", "operator:wikidata": "Q5376815", "socket:type2": "2", "socket:type2:output": "15 kW"}}, {"type": "node", "id": 11077577445, "lat": 46.4065262, "lon": 13.0092426, "tags": {"access": "yes", "addr:city": "Tolmezzo", "addr:postcode": "33028", "addr:street": "Via Giovanni Gortani", "amenity": "charging_station", "brand": "Enel X", "brand:wikidata": "Q5376815", "capacity": "2", "fee": "yes", "name": "Enel X", "opening_hours": "24/7", "operator": "Enel X", "operator:wikidata": "Q5376815", "socket:type2": "2", "socket:type2:output": "15 kW"}}, {"type": "node", "id": 11105877017, "lat": 46.5226928, "lon": 12.9214343, "tags": {"amenity": "charging_station", "capacity": "2", "operator": "Hotel La Perla", "socket:schuko": "2"}}, {"type": "node", "id": 11117713214, "lat": 46.2560766, "lon": 13.0830424, "tags": {"amenity": "charging_station", "bicycle": "yes", "level": "0", "motorcar": "no", "panoramax": "3d1e2d40-cf7a-4b0d-8337-a9a476308712", "panoramax:0": "8dc338d6-945b-453c-abb0-c6e987f215fd", "socket:schuko": "3"}}, {"type": "node", "id": 11154478906, "lat": 46.4989928, "lon": 13.375447, "tags": {"access": "yes", "amenity": "charging_station", "capacity": "6", "fee": "yes", "fixme": "Capacity, Company and Start date", "operator": "Reeto", "payment:app": "yes", "payment:credit_cards": "yes", "payment:membership_card": "yes"}}, {"type": "node", "id": 11216027139, "lat": 46.6274901, "lon": 13.3688455, "tags": {"access": "yes", "amenity": "charging_station", "bicycle": "yes", "capacity": "3", "fee": "no", "opening_hours": "24/7", "socket:schuko": "3"}}, {"type": "node", "id": 11739450445, "lat": 46.6698051, "lon": 12.9915259, "tags": {"amenity": "charging_station", "brand": "Tesla, Inc.", "brand:wikidata": "Q478214", "description": "Tesla Destination Charger", "name": "Tesla Destination Charger", "short_name": "Tesla"}}, {"type": "node", "id": 11739503784, "lat": 46.6695397, "lon": 12.9912512, "tags": {"amenity": "charging_station", "brand": "ChargePoint", "brand:wikidata": "Q5176149", "operator": "ChargePoint", "operator:wikidata": "Q5176149"}}, {"type": "node", "id": 11827077072, "lat": 46.4017972, "lon": 13.0212207, "tags": {"access": "yes", "amenity": "charging_station", "brand": "Enel X", "brand:wikidata": "Q5376815", "capacity": "2", "description": "accelerata o quick, charging profile capable, remote start stop capable, reservable, unlock capable, rfid reader", "fee": "yes", "man_made": "charge_point", "name": "Enel X", "opening_hours": "24/7", "operator": "Enel X", "operator:wikidata": "Q5376815", "ref:EU:EVSE": "IT-ENX-E21XP22T3KKJAL00072", "socket:type2": "2", "socket:type2:current": "23", "socket:type2:output": "15000", "socket:type2:voltage": "400", "source:date": "2024-02-06"}}, {"type": "node", "id": 11938085200, "lat": 46.2767603, "lon": 13.1389961, "tags": {"amenity": "charging_station", "bicycle": "yes", "motorcar": "no", "panoramax": "da1d73f1-5523-4328-ae24-da8f4d426fbd", "panoramax:0": "96be90a6-e9f4-486c-ae4b-4554174e5815", "panoramax:1": "b62c47eb-b076-4ba9-8c7a-18b772ad11a1", "panoramax:2": "7b3e4afc-3c0b-474f-b39a-673bef5c2925"}}, {"type": "node", "id": 12028877726, "lat": 46.5575245, "lon": 13.2785386, "tags": {"amenity": "charging_station", "capacity": "1", "motorcar": "yes", "operator": "Bluenergy", "socket:type3": "1", "source": "survey 06.2024 and basemap Imagery"}}, {"type": "node", "id": 12080045204, "lat": 46.561028, "lon": 13.2758465, "tags": {"amenity": "charging_station"}}, {"type": "node", "id": 12142328297, "lat": 46.3590042, "lon": 13.0530565, "tags": {"access": "yes", "amenity": "charging_station", "authentication:none": "yes", "bicycle": "yes", "capacity": "4", "fee": "no", "level": "0", "motorcar": "no", "network": "a2a", "panoramax": "76a119f2-3a1c-481b-8e63-034099a0a803", "panoramax:0": "05758131-314d-49ce-8d5c-ac549fe90158", "panoramax:1": "f2022160-8706-4c34-8cb1-036f02376687"}}, {"type": "way", "id": 1094057557, "nodes": [9957387425, 10020187574, 10020187573, 10020187572, 9957387425], "tags": {"amenity": "charging_station", "brand": "Enel X", "capacity": "4", "description": "HPC station", "motorcar": "yes", "operator": "Enel X Mobility", "socket:type1_combo": "4", "socket:type1_combo:output": "150 kW"}}]}