{"version": 0.6, "generator": "Overpass API 0.7.62.1 084b4234", "osm3s": {"timestamp_osm_base": "2024-11-20T22:04:06Z", "copyright": "The data included in this document is from www.openstreetmap.org. The data is made available under ODbL."}, "elements": [{"type": "node", "id": 6065129423, "lat": 45.142901, "lon": 10.0194502, "tags": {"amenity": "charging_station", "brand": "Enel X", "brand:wikidata": "Q5376815", "brand:wikipedia": "en:Enel X", "capacity": "2", "name": "Enel X", "operator": "Enel X", "operator:wikidata": "Q5376815", "operator:wikipedia": "en:Enel X"}}, {"type": "node", "id": 6065129424, "lat": 45.1376571, "lon": 10.0333751, "tags": {"amenity": "charging_station", "brand": "Enel X", "brand:wikidata": "Q5376815", "brand:wikipedia": "en:Enel X", "capacity": "2", "name": "Enel X", "operator": "Enel X", "operator:wikidata": "Q5376815", "operator:wikipedia": "en:Enel X"}}, {"type": "node", "id": 8286943745, "lat": 45.1351573, "lon": 9.998569, "tags": {"access": "customers", "amenity": "charging_station", "capacity": "2", "fee": "no", "operator": "Maury's", "socket:type2": "2", "socket:type2:output": "7 kW"}}, {"type": "node", "id": 9142096682, "lat": 45.0395006, "lon": 9.7538504, "tags": {"amenity": "charging_station", "brand": "Tesla Supercharger", "brand:wikidata": "Q17089620", "capacity": "8", "fee": "yes", "name": "Piacenza Supercharger", "opening_hours": "24/7", "operator": "Tesla, Inc.", "socket:tesla_supercharger": "8", "socket:tesla_supercharger:output": "150 kW", "website": "https://www.tesla.com/findus/location/supercharger/piacenzaitsupercharger"}}, {"type": "node", "id": 9732512129, "lat": 44.8609793, "lon": 10.0803725, "tags": {"amenity": "charging_station", "capacity": "2", "operator": "Lidl", "operator:wikidata": "Q151954", "operator:wikipedia": "en:Lidl"}}, {"type": "node", "id": 9732893981, "lat": 44.9241067, "lon": 9.9151954, "tags": {"amenity": "charging_station", "brand": "Enel X", "capacity": "2", "fee": "yes", "motorcar": "yes", "name": "Enel X", "opening_hours": "24/7", "operator": "Enel X", "operator:wikidata": "Q5376815", "operator:wikipedia": "en:Enel X"}}, {"type": "node", "id": 9733080514, "lat": 44.9744728, "lon": 9.8310976, "tags": {"amenity": "charging_station", "brand": "Enel X", "capacity": "2", "motorcar": "yes", "name": "Enel X", "operator": "Enel X", "operator:wikidata": "Q5376815", "operator:wikipedia": "en:Enel X"}}, {"type": "node", "id": 9733085338, "lat": 44.9635737, "lon": 9.8551908, "tags": {"amenity": "charging_station", "brand": "Enel X", "capacity": "2", "name": "Enel X", "operator": "Enel X", "operator:wikidata": "Q5376815", "operator:wikipedia": "en:Enel X"}}, {"type": "node", "id": 9733118443, "lat": 44.9653191, "lon": 9.851995, "tags": {"amenity": "charging_station", "brand": "Enel X", "capacity": "2", "name": "Enel X", "operator": "Enel X", "operator:wikidata": "Q5376815", "operator:wikipedia": "en:Enel X"}}, {"type": "node", "id": 9733181558, "lat": 44.9977168, "lon": 9.7932191, "tags": {"amenity": "charging_station", "brand": "Enel X", "motorcar": "yes", "name": "Enel X", "operator": "Enel X", "operator:wikidata": "Q5376815", "operator:wikipedia": "en:Enel X"}}, {"type": "node", "id": 9761648503, "lat": 44.9626595, "lon": 9.9043722, "tags": {"access": "yes", "amenity": "charging_station", "capacity": "6", "name": "Free to X", "socket:chademo": "1", "socket:type2": "1", "socket:type2_combo": "5", "source": "https://www.youtube.com/watch?v=1jZQJpUuNAg"}}, {"type": "node", "id": 10180392732, "lat": 45.1425796, "lon": 10.0046697, "tags": {"amenity": "charging_station", "capacity": "2", "fee": "yes", "motorcar": "yes", "opening_hours": "24/7", "operator": "Be Charge", "operator:wikidata": "Q113289535"}}, {"type": "node", "id": 10286546451, "lat": 44.9162273, "lon": 9.9055518}, {"type": "node", "id": 10286546452, "lat": 44.9162462, "lon": 9.9055606}, {"type": "node", "id": 10286546453, "lat": 44.9162234, "lon": 9.9056581}, {"type": "node", "id": 10286546454, "lat": 44.9162045, "lon": 9.9056493}, {"type": "node", "id": 10286634711, "lat": 44.8877954, "lon": 9.908518, "tags": {"amenity": "charging_station", "capacity": "2", "fee": "yes"}}, {"type": "node", "id": 10307315601, "lat": 44.9630701, "lon": 9.9068278, "tags": {"access": "yes", "amenity": "charging_station", "name": "Free to X", "source": "https://www.forumelettrico.it/forum/colonnine-free-to-x-high-power-ads-arda-est-fiorenzuola-d-arda-pc-a1-km-73-verso-milano-t29350.html"}}, {"type": "node", "id": 10617861186, "lat": 45.1514941, "lon": 9.9967722}, {"type": "node", "id": 10617861187, "lat": 45.1514081, "lon": 9.9967534}, {"type": "node", "id": 10617861188, "lat": 45.1514008, "lon": 9.9968207}, {"type": "node", "id": 10617861189, "lat": 45.1514868, "lon": 9.9968395}, {"type": "node", "id": 11080726906, "lat": 44.85265, "lon": 9.871065, "tags": {"access": "yes", "amenity": "charging_station", "brand": "Pradella Sistemi srl", "fee": "no", "name": "Stazione di ricarica ebike - Pradella Sistemi", "operator": "Pradella Sistemi srl"}}, {"type": "node", "id": 11080922005, "lat": 44.841801, "lon": 9.80998, "tags": {"access": "yes", "amenity": "charging_station", "brand": "Pradella Sistemi srl", "fee": "no", "name": "Stazione di ricarica ebike - Pradella Sistemi", "operator": "Pradella Sistemi srl"}}, {"type": "node", "id": 11080922205, "lat": 44.841948, "lon": 9.995163, "tags": {"access": "yes", "amenity": "charging_station", "brand": "Pradella Sistemi srl", "fee": "no", "name": "Stazione di ricarica ebike - Pradella Sistemi", "operator": "Pradella Sistemi srl"}}, {"type": "node", "id": 11871819070, "lat": 45.1039874, "lon": 9.9916054, "tags": {"amenity": "charging_station"}}, {"type": "node", "id": 11896664115, "lat": 44.9818646, "lon": 10.0145165, "tags": {"amenity": "charging_station", "capacity": "2", "fee": "yes", "motorcar": "yes", "name": "Enel X Way", "opening_hours": "24/7", "operator": "Enel X Way"}}, {"type": "node", "id": 11896705426, "lat": 44.9898164, "lon": 9.9289633, "tags": {"amenity": "charging_station", "capacity": "2", "fee": "yes", "motorcar": "yes", "name": "Be Charge", "opening_hours": "24/7", "operator": "Be Charge", "operator:wikidata": "Q113289535"}}, {"type": "node", "id": 11896742271, "lat": 44.985277, "lon": 9.9256953, "tags": {"amenity": "charging_station", "capacity": "2", "fee": "yes", "motorcar": "yes", "name": "Ewiva", "opening_hours": "24/7", "operator": "Ewiva", "operator:wikidata": "Q123272416"}}, {"type": "node", "id": 11896751278, "lat": 44.9852719, "lon": 9.9257861, "tags": {"amenity": "charging_station", "capacity": "2", "fee": "yes", "motorcar": "yes", "name": "Ewiva", "opening_hours": "24/7", "operator": "Ewiva", "operator:wikidata": "Q123272416"}}, {"type": "node", "id": 11896789309, "lat": 44.9303509, "lon": 9.9080326, "tags": {"amenity": "charging_station", "capacity": "1"}}, {"type": "node", "id": 11896813994, "lat": 44.933392, "lon": 9.902912, "tags": {"amenity": "charging_station", "capacity": "2", "operator": "Lidl", "operator:wikidata": "Q151954"}}, {"type": "node", "id": 11896854349, "lat": 44.8869914, "lon": 9.9875928, "tags": {"amenity": "charging_station", "motorcar": "yes"}}, {"type": "node", "id": 11897077103, "lat": 44.8595377, "lon": 10.0726616, "tags": {"amenity": "charging_station", "capacity": "2", "fee": "yes", "motorcar": "yes", "name": "Enel X Way", "opening_hours": "24/7", "operator": "Enel X Way"}}, {"type": "node", "id": 11897219308, "lat": 44.8588035, "lon": 10.0640864, "tags": {"amenity": "charging_station", "capacity": "2", "operator": "Enel X Way"}}, {"type": "node", "id": 11898130520, "lat": 44.8837316, "lon": 10.163329, "tags": {"amenity": "charging_station", "brand": "Enel X Way", "brand:wikidata": "Q5376815", "capacity": "2", "fee": "yes", "motorcar": "yes", "name": "Enel X Way", "opening_hours": "24/7", "operator": "Enel X Way", "operator:wikidata": "Q5376815"}}, {"type": "node", "id": 11979188486, "lat": 45.1642263, "lon": 10.0224122}, {"type": "node", "id": 11979188487, "lat": 45.1641725, "lon": 10.0223986}, {"type": "node", "id": 11979188488, "lat": 45.1641645, "lon": 10.0224613}, {"type": "node", "id": 11979188489, "lat": 45.1642188, "lon": 10.0224744}, {"type": "node", "id": 12079098528, "lat": 44.8824505, "lon": 10.0902836, "tags": {"amenity": "charging_station"}}, {"type": "node", "id": 12306784285, "lat": 45.1312445, "lon": 10.3641388, "tags": {"amenity": "charging_station", "brand": "Enel", "brand:wikidata": "Q651222", "capacity": "2", "name": "Enel", "operator": "Enel", "operator:wikidata": "Q651222"}}, {"type": "node", "id": 12306912235, "lat": 45.1560733, "lon": 10.0991319, "tags": {"amenity": "charging_station", "capacity": "2", "fee": "yes", "motorcar": "yes", "name": "Eniwa", "opening_hours": "24/7", "operator": "Eniwa", "operator:wikidata": "Q28500440"}}, {"type": "node", "id": 12306912239, "lat": 45.1560647, "lon": 10.0992358, "tags": {"amenity": "charging_station", "capacity": "2", "fee": "yes", "motorcar": "yes", "name": "Eniwa", "opening_hours": "24/7", "operator": "Eniwa", "operator:wikidata": "Q28500440"}}, {"type": "node", "id": 12306912241, "lat": 45.1560584, "lon": 10.099343, "tags": {"amenity": "charging_station", "capacity": "2", "fee": "yes", "motorcar": "yes", "name": "Eniwa", "opening_hours": "24/7", "operator": "Eniwa", "operator:wikidata": "Q28500440"}}, {"type": "node", "id": 12307002972, "lat": 45.1454517, "lon": 10.0735924, "tags": {"amenity": "charging_station", "brand": "Enel X", "brand:wikidata": "Q5376815", "capacity": "2", "name": "Enel X", "operator": "Enel X", "operator:wikidata": "Q5376815"}}, {"type": "node", "id": 12307154972, "lat": 45.1420561, "lon": 10.0181243, "tags": {"amenity": "charging_station", "capacity": "2"}}, {"type": "node", "id": 12307160363, "lat": 45.1450102, "lon": 9.9854364, "tags": {"amenity": "charging_station", "capacity": "2"}}, {"type": "node", "id": 12307199867, "lat": 45.1445231, "lon": 9.9901388, "tags": {"amenity": "charging_station", "capacity": "2", "operator": "Enel X Way"}}, {"type": "node", "id": 12307774297, "lat": 45.1444726, "lon": 10.0675873, "tags": {"amenity": "charging_station", "motorcar": "yes"}}, {"type": "way", "id": 1124866963, "nodes": [10286546451, 10286546452, 10286546453, 10286546454, 10286546451], "tags": {"amenity": "charging_station", "brand": "Enel X", "brand:wikidata": "Q5376815", "capacity": "2", "fee": "yes", "name": "Enel X", "operator": "Enel X", "operator:wikidata": "Q5376815"}}, {"type": "way", "id": 1139168223, "nodes": [10617861186, 10617861187, 10617861188, 10617861189, 10617861186], "tags": {"amenity": "charging_station", "brand": "Enel X", "brand:wikidata": "Q5376815", "capacity": "4", "covered": "no", "name": "Enel X", "operator": "Enel X", "operator:wikidata": "Q5376815"}}, {"type": "way", "id": 1292211178, "nodes": [11979188486, 11979188487, 11979188488, 11979188489, 11979188486], "tags": {"access": "yes", "amenity": "charging_station", "brand": "Enel X Way", "capacity": "2", "fee": "yes", "payment:contactless": "yes", "payment:credit_cards": "yes", "socket": "type2=2"}}]}