{"version": 0.6, "generator": "Overpass API 0.7.62.1 084b4234", "osm3s": {"timestamp_osm_base": "2024-11-20T22:04:06Z", "copyright": "The data included in this document is from www.openstreetmap.org. The data is made available under ODbL."}, "elements": [{"type": "node", "id": 3545040245, "lat": 46.2099732, "lon": 9.0275674, "tags": {"amenity": "charging_station", "operator": "EWA"}}, {"type": "node", "id": 3793480318, "lat": 46.1343303, "lon": 9.5745369, "tags": {"amenity": "charging_station", "capacity": "1", "operator": "A2A"}}, {"type": "node", "id": 6315746957, "lat": 46.521152, "lon": 9.4431801, "tags": {"amenity": "charging_station", "bicycle": "yes", "brand": "bike-energy", "brand:wikidata": "Q67770877", "capacity": "2", "covered": "yes", "description": "POINT P2B1C f\u00fcr 1 E-Car (Typ2) & 2 E-Bikes. Das passende Ladekabel f\u00fcr Ihr E-Bike kann vor Ort ausgeliehen werden oder direkt auf www.bike-energy.com bestellt werden.", "fee": "no", "name": "bike-energy Ladestation", "operator": "bike-energy", "operator:wikidata": "Q67770877", "website": "https://alpenroseferrera.ch/"}}, {"type": "node", "id": 6468235357, "lat": 46.138868, "lon": 9.2938933, "tags": {"access": "customers", "amenity": "charging_station", "operator": "Ca' del Lago"}}, {"type": "node", "id": 6535117267, "lat": 46.13488, "lon": 9.2883416, "tags": {"amenity": "charging_station", "authentication:nfc": "yes", "socket:type2": "2"}}, {"type": "node", "id": 7084201906, "lat": 46.1348793, "lon": 9.2882992, "tags": {"amenity": "charging_station", "authentication:nfc": "yes", "socket:type2": "2"}}, {"type": "node", "id": 7913564661, "lat": 46.1403007, "lon": 9.4159671, "tags": {"amenity": "charging_station", "brand": "Enel", "brand:wikidata": "Q651222", "fixme": "Migliorare la posizione", "level": "0", "motorcar": "yes", "name": "Enel", "operator": "Enel", "operator:wikidata": "Q651222", "socket:type2_combo": "2"}}, {"type": "node", "id": 7913564663, "lat": 46.1402831, "lon": 9.4159521, "tags": {"amenity": "charging_station", "brand": "Enel", "brand:wikidata": "Q651222", "fixme": "Migliorare la posizione", "level": "0", "motorcar": "yes", "name": "Enel", "operator": "Enel", "operator:wikidata": "Q651222", "socket:type2_combo": "2"}}, {"type": "node", "id": 7913564666, "lat": 46.1403196, "lon": 9.4159852, "tags": {"amenity": "charging_station", "brand": "Enel", "brand:wikidata": "Q651222", "fixme": "Migliorare la posizione", "level": "0", "motorcar": "yes", "name": "Enel", "operator": "Enel", "operator:wikidata": "Q651222", "socket:type2_combo": "2"}}, {"type": "node", "id": 8016503181, "lat": 46.1713634, "lon": 9.0102257, "tags": {"amenity": "charging_station"}}, {"type": "node", "id": 8290997316, "lat": 46.1593713, "lon": 9.3324468, "tags": {"amenity": "charging_station"}}, {"type": "node", "id": 9043411241, "lat": 46.2532798, "lon": 9.0230581, "tags": {"access": "yes", "amenity": "charging_station", "authentication:app": "yes", "authentication:contactless": "yes", "bicycle": "no", "capacity": "2", "cover": "no", "fee": "yes", "motorcar": "yes", "network": "evpass", "opening_hours": "24/7", "parking:fee": "no", "socket:type1": "2", "socket:type1:output": "7 kW", "socket:type2_cable": "2", "socket:type2_cable:output": "22 kW"}}, {"type": "node", "id": 9043424703, "lat": 46.223601, "lon": 9.0416145, "tags": {"access": "yes", "amenity": "charging_station", "authentication:app": "yes", "authentication:contactless": "yes", "bicycle": "no", "capacity": "2", "covered": "no", "fee": "yes", "motorcar": "yes", "network": "evpass", "opening_hours": "24/7", "parking:fee": "yes", "socket:type1": "2", "socket:type1:output": "7 kW", "socket:type2_cable": "2", "socket:type2_cable:output": "22 kW"}}, {"type": "node", "id": 9043424704, "lat": 46.223556, "lon": 9.041618, "tags": {"access": "yes", "amenity": "charging_station", "authentication:app": "yes", "authentication:contactless": "yes", "bicycle": "no", "capacity": "2", "covered": "no", "fee": "yes", "motorcar": "yes", "network": "evpass", "opening_hours": "24/7", "parking:fee": "yes", "socket:type1": "2", "socket:type1:output": "7 kW", "socket:type2_cable": "2", "socket:type2_cable:output": "22 kW"}}, {"type": "node", "id": 9043424705, "lat": 46.2235098, "lon": 9.0416205, "tags": {"access": "yes", "amenity": "charging_station", "authentication:app": "yes", "authentication:contactless": "yes", "bicycle": "no", "capacity": "2", "covered": "no", "fee": "yes", "motorcar": "yes", "network": "evpass", "opening_hours": "24/7", "parking:fee": "yes", "socket:type1": "2", "socket:type1:output": "7 kW", "socket:type2_cable": "2", "socket:type2_cable:output": "22 kW"}}, {"type": "node", "id": 9043424711, "lat": 46.2094631, "lon": 9.0265789, "tags": {"access": "yes", "amenity": "charging_station", "authentication:app": "yes", "authentication:contactless": "yes", "bicycle": "no", "capacity": "2", "covered": "no", "fee": "yes", "motorcar": "yes", "network": "Swisscharge", "opening_hours": "24/7", "operator": "GOFAST", "operator:wikidata": "Q130426825", "parking:fee": "yes", "socket:chademo": "1", "socket:chademo:output": "60 kW", "socket:type2_cable": "1", "socket:type2_cable:output": "43 kW", "socket:type2_combo": "1", "socket:type2_combo:output": "80 kW"}}, {"type": "node", "id": 9043424785, "lat": 46.2094785, "lon": 9.0265537, "tags": {"access": "yes", "amenity": "charging_station", "authentication:app": "yes", "authentication:contactless": "yes", "bicycle": "no", "brand": "Ionity", "brand:wikidata": "Q42717773", "capacity": "6", "covered": "no", "fee": "yes", "motorcar": "yes", "name": "IONITY Bellinzona Nord", "network": "Ionity", "opening_hours": "24/7", "operator": "Ionity", "parking:fee": "yes", "socket:type2_combo": "1", "socket:type2_combo:output": "350 kW"}}, {"type": "node", "id": 9043424786, "lat": 46.2094889, "lon": 9.0265828, "tags": {"access": "yes", "amenity": "charging_station", "authentication:app": "yes", "authentication:contactless": "yes", "bicycle": "no", "brand": "Ionity", "brand:wikidata": "Q42717773", "capacity": "6", "covered": "no", "fee": "yes", "motorcar": "yes", "name": "IONITY Bellinzona Nord", "network": "Ionity", "opening_hours": "24/7", "operator": "Ionity", "parking:fee": "yes", "socket:type2_combo": "1", "socket:type2_combo:output": "350 kW"}}, {"type": "node", "id": 9043424787, "lat": 46.2095014, "lon": 9.0266186, "tags": {"access": "yes", "amenity": "charging_station", "authentication:app": "yes", "authentication:contactless": "yes", "bicycle": "no", "brand": "Ionity", "brand:wikidata": "Q42717773", "capacity": "6", "covered": "no", "fee": "yes", "motorcar": "yes", "name": "IONITY Bellinzona Nord", "network": "Ionity", "opening_hours": "24/7", "operator": "Ionity", "parking:fee": "yes", "socket:type2_combo": "1", "socket:type2_combo:output": "350 kW"}}, {"type": "node", "id": 9043424788, "lat": 46.2095129, "lon": 9.0266505, "tags": {"access": "yes", "amenity": "charging_station", "authentication:app": "yes", "authentication:contactless": "yes", "bicycle": "no", "brand": "Ionity", "brand:wikidata": "Q42717773", "capacity": "6", "covered": "no", "fee": "yes", "motorcar": "yes", "name": "IONITY Bellinzona Nord", "network": "Ionity", "opening_hours": "24/7", "operator": "Ionity", "parking:fee": "yes", "socket:type2_combo": "1", "socket:type2_combo:output": "350 kW"}}, {"type": "node", "id": 9043472537, "lat": 46.2081763, "lon": 9.0338865, "tags": {"access": "yes", "amenity": "charging_station", "authentication:app": "yes", "authentication:contactless": "yes", "bicycle": "no", "capacity": "2", "covered": "no", "fee": "yes", "motorcar": "yes", "network": "evpass", "opening_hours": "24/7", "parking:fee": "no", "socket:sev1011_t13": "2", "socket:sev1011_t23": "3.7 kW", "socket:type1": "2", "socket:type1:output": "7 kW", "socket:type2_cable": "2", "socket:type2_cable:output": "22 kW"}}, {"type": "node", "id": 9043472544, "lat": 46.2019124, "lon": 9.0311472, "tags": {"access": "yes", "amenity": "charging_station", "authentication:app": "yes", "authentication:contactless": "yes", "bicycle": "no", "capacity": "2", "covered": "no", "fee": "yes", "motorcar": "yes", "network": "evpass", "opening_hours": "24/7", "parking:fee": "no", "socket:sev1011_t13": "2", "socket:sev1011_t23": "3.7 kW", "socket:type1": "2", "socket:type1:output": "7 kW", "socket:type2_cable": "2", "socket:type2_cable:output": "22 kW"}}, {"type": "node", "id": 9043472603, "lat": 46.2006132, "lon": 9.017314, "tags": {"access": "yes", "amenity": "charging_station", "authentication:app": "yes", "authentication:contactless": "yes", "bicycle": "yes", "capacity": "2", "covered": "no", "description": "Zwei Haushaltsteckdosen Schweiz - 3.7 kW", "fee": "yes", "motorcar": "yes", "network": "evpass", "opening_hours": "24/7", "operator": "Emoti", "parking:fee": "no", "socket:sev1011_t13": "2", "socket:sev1011_t23": "3.7 kW", "socket:type1": "2", "socket:type1:output": "7 kW", "socket:type2_cable": "2", "socket:type2_cable:output": "22 kW"}}, {"type": "node", "id": 9043519981, "lat": 46.1949421, "lon": 9.0244423, "tags": {"access": "yes", "amenity": "charging_station", "authentication:app": "yes", "authentication:contactless": "yes", "bicycle": "no", "capacity": "2", "covered": "no", "fee": "yes", "motorcar": "yes", "network": "evpass", "opening_hours": "24/7", "operator": "AMB", "parking:fee": "no", "socket:sev1011_t13": "2", "socket:sev1011_t23": "3.7 kW", "socket:type1": "2", "socket:type1:output": "7 kW", "socket:type2_cable": "2", "socket:type2_cable:output": "22 kW"}}, {"type": "node", "id": 9043519988, "lat": 46.1933579, "lon": 9.023752, "tags": {"access": "yes", "amenity": "charging_station", "authentication:app": "yes", "authentication:contactless": "yes", "bicycle": "no", "capacity": "2", "covered": "no", "description": "In Tiefgarage", "fee": "yes", "motorcar": "yes", "network": "evpass", "opening_hours": "24/7", "operator": "AMB", "parking:fee": "no", "socket:sev1011_t13": "2", "socket:sev1011_t23": "3.7 kW", "socket:type1": "2", "socket:type1:output": "3.7 kW", "socket:type2_cable": "2", "socket:type2_cable:output": "22 kW"}}, {"type": "node", "id": 9043525030, "lat": 46.1906408, "lon": 9.0218471, "tags": {"access": "yes", "amenity": "charging_station", "authentication:app": "yes", "authentication:contactless": "yes", "bicycle": "no", "capacity": "2", "covered": "no", "fee": "yes", "motorcar": "yes", "network": "evpass", "opening_hours": "24/7", "operator": "AMB", "parking:fee": "yes", "socket:sev1011_t13": "2", "socket:sev1011_t23": "3.7 kW", "socket:type1": "2", "socket:type1:output": "7 kW", "socket:type2_cable": "2", "socket:type2_cable:output": "22 kW"}}, {"type": "node", "id": 9043525073, "lat": 46.190485, "lon": 9.0232918, "tags": {"access": "yes", "amenity": "charging_station", "authentication:app": "yes", "authentication:contactless": "yes", "bicycle": "no", "capacity": "1", "covered": "no", "description": "Im Parkhaus, nicht Parkplatz oben", "fee": "yes", "motorcar": "yes", "network": "evpass", "opening_hours": "24/7", "parking:fee": "no", "socket:sev1011_t13": "1", "socket:sev1011_t23": "3.7 kW", "socket:type1": "1", "socket:type1:output": "7 kW", "socket:type2_cable": "1", "socket:type2_cable:output": "22 kW"}}, {"type": "node", "id": 9043679501, "lat": 46.1737838, "lon": 9.009548, "tags": {"access": "yes", "amenity": "charging_station", "authentication:app": "yes", "authentication:contactless": "yes", "bicycle": "no", "capacity": "2", "covered": "no", "fee": "yes", "motorcar": "yes", "network": "evpass", "opening_hours": "24/7", "parking:fee": "no", "socket:sev1011_t23": "2", "socket:sev1011_t23:output": "3.7 kW", "socket:type1": "2", "socket:type1:output": "7 kW", "socket:type2_cable": "2", "socket:type2_cable:output": "22 kW"}}, {"type": "node", "id": 9043857772, "lat": 46.17154, "lon": 9.0101214, "tags": {"access": "yes", "amenity": "charging_station", "authentication:app": "yes", "authentication:contactless": "yes", "bicycle": "no", "capacity": "2", "covered": "no", "fee": "yes", "motorcar": "yes", "network": "evpass", "opening_hours": "24/7", "parking:fee": "no", "socket:sev1011_t23": "1", "socket:sev1011_t23:output": "3.7 kW", "socket:type1": "1", "socket:type1:output": "7 kW", "socket:type2_cable": "1", "socket:type2_cable:output": "22 kW"}}, {"type": "node", "id": 9043857773, "lat": 46.171585, "lon": 9.0100918, "tags": {"access": "yes", "amenity": "charging_station", "authentication:app": "yes", "authentication:contactless": "yes", "bicycle": "no", "capacity": "2", "covered": "no", "fee": "yes", "motorcar": "yes", "network": "evpass", "opening_hours": "24/7", "parking:fee": "no", "socket:sev1011_t23": "1", "socket:sev1011_t23:output": "3.7 kW", "socket:type1": "1", "socket:type1:output": "7 kW", "socket:type2_cable": "1", "socket:type2_cable:output": "22 kW"}}, {"type": "node", "id": 9082560947, "lat": 46.2128035, "lon": 9.039597, "tags": {"access": "yes", "amenity": "charging_station", "authentication:app": "yes", "authentication:contactless": "yes", "bicycle": "no", "capacity": "2", "covered": "no", "fee": "yes", "motorcar": "yes", "network": "Swisscharge", "opening_hours": "24/7", "operator": "GOFAST", "operator:wikidata": "Q130426825", "parking:fee": "yes", "socket:chademo": "1", "socket:chademo:output": "50 kW", "socket:type2": "1", "socket:type2:output": "22 kW", "socket:type2_cable": "1", "socket:type2_cable:output": "43 kW", "socket:type2_combo": "1", "socket:type2_combo:output": "50 kW"}}, {"type": "node", "id": 9176236672, "lat": 46.3222885, "lon": 9.4098665, "tags": {"amenity": "charging_station", "bicycle": "yes", "capacity": "4"}}, {"type": "node", "id": 9421447041, "lat": 46.4460201, "lon": 9.5786184, "tags": {"access": "customers", "amenity": "charging_station", "bicycle": "no", "capacity": "1", "covered": "no", "description:de": "Geh\u00f6rt zu Gasthaus Alpenrose", "fee": "no", "motorcar": "yes", "opening_hours": "unknown", "parking:fee": "no", "socket:cee_red": "1", "socket:cee_red:output": "11 kW"}}, {"type": "node", "id": 9421468838, "lat": 46.4498663, "lon": 9.5536764, "tags": {"access": "customers", "amenity": "charging_station", "authentication:none": "no", "bicycle": "no", "capacity": "1", "covered": "no", "description:de": "Alle Elektrofahrzeuge", "fee": "no", "motorcar": "yes", "network": "Tesla Destination Charging", "opening_hours": "24/7", "parking:fee": "no", "socket:type2_cable": "1", "socket:type2_cable:output": "11 kW"}}, {"type": "node", "id": 9421468840, "lat": 46.4499043, "lon": 9.5536061, "tags": {"access": "customers", "amenity": "charging_station", "authentication:none": "no", "bicycle": "no", "capacity": "1", "covered": "no", "description:de": "Nur Tesla Fahrzeuge", "fee": "no", "motorcar": "yes", "network": "Tesla Destination Charging", "opening_hours": "24/7", "parking:fee": "no", "socket:type2_cable": "2", "socket:type2_cable:output": "11 kW"}}, {"type": "node", "id": 9507457699, "lat": 46.334251, "lon": 9.5371949, "tags": {"access": "yes", "amenity": "charging_station", "authentication:app": "yes", "authentication:contactless": "yes", "bicycle": "no", "capacity": "1", "covered": "no", "fee": "yes", "motorcar": "yes", "network": "evpass", "opening_hours": "24/7", "parking:fee": "no", "socket:type2_combo": "2", "socket:type2_combo:output": "66 kW"}}, {"type": "node", "id": 9663438180, "lat": 46.311122, "lon": 9.380738, "tags": {"amenity": "charging_station", "bicycle": "yes", "network": "DINAclub", "operator": "Repower", "operator:wikidata": "Q674712", "operator:wikipedia": "it:Repower", "website": "https://www.repower.com/it/dina/"}}, {"type": "node", "id": 9970818302, "lat": 46.3083306, "lon": 9.3857484, "tags": {"amenity": "charging_station", "bicycle": "yes", "description": "Komoot App for e-bike charging station in Italy https://www.komoot.com/collection/1840155", "network": "DINAclub", "network:website": "https://www.repower.com/it/dina/", "operator": "Repower", "operator:wikidata": "Q674712", "operator:wikipedia": "it:Repower"}}, {"type": "node", "id": 10058585313, "lat": 46.4620169, "lon": 9.1898496, "tags": {"access": "yes", "amenity": "charging_station", "operator": "evpass", "operator:wikidata": "Q113270804"}}, {"type": "node", "id": 10174060311, "lat": 46.137476, "lon": 9.4591548, "tags": {"access": "yes", "amenity": "charging_station", "brand": "Enel X", "brand:wikidata": "Q5376815", "name": "Enel X", "operator": "Enel X", "operator:wikidata": "Q5376815"}}, {"type": "node", "id": 10284244521, "lat": 46.2095249, "lon": 9.0266796, "tags": {"access": "yes", "amenity": "charging_station", "authentication:app": "yes", "authentication:contactless": "yes", "bicycle": "no", "brand": "Ionity", "brand:wikidata": "Q42717773", "capacity": "6", "covered": "no", "fee": "yes", "motorcar": "yes", "name": "IONITY Bellinzona Nord", "network": "Ionity", "opening_hours": "24/7", "operator": "Ionity", "parking:fee": "yes", "socket:type2_combo": "1", "socket:type2_combo:output": "350 kW"}}, {"type": "node", "id": 10284244522, "lat": 46.2095366, "lon": 9.0267128, "tags": {"access": "yes", "amenity": "charging_station", "authentication:app": "yes", "authentication:contactless": "yes", "bicycle": "no", "brand": "Ionity", "brand:wikidata": "Q42717773", "capacity": "6", "covered": "no", "fee": "yes", "motorcar": "yes", "name": "IONITY Bellinzona Nord", "network": "Ionity", "opening_hours": "24/7", "operator": "Ionity", "parking:fee": "yes", "socket:type2_combo": "1", "socket:type2_combo:output": "350 kW"}}, {"type": "node", "id": 10614824081, "lat": 46.2298406, "lon": 9.0663719, "tags": {"access": "yes", "amenity": "charging_station", "authentication:none": "yes", "bicycle": "no", "capacity": "1", "covered": "no", "fee": "no", "motorcar": "yes", "network": "evpass", "opening_hours": "24/7", "parking:fee": "no", "socket:sev1011_t23": "1", "socket:sev1011_t23:output": "3.7 kW", "socket:type1": "1", "socket:type1:output": "3.7 kW", "socket:type2_cable": "1", "socket:type2_cable:output": "22 kW"}}, {"type": "node", "id": 10614852437, "lat": 46.1680642, "lon": 9.0298809, "tags": {"access": "yes", "amenity": "charging_station", "authentication:app": "yes", "authentication:contactless": "yes", "bicycle": "yes", "capacity": "2", "covered": "no", "description": "Zwei Haushaltsteckdosen Schweiz 3.7 kW", "fee": "yes", "motorcar": "yes", "network": "evpass", "opening_hours": "24/7", "operator": "Emoti", "parking:fee": "no", "socket:sev1011_t23": "2", "socket:sev1011_t23:output": "3.7 kW", "socket:type1": "2", "socket:type1:output": "7.4 kW", "socket:type2_cable": "2", "socket:type2_cable:output": "22 kW"}}, {"type": "node", "id": 10891846073, "lat": 46.2053589, "lon": 9.0364111, "tags": {"access": "unknown", "amenity": "charging_station", "bicycle": "no", "capacity": "1", "covered": "no", "fee": "unknown", "fixme": "Various unknowns", "motorcar": "yes", "network": "unknown", "opening_hours": "unknown", "parking:fee": "unknown"}}, {"type": "node", "id": 10891846074, "lat": 46.2053648, "lon": 9.0364416, "tags": {"access": "unknown", "amenity": "charging_station", "bicycle": "no", "capacity": "1", "covered": "no", "fee": "unknown", "fixme": "Various unknowns", "motorcar": "yes", "network": "unknown", "opening_hours": "unknown", "parking:fee": "unknown"}}, {"type": "node", "id": 11034142896, "lat": 46.212972, "lon": 9.0456227, "tags": {"amenity": "charging_station", "brand": "bike-energy", "brand:wikidata": "Q67770877", "capacity": "4", "description": "Municipio Arbedo-Castione", "name": "bike-energy", "operator": "bike-energy", "operator:wikidata": "Q67770877"}}, {"type": "node", "id": 11071066659, "lat": 46.2932116, "lon": 9.3853583, "tags": {"amenity": "charging_station", "bicycle": "no", "brand": "Repower", "description": "Bar Moreschi - Stazione di Ricarica", "fee": "yes", "image": "https://lh3.googleusercontent.com/p/AF1QipPGuj9_dQ6ncCUSoXHyecZ9jdxRV_7HnXWMUYni=s1360-w1360-h1020", "motorcar": "yes", "network": "Ricarica 101", "operator": "Repower", "operator:wikidata": "Q674712", "operator:wikipedia": "it:Repower", "website": "https://www.repower.com/it/la-mobilita-elettrica/"}}, {"type": "node", "id": 11385191105, "lat": 46.1537228, "lon": 9.548859, "tags": {"access": "yes", "amenity": "charging_station", "bicycle": "yes", "network": "DINAclub", "operator": "Repower", "operator:wikidata": "Q674712", "operator:wikipedia": "it:Repower", "voltage": "230", "website": "https://www.repower.com/it/dina/"}}, {"type": "node", "id": 12082598113, "lat": 46.3361016, "lon": 9.119395, "tags": {"amenity": "charging_station"}}, {"type": "node", "id": 12246339059, "lat": 46.2325206, "lon": 9.0401173, "tags": {"amenity": "charging_station", "brand": "AMB", "capacity": "2", "fee": "yes", "socket:type2_combo": "2"}}, {"type": "node", "id": 12246339063, "lat": 46.2325651, "lon": 9.0401106}, {"type": "node", "id": 12246339069, "lat": 46.2325535, "lon": 9.0400727}, {"type": "node", "id": 12246339070, "lat": 46.2327782, "lon": 9.0399166}, {"type": "node", "id": 12246339071, "lat": 46.2327887, "lon": 9.0399546}, {"type": "node", "id": 12246339077, "lat": 46.2324863, "lon": 9.0401466, "tags": {"amenity": "charging_station", "brand": "AMB", "capacity": "2", "fee": "yes", "socket:type2_combo": "2"}}, {"type": "way", "id": 1323418861, "nodes": [12246339070, 12246339071, 12246339063, 12246339069, 12246339070], "tags": {"amenity": "charging_station", "brand": "Tesla", "capacity": "7", "fee": "yes", "motorcar": "yes", "name": "Supercharger Arbedo-Castione", "opening_hours": "24/7", "socket:type2_combo": "7", "socket:type2_combo:output": "250"}}]}