{"version": 0.6, "generator": "Overpass API 0.7.62.1 084b4234", "osm3s": {"timestamp_osm_base": "2024-11-20T22:05:08Z", "copyright": "The data included in this document is from www.openstreetmap.org. The data is made available under ODbL."}, "elements": [{"type": "node", "id": 1377735389, "lat": 43.7166718, "lon": 7.2567301, "tags": {"amenity": "charging_station", "capacity": "4", "operator": "prise de Nice"}}, {"type": "node", "id": 1780664600, "lat": 43.7050349, "lon": 7.2905852, "tags": {"amenity": "charging_station", "operator": "autobleu", "voltage": "220", "website": "autobleu.org"}}, {"type": "node", "id": 1780664603, "lat": 43.7090184, "lon": 7.2929297, "tags": {"amenity": "charging_station", "brand": "ChargePoint", "brand:wikidata": "Q5176149", "brand:wikipedia": "en:ChargePoint", "capacity": "4", "name": "ChargePoint", "opening_hours": "24/7", "operator": "Ville de Nice", "voltage": "220"}}, {"type": "node", "id": 1782857136, "lat": 43.7043682, "lon": 7.2689586, "tags": {"amenity": "charging_station", "operator": "autobleu", "voltage": "220", "website": "autobleu.org"}}, {"type": "node", "id": 2173957073, "lat": 43.7050226, "lon": 7.2865079, "tags": {"amenity": "charging_station", "capacity": "2", "website": "https://prisedenice.fr"}}, {"type": "node", "id": 2262899502, "lat": 43.6744092, "lon": 7.2264126, "tags": {"amenity": "charging_station", "website": "https://prisedenice.fr"}}, {"type": "node", "id": 2281081419, "lat": 43.6865212, "lon": 7.2262497, "tags": {"amenity": "charging_station", "capacity": "4", "website": "https://prisedenice.fr"}}, {"type": "node", "id": 2360710586, "lat": 43.6579457, "lon": 7.1666627, "tags": {"amenity": "charging_station", "capacity": "2"}}, {"type": "node", "id": 2515317473, "lat": 43.6995535, "lon": 7.2582631, "tags": {"amenity": "charging_station", "website": "https://prisedenice.fr"}}, {"type": "node", "id": 2857684099, "lat": 43.7099748, "lon": 7.2891069, "tags": {"amenity": "charging_station", "website": "https://prisedenice.fr"}}, {"type": "node", "id": 4357834799, "lat": 43.6036348, "lon": 7.0110567, "tags": {"access": "customers", "addr:city": "Mougins", "addr:country": "FR", "addr:housenumber": "205", "addr:postcode": "06250", "addr:street": "Avenue du Golf", "amenity": "charging_station", "brand": "Tesla Supercharger", "brand:wikidata": "Q17089620", "capacity": "4", "charge": "0,67 EUR/kWh", "fee": "yes", "motorcar": "yes", "name": "Mougins Supercharger", "opening_hours": "24/7", "operator": "Tesla, Inc.", "operator:wikidata": "Q478214", "short_name": "Tesla", "socket:tesla_supercharger": "4", "socket:tesla_supercharger:output": "150 kW", "socket:tesla_supercharger_ccs": "4", "socket:tesla_supercharger_ccs:output": "150 kW", "website": "https://www.tesla.com/findus/location/supercharger/mouginssupercharger"}}, {"type": "node", "id": 4496852236, "lat": 43.7004525, "lon": 7.2870124, "tags": {"amenity": "charging_station", "capacity": "4", "name": "Nice - Max Barel", "operator": "Auto Bleue"}}, {"type": "node", "id": 4944766793, "lat": 43.6664167, "lon": 7.1274004, "tags": {"access": "customers", "addr:city": "Cagnes-sur-Mer", "addr:country": "FR", "addr:housenumber": "119", "addr:postcode": "06800", "addr:street": "Avenue des Alpes", "amenity": "charging_station", "brand": "Tesla Supercharger", "brand:wikidata": "Q17089620", "capacity": "4", "charge": "0,67 EUR/kWh", "fee": "yes", "motorcar": "yes", "name": "Cagnes sur Mer Supercharger", "opening_hours": "24/7", "operator": "Tesla, Inc.", "operator:wikidata": "Q478214", "operator:wikipedia": "en:Tesla, Inc.", "short_name": "Tesla", "socket:tesla_supercharger": "4", "socket:tesla_supercharger:output": "150 kW", "socket:tesla_supercharger_ccs": "4", "socket:tesla_supercharger_ccs:output": "150 kW", "website": "https://www.tesla.com/findus/location/supercharger/cagnessurmersupercharger"}}, {"type": "node", "id": 5536483524, "lat": 43.7545448, "lon": 7.3970587, "tags": {"amenity": "charging_station", "amperage": "125", "authentication:app": "yes", "authentication:membership_card": "yes", "authentication:nfc": "yes", "capacity": "1", "charging_station:output": "50kW", "fee": "yes", "motorcar": "yes", "network": "Corri-dor", "note": "A8", "opening_hours": "24/7", "ref:EU:EVSE": "FR*E04*P*OAZS*184*_*_*_", "socket:chademo": "1", "socket:chademo:output": "50kW", "socket:type2": "1", "socket:type2:output": "43kW", "socket:type2_combo": "1", "socket:type2_combo:output": "50kW"}}, {"type": "node", "id": 5536483525, "lat": 43.7535841, "lon": 7.4199706, "tags": {"amenity": "charging_station", "amperage": "125", "authentication:app": "yes", "authentication:membership_card": "yes", "authentication:nfc": "yes", "capacity": "1", "charging_station:output": "50kW", "fee": "yes", "motorcar": "yes", "name": "Aire de Beausoleil", "network": "Corri-dor", "note": "A8", "opening_hours": "24/7", "operator": "Sodetrel Mobilit\u00e9", "ref:EU:EVSE": "FR*E04*P*OAZS*40*_*_*_", "socket:chademo": "1", "socket:chademo:output": "50kW", "socket:type2": "1", "socket:type2:output": "43kW", "socket:type2_combo": "1", "socket:type2_combo:output": "50kW"}}, {"type": "node", "id": 5620701303, "lat": 43.690232, "lon": 7.2442201, "tags": {"amenity": "charging_station", "capacity": "4", "motorcar": "yes", "operator": "AutoBleue"}}, {"type": "node", "id": 5843774630, "lat": 43.6241924, "lon": 7.0451987, "tags": {"addr:city": "Valbonne", "addr:place": "Parking Centre M\u00e9dical m\u00e9diath\u00e8que", "addr:postcode": "06560", "amenity": "charging_station", "capacity": "2", "fee": "yes", "motorcar": "yes", "name": "Valbonne Parking Garbeja\u00efre", "network": "WiiiZ", "opening_hours": "24/7", "operator": "Sodetrel", "owner": "CASA", "ref:EU:EVSE": "FR*A16*P*WIIZ*73*_*_*_", "socket:type2": "2", "socket:typee": "2", "website": "http://wiiiz.fr/portal/#/search"}}, {"type": "node", "id": 5843791634, "lat": 43.6096384, "lon": 7.0155548, "tags": {"addr:city": "Mougins", "addr:postcode": "06250", "addr:street": "All\u00e9e Pierre de Coubertin", "amenity": "charging_station", "capacity": "2", "fee": "yes", "motorcar": "yes", "name": "Mougins Parking Salle omnisports de la Font de l'Orme", "network": "WiiiZ", "opening_hours": "24/7", "operator": "Izivia", "operator:wikidata": "Q86671322", "owner": "CAPL", "ref:EU:EVSE": "FR*A16*P*WIIZ*47*_*_*_", "socket:type2": "2", "socket:typee": "2"}}, {"type": "node", "id": 5879878385, "lat": 43.549772, "lon": 7.0069924, "tags": {"addr:street": "Rue Brougham", "amenity": "charging_station", "authentication:app": "yes", "authentication:membership_card": "yes", "capacity": "2", "fee": "yes", "motorcar": "yes", "name": "Cannes Square Mistral", "network": "wiiiz", "note": "info non-reportees: authentication par QR code; puissance max 22; id_pdc", "opening_hours": "24/7", "operator": "Sodetrel", "owner": "CAPL", "ref": "FR*A18*P*WIIZ*8*_*_*_", "ref:EU:EVSE": "FR*A16*P*WIIZ*8*_*_*_", "socket:type2": "2", "socket:typee": "2", "source": "data.gouv.fr", "source:date": "2018-10-05"}}, {"type": "node", "id": 5905939284, "lat": 43.5775337, "lon": 7.0163609, "tags": {"amenity": "charging_station", "capacity": "2", "fee": "yes", "motorcar": "yes", "name": "Le Cannet Parking des Mouli\u00e8res", "network": "WiiiZ", "opening_hours": "24/7", "operator": "Izivia", "owner": "CAPL", "ref:EU:EVSE": "FR*A16*P*WIIZ*83*_*_*_", "socket:type2": "2", "socket:typee": "2"}}, {"type": "node", "id": 5916780871, "lat": 43.5876016, "lon": 7.0379015, "tags": {"amenity": "charging_station", "capacity": "2", "fee": "yes", "motorcar": "yes", "name": "Mougins Centre sportif de Mougins le Haut", "network": "WiiiZ", "opening_hours": "24/7", "operator": "Izivia", "owner": "CAPL", "ref:EU:EVSE": "FR*A16*P*WIIZ*45*_*_*_", "socket:type2": "2", "socket:typee": "2"}}, {"type": "node", "id": 5922730621, "lat": 43.5753867, "lon": 7.0185376, "tags": {"amenity": "charging_station", "capacity": "2", "fee": "yes", "motorcar": "yes", "name": "Le Cannet Parking Rue des Orangers", "network": "WiiiZ", "opening_hours": "24/7", "operator": "Izivia", "owner": "CAPL", "ref:EU:EVSE": "FR*A16*P*WIIZ*88*_*_*_", "socket:type2": "2", "socket:typee": "2"}}, {"type": "node", "id": 5922734283, "lat": 43.5929172, "lon": 7.0561043, "tags": {"amenity": "charging_station", "capacity": "4", "fixme": "access=private ?", "operator": "Wiiiz"}}, {"type": "node", "id": 5927307108, "lat": 43.605527, "lon": 7.0762031, "tags": {"addr:street": "Rue Henri Laugier", "amenity": "charging_station", "authentication:membership_card": "yes", "capacity": "2", "fee": "yes", "motorcar": "yes", "name": "Antibes Azur Arena", "network": "WiiiZ", "note": "info non-reportees: authentication par QR code; puissance max 22; id_pdc", "opening_hours": "24/7", "operator": "Sodetrel", "owner": "CASA", "ref": "FR*A16*P*WIIZ*11*_*_*_", "ref:EU:EVSE": "FR*A16*P*WIIZ*11*_*_*_", "socket:type2": "2", "socket:typee": "2", "source": "https://www.data.gouv.fr/fr/datasets/infrastructures-de-recharge-pour-vehicules-electriques-irve/", "source:date": "2018-10-05"}}, {"type": "node", "id": 6012540892, "lat": 43.5917753, "lon": 7.0360669, "tags": {"amenity": "charging_station", "capacity": "1", "description": "1x (AC + CCS + CHAdeMO)", "fee": "yes", "motorcar": "yes", "network": "WiiiZ", "network:wikidata": "Q81747336", "opening_hours": "24/7", "operator": "Izivia", "operator:wikidata": "Q86671322", "operator:wikipedia": "fr:Izivia"}}, {"type": "node", "id": 6032283566, "lat": 43.6252282, "lon": 7.0615618, "tags": {"amenity": "charging_station"}}, {"type": "node", "id": 6044832171, "lat": 43.568908, "lon": 7.1099466, "tags": {"addr:street": "Avenue Guy de Maupassant", "amenity": "charging_station", "amperage": "32", "authentication:membership_card": "yes", "authentication:none": "yes", "capacity": "2", "fee": "yes", "motorcar": "yes", "name": "Antibes Parking Maupassant", "network": "WiiiZ", "network:wikidata": "Q81747336", "opening_hours": "24/7", "operator": "Izivia", "operator:email": "sav@izivia.com", "operator:phone": "+33972668001", "operator:wikidata": "Q86671322", "owner": "CASA", "payment:credit_cards": "no", "payment:qr_code": "yes", "ref:EU:EVSE": "FR*A16*P*WIIZ*4*_*_*_", "socket:type2": "2", "socket:type2:output": "22 kW", "socket:typee": "2"}}, {"type": "node", "id": 6053377493, "lat": 43.5568762, "lon": 7.013914, "tags": {"addr:street": "Avenue Saint-Louis", "amenity": "charging_station", "authentication:app": "yes", "authentication:membership_card": "yes", "capacity": "2", "fee": "yes", "motorcar": "yes", "name": "Cannes Parking Saint-Louis", "network": "wiiiz", "note": "info non-reportees: authentication par QR code; puissance max 22; id_pdc", "opening_hours": "24/7", "operator": "Sodetrel", "owner": "CAPL", "ref:EU:EVSE": "FR*A16*P*WIIZ*1*_*_*_", "socket:type2": "2", "socket:typee": "2", "source": "data.gouv.fr", "source:date": "2018-10-05"}}, {"type": "node", "id": 6070652324, "lat": 43.5839868, "lon": 7.1233688, "tags": {"addr:street": "Avenue de Verdun", "amenity": "charging_station", "authentication:membership_card": "yes", "capacity": "4", "fee": "yes", "motorcar": "yes", "name": "Antibes Parking St Roch", "network": "WiiiZ", "note": "info non-reportees: authentication par QR code; puissance max 22; id_pdc", "opening_hours": "24/7", "operator": "Sodetrel", "owner": "CASA", "ref": "FR*A16*P*WIIZ*10*_*_*_", "ref:EU:EVSE": "FR*A16*P*WIIZ*10*_*_*_", "socket:type2": "2", "socket:typee": "2", "source": "https://www.data.gouv.fr/fr/datasets/infrastructures-de-recharge-pour-vehicules-electriques-irve/", "source:date": "2018-10-05"}}, {"type": "node", "id": 6087295094, "lat": 43.6403308, "lon": 7.0072379, "tags": {"addr:street": "Avenue Saint-Roch", "amenity": "charging_station", "authentication:membership_card": "yes", "capacity": "2", "fee": "yes", "motorcar": "yes", "name": "Valbonne Parking Hotel de Ville", "network": "WiiiZ", "note": "info non-reportees: authentication par QR code; puissance max 22; id_pdc", "opening_hours": "24/7", "operator": "Sodetrel", "owner": "CASA", "ref": "FR*A16*P*WIIZ*76*_*_*_", "ref:EU:EVSE": "FR*A16*P*WIIZ*76*_*_*_", "socket:type2": "2", "socket:typee": "2", "source": "https://www.data.gouv.fr/fr/datasets/infrastructures-de-recharge-pour-vehicules-electriques-irve/", "source:date": "2018-10-05"}}, {"type": "node", "id": 6087295095, "lat": 43.6218064, "lon": 7.0390597, "tags": {"amenity": "charging_station", "authentication:membership_card": "yes", "capacity": "2", "fee": "yes", "motorcar": "yes", "name": "Valbonne Place Bermond", "network": "WiiiZ", "note": "info non-reportees: authentication par QR code; puissance max 22; id_pdc", "opening_hours": "24/7", "operator": "Sodetrel", "owner": "CASA", "ref:EU:EVSE": "FR*A16*P*WIIZ*75*_*_*_", "socket:type2": "2", "socket:type2:output": "22 kW", "socket:typee": "2"}}, {"type": "node", "id": 6087295096, "lat": 43.642094, "lon": 7.006775, "tags": {"addr:street": "Parking Valis Bonna", "amenity": "charging_station", "authentication:membership_card": "yes", "capacity": "2", "fee": "yes", "motorcar": "yes", "name": "Valbonne Parking Valis Bonna", "network": "WiiiZ", "note": "info non-reportees: authentication par QR code; puissance max 22; id_pdc", "opening_hours": "24/7", "operator": "Sodetrel", "owner": "CASA", "ref": "FR*A16*P*WIIZ*74*_*_*_", "ref:EU:EVSE": "FR*A16*P*WIIZ*74*_*_*_", "socket:type2": "2", "socket:typee": "2", "source": "https://www.data.gouv.fr/fr/datasets/infrastructures-de-recharge-pour-vehicules-electriques-irve/", "source:date": "2018-10-05"}}, {"type": "node", "id": 6087295097, "lat": 43.686064, "lon": 7.106864, "tags": {"addr:street": "Rue des \u00c9coles", "amenity": "charging_station", "authentication:membership_card": "yes", "capacity": "2", "fee": "yes", "motorcar": "yes", "name": "La Colle-Sur-Loup Parking Straputicari", "network": "WiiiZ", "note": "info non-reportees: authentication par QR code; puissance max 22; id_pdc", "opening_hours": "24/7", "operator": "Sodetrel", "owner": "CASA", "ref": "FR*A16*P*WIIZ*72*_*_*_", "ref:EU:EVSE": "FR*A16*P*WIIZ*72*_*_*_", "socket:type2": "2", "socket:typee": "2", "source": "https://www.data.gouv.fr/fr/datasets/infrastructures-de-recharge-pour-vehicules-electriques-irve/", "source:date": "2018-10-05"}}, {"type": "node", "id": 6087295098, "lat": 43.685255, "lon": 7.099003, "tags": {"addr:street": "Boulervard Alex Rouberts", "amenity": "charging_station", "authentication:membership_card": "yes", "capacity": "2", "fee": "yes", "motorcar": "yes", "name": "La Colle-Sur-Loup Stade de Football", "network": "WiiiZ", "note": "info non-reportees: authentication par QR code; puissance max 22; id_pdc", "opening_hours": "24/7", "operator": "Sodetrel", "owner": "CASA", "ref": "FR*A16*P*WIIZ*71*_*_*_", "ref:EU:EVSE": "FR*A16*P*WIIZ*71*_*_*_", "socket:type2": "2", "socket:typee": "2", "source": "https://www.data.gouv.fr/fr/datasets/infrastructures-de-recharge-pour-vehicules-electriques-irve/", "source:date": "2018-10-05"}}, {"type": "node", "id": 6087295099, "lat": 43.627631, "lon": 7.09455, "tags": {"addr:street": "Chemin Neuf", "amenity": "charging_station", "authentication:membership_card": "yes", "capacity": "2", "fee": "yes", "motorcar": "yes", "name": "Biot Parking Village", "network": "WiiiZ", "note": "info non-reportees: authentication par QR code; puissance max 22; id_pdc", "opening_hours": "24/7", "operator": "Sodetrel", "owner": "CASA", "ref": "FR*A16*P*WIIZ*70*_*_*_", "ref:EU:EVSE": "FR*A16*P*WIIZ*70*_*_*_", "socket:type2": "2", "socket:typee": "2", "source": "https://www.data.gouv.fr/fr/datasets/infrastructures-de-recharge-pour-vehicules-electriques-irve/", "source:date": "2018-10-05"}}, {"type": "node", "id": 6087295100, "lat": 43.5782663, "lon": 7.1209237, "tags": {"addr:street": "Boulevard mar\u00e9chal foch", "amenity": "charging_station", "authentication:membership_card": "yes", "capacity": "2", "fee": "yes", "motorcar": "yes", "name": "Antibes Parking Foch", "network": "WiiiZ", "note": "info non-reportees: authentication par QR code; puissance max 22; id_pdc", "opening_hours": "24/7", "operator": "Sodetrel", "owner": "CASA", "ref": "FR*A16*P*WIIZ*69*_*_*_", "ref:EU:EVSE": "FR*A16*P*WIIZ*69*_*_*_", "socket:type2": "2", "socket:typee": "2", "source": "https://www.data.gouv.fr/fr/datasets/infrastructures-de-recharge-pour-vehicules-electriques-irve/", "source:date": "2018-10-05"}}, {"type": "node", "id": 6087295101, "lat": 43.6000595, "lon": 7.1218915, "tags": {"addr:street": "Chemin des Fr\u00e8res Garbero", "amenity": "charging_station", "authentication:membership_card": "yes", "capacity": "2", "fee": "yes", "motorcar": "yes", "name": "Antibes Parking Garbero", "network": "WiiiZ", "note": "info non-reportees: authentication par QR code; puissance max 22; id_pdc", "opening_hours": "24/7", "operator": "Sodetrel", "owner": "CASA", "ref": "FR*A16*P*WIIZ*68*_*_*_", "ref:EU:EVSE": "FR*A16*P*WIIZ*68*_*_*_", "socket:type2": "2", "socket:typee": "2", "source": "https://www.data.gouv.fr/fr/datasets/infrastructures-de-recharge-pour-vehicules-electriques-irve/", "source:date": "2018-10-05"}}, {"type": "node", "id": 6087295102, "lat": 43.6679188, "lon": 7.0433999, "tags": {"addr:street": "Chemin de la Basse Ferme", "amenity": "charging_station", "authentication:membership_card": "yes", "capacity": "2", "fee": "yes", "motorcar": "yes", "name": "Roquefort-les-Pins Parking Intermarch\u00e9", "network": "WiiiZ", "note": "info non-reportees: authentication par QR code; puissance max 22; id_pdc", "opening_hours": "24/7", "operator": "Sodetrel", "owner": "CASA", "ref": "FR*A16*P*WIIZ*59*_*_*_", "ref:EU:EVSE": "FR*A16*P*WIIZ*59*_*_*_", "socket:type2": "2", "socket:typee": "2", "source": "https://www.data.gouv.fr/fr/datasets/infrastructures-de-recharge-pour-vehicules-electriques-irve/", "source:date": "2018-10-05"}}, {"type": "node", "id": 6087295103, "lat": 43.6656235, "lon": 7.0490552, "tags": {"addr:street": "Route de Valbonne", "amenity": "charging_station", "authentication:membership_card": "yes", "capacity": "2", "fee": "yes", "motorcar": "yes", "name": "Roquefort-les-Pins Parking Centre Village", "network": "WiiiZ", "note": "info non-reportees: authentication par QR code; puissance max 22; id_pdc", "opening_hours": "24/7", "operator": "Sodetrel", "owner": "CASA", "ref": "FR*A16*P*WIIZ*58*_*_*_", "ref:EU:EVSE": "FR*A16*P*WIIZ*58*_*_*_", "socket:type2": "2", "socket:typee": "2", "source": "https://www.data.gouv.fr/fr/datasets/infrastructures-de-recharge-pour-vehicules-electriques-irve/", "source:date": "2018-10-05"}}, {"type": "node", "id": 6087295104, "lat": 43.569863, "lon": 7.074144, "tags": {"addr:street": "Rue Alexandre Louce", "amenity": "charging_station", "authentication:membership_card": "yes", "capacity": "2", "fee": "yes", "motorcar": "yes", "name": "Vallauris Parking Louce", "network": "WiiiZ", "note": "info non-reportees: authentication par QR code; puissance max 22; id_pdc", "opening_hours": "24/7", "operator": "Sodetrel", "owner": "CASA", "ref": "FR*A16*P*WIIZ*57*_*_*_", "ref:EU:EVSE": "FR*A16*P*WIIZ*57*_*_*_", "socket:type2": "2", "socket:typee": "2", "source": "https://www.data.gouv.fr/fr/datasets/infrastructures-de-recharge-pour-vehicules-electriques-irve/", "source:date": "2018-10-05"}}, {"type": "node", "id": 6087295105, "lat": 43.5716104, "lon": 7.0776002, "tags": {"addr:street": "Avenue des Mimosas", "amenity": "charging_station", "authentication:membership_card": "yes", "capacity": "2", "fee": "yes", "motorcar": "yes", "name": "Vallauris Parking Allinei", "network": "WiiiZ", "note": "info non-reportees: authentication par QR code; puissance max 22; id_pdc", "opening_hours": "24/7", "operator": "Sodetrel", "owner": "CASA", "ref:EU:EVSE": "FR*A16*P*WIIZ*56*_*_*_", "socket:type2": "2", "socket:typee": "2", "source": "https://www.data.gouv.fr/fr/datasets/infrastructures-de-recharge-pour-vehicules-electriques-irve/", "source:date": "2018-10-05"}}, {"type": "node", "id": 6087295106, "lat": 43.5648831, "lon": 7.0722038, "tags": {"addr:street": "Avenue des Fr\u00e8res Roustan", "amenity": "charging_station", "authentication:membership_card": "yes", "capacity": "2", "fee": "yes", "motorcar": "yes", "name": "Vallauris Parking Plage", "network": "WiiiZ", "note": "info non-reportees: authentication par QR code; puissance max 22; id_pdc", "opening_hours": "24/7", "operator": "Sodetrel", "owner": "CASA", "ref": "FR*A16*P*WIIZ*55*_*_*_", "ref:EU:EVSE": "FR*A16*P*WIIZ*55*_*_*_", "socket:type2": "2", "socket:typee": "2", "source": "https://www.data.gouv.fr/fr/datasets/infrastructures-de-recharge-pour-vehicules-electriques-irve/", "source:date": "2018-10-05"}}, {"type": "node", "id": 6087295107, "lat": 43.57942, "lon": 7.0560634, "tags": {"addr:street": "Avenue de l'Hopital", "amenity": "charging_station", "authentication:membership_card": "yes", "capacity": "2", "fee": "yes", "motorcar": "yes", "name": "Vallauris Parking Mairie", "network": "WiiiZ", "note": "info non-reportees: authentication par QR code; puissance max 22; id_pdc", "opening_hours": "24/7", "operator": "Sodetrel", "owner": "CASA", "ref": "FR*A16*P*WIIZ*54*_*_*_", "ref:EU:EVSE": "FR*A16*P*WIIZ*54*_*_*_", "socket:type2": "2", "socket:typee": "2", "source": "https://www.data.gouv.fr/fr/datasets/infrastructures-de-recharge-pour-vehicules-electriques-irve/", "source:date": "2018-10-05"}}, {"type": "node", "id": 6087295108, "lat": 43.658475, "lon": 7.120687, "tags": {"addr:street": "Place G\u00e9n\u00e9ral de Gaulle", "amenity": "charging_station", "authentication:membership_card": "yes", "capacity": "2", "fee": "yes", "motorcar": "yes", "name": "Villeneuve-Loubet Parking G\u00e9n\u00e9ral De Gaulle", "network": "WiiiZ", "note": "info non-reportees: authentication par QR code; puissance max 22; id_pdc", "opening_hours": "24/7", "operator": "Sodetrel", "owner": "CASA", "ref": "FR*A16*P*WIIZ*53*_*_*_", "ref:EU:EVSE": "FR*A16*P*WIIZ*53*_*_*_", "socket:type2": "2", "socket:typee": "2", "source": "https://www.data.gouv.fr/fr/datasets/infrastructures-de-recharge-pour-vehicules-electriques-irve/", "source:date": "2018-10-05"}}, {"type": "node", "id": 6087295109, "lat": 43.637202, "lon": 7.139475, "tags": {"addr:street": "Boulevard \u00c9ric Tabarly", "amenity": "charging_station", "authentication:membership_card": "yes", "capacity": "2", "fee": "yes", "motorcar": "yes", "name": "Villeneuve-Loubet Parking Fighi\u00e8res", "network": "WiiiZ", "note": "info non-reportees: authentication par QR code; puissance max 22; id_pdc", "opening_hours": "24/7", "operator": "Sodetrel", "owner": "CASA", "ref": "FR*A16*P*WIIZ*52*_*_*_", "ref:EU:EVSE": "FR*A16*P*WIIZ*52*_*_*_", "socket:type2": "2", "socket:typee": "2", "source": "https://www.data.gouv.fr/fr/datasets/infrastructures-de-recharge-pour-vehicules-electriques-irve/", "source:date": "2018-10-05"}}, {"type": "node", "id": 6087295110, "lat": 43.656188, "lon": 7.12692, "tags": {"addr:street": "All\u00e9e Ren\u00e9 Cassin", "amenity": "charging_station", "authentication:membership_card": "yes", "capacity": "4", "fee": "yes", "motorcar": "yes", "name": "Villeneuve-Loubet Parking M\u00e9diath\u00e8que", "network": "WiiiZ", "note": "info non-reportees: authentication par QR code; puissance max 22; id_pdc", "opening_hours": "24/7", "operator": "Sodetrel", "owner": "CASA", "ref": "FR*A16*P*WIIZ*51*_*_*_", "ref:EU:EVSE": "FR*A16*P*WIIZ*51*_*_*_", "socket:type2": "4", "socket:typee": "4", "source": "https://www.data.gouv.fr/fr/datasets/infrastructures-de-recharge-pour-vehicules-electriques-irve/", "source:date": "2018-10-05"}}, {"type": "node", "id": 6087295111, "lat": 43.7185937, "lon": 7.0632809, "tags": {"addr:street": "Parking de la Madeleine", "amenity": "charging_station", "authentication:membership_card": "yes", "capacity": "2", "fee": "yes", "motorcar": "yes", "name": "Tourrettes-sur-Loup Parking de la Madeleine", "network": "WiiiZ", "note": "info non-reportees: authentication par QR code; puissance max 22; id_pdc", "opening_hours": "24/7", "operator": "Sodetrel", "owner": "CASA", "ref": "FR*A16*P*WIIZ*50*_*_*_", "ref:EU:EVSE": "FR*A16*P*WIIZ*50*_*_*_", "socket:type2": "2", "socket:typee": "2", "source": "https://www.data.gouv.fr/fr/datasets/infrastructures-de-recharge-pour-vehicules-electriques-irve/", "source:date": "2018-10-05"}}, {"type": "node", "id": 6087295115, "lat": 43.7208231, "lon": 6.9776007, "tags": {"addr:street": "Parking de la Ferrage", "amenity": "charging_station", "authentication:membership_card": "yes", "capacity": "2", "fee": "yes", "motorcar": "yes", "name": "Gourdon Village - Parking de la Ferrage", "network": "WiiiZ", "note": "info non-reportees: authentication par QR code; puissance max 22; id_pdc", "opening_hours": "24/7", "operator": "Sodetrel", "owner": "CASA", "ref": "FR*A16*P*WIIZ*36*_*_*_", "ref:EU:EVSE": "FR*A16*P*WIIZ*36*_*_*_", "socket:type2": "2", "socket:typee": "2", "source": "https://www.data.gouv.fr/fr/datasets/infrastructures-de-recharge-pour-vehicules-electriques-irve/", "source:date": "2018-10-05"}}, {"type": "node", "id": 6087295116, "lat": 43.7014157, "lon": 6.98938, "tags": {"addr:street": "Place de la Tour", "amenity": "charging_station", "authentication:membership_card": "yes", "capacity": "2", "fee": "yes", "motorcar": "yes", "name": "Le Bar-sur-Loup Parking Place de la Tour", "network": "WiiiZ", "note": "info non-reportees: authentication par QR code; puissance max 22; id_pdc", "opening_hours": "24/7", "operator": "Sodetrel", "owner": "CASA", "ref": "FR*A16*P*WIIZ*33*_*_*_", "ref:EU:EVSE": "FR*A16*P*WIIZ*33*_*_*_", "socket:type2": "2", "socket:typee": "2", "source": "https://www.data.gouv.fr/fr/datasets/infrastructures-de-recharge-pour-vehicules-electriques-irve/", "source:date": "2018-10-05"}}, {"type": "node", "id": 6087295121, "lat": 43.667044, "lon": 6.9854992, "tags": {"addr:street": "Rond-Point de la fontaine neuve", "amenity": "charging_station", "authentication:membership_card": "yes", "capacity": "2", "fee": "yes", "motorcar": "yes", "name": "Opio Parking centre commercial Font Neuve", "network": "WiiiZ", "note": "info non-reportees: authentication par QR code; puissance max 22; id_pdc", "opening_hours": "24/7", "operator": "Sodetrel", "owner": "CASA", "ref": "FR*A16*P*WIIZ*7*_*_*_", "ref:EU:EVSE": "FR*A16*P*WIIZ*7*_*_*_", "socket:type2": "2", "socket:typee": "2", "source": "https://www.data.gouv.fr/fr/datasets/infrastructures-de-recharge-pour-vehicules-electriques-irve/", "source:date": "2018-10-05"}}, {"type": "node", "id": 6087295122, "lat": 43.575956, "lon": 7.053818, "tags": {"addr:street": "Avenue J\u00e9rome Massier", "amenity": "charging_station", "authentication:membership_card": "yes", "capacity": "2", "fee": "yes", "motorcar": "yes", "name": "Vallauris Parking Stade", "network": "WiiiZ", "note": "info non-reportees: authentication par QR code; puissance max 22; id_pdc", "opening_hours": "24/7", "operator": "Sodetrel", "owner": "CASA", "ref": "FR*A16*P*WIIZ*5*_*_*_", "ref:EU:EVSE": "FR*A16*P*WIIZ*5*_*_*_", "socket:type2": "2", "socket:typee": "2", "source": "https://www.data.gouv.fr/fr/datasets/infrastructures-de-recharge-pour-vehicules-electriques-irve/", "source:date": "2018-10-05"}}, {"type": "node", "id": 6087295124, "lat": 43.580115, "lon": 7.120677, "tags": {"addr:street": "Place G\u00e9n\u00e9ral de Gaulle", "amenity": "charging_station", "authentication:membership_card": "yes", "capacity": "2", "fee": "yes", "motorcar": "yes", "name": "Antibes Place G\u00e9n\u00e9ral de Gaulle", "network": "WiiiZ", "note": "info non-reportees: authentication par QR code; puissance max 22; id_pdc", "opening_hours": "24/7", "operator": "Sodetrel", "owner": "CASA", "ref": "FR*A16*P*WIIZ*2*_*_*_", "ref:EU:EVSE": "FR*A16*P*WIIZ*2*_*_*_", "socket:type2": "2", "socket:typee": "2", "source": "https://www.data.gouv.fr/fr/datasets/infrastructures-de-recharge-pour-vehicules-electriques-irve/", "source:date": "2018-10-05"}}, {"type": "node", "id": 6087608269, "lat": 43.549031, "lon": 7.030538, "tags": {"addr:street": "Rue Latour Maubourg", "amenity": "charging_station", "authentication:app": "yes", "authentication:membership_card": "yes", "capacity": "2", "fee": "yes", "motorcar": "yes", "name": "Cannes Parking Latour Maubourg", "network": "wiiiz", "note": "info non-reportees: authentication par QR code; puissance max 22; id_pdc", "opening_hours": "24/7", "operator": "Sodetrel", "owner": "CAPL", "ref": "FR*A18*P*WIIZ*24*_*_*_", "ref:EU:EVSE": "FR*A16*P*WIIZ*24*_*_*_", "socket:type2": "2", "socket:typee": "2", "source": "data.gouv.fr", "source:date": "2018-10-05"}}, {"type": "node", "id": 6087608271, "lat": 43.5513201, "lon": 7.00874, "tags": {"addr:street": "Rue Saint-Dizier", "amenity": "charging_station", "authentication:app": "yes", "authentication:membership_card": "yes", "capacity": "2", "fee": "yes", "motorcar": "yes", "name": "Cannes Parking St Dizier", "network": "wiiiz", "note": "info non-reportees: authentication par QR code; puissance max 22; id_pdc", "opening_hours": "24/7", "operator": "Sodetrel", "owner": "CAPL", "ref": "FR*A18*P*WIIZ*9*_*_*_", "ref:EU:EVSE": "FR*A16*P*WIIZ*9*_*_*_", "socket:type2": "2", "socket:typee": "2", "source": "data.gouv.fr", "source:date": "2018-10-05"}}, {"type": "node", "id": 6087608272, "lat": 43.562816, "lon": 7.005574, "tags": {"addr:street": "Avenue des Brousailles", "amenity": "charging_station", "authentication:app": "yes", "authentication:membership_card": "yes", "capacity": "2", "fee": "yes", "motorcar": "yes", "name": "Cannes Parking Brousailles (H\u00f4pital)", "network": "wiiiz", "note": "info non-reportees: authentication par QR code; puissance max 22; id_pdc", "opening_hours": "24/7", "operator": "Sodetrel", "owner": "CAPL", "ref": "FR*A18*P*WIIZ*6*_*_*_", "ref:EU:EVSE": "FR*A16*P*WIIZ*6*_*_*_", "socket:type2": "2", "socket:typee": "2", "source": "data.gouv.fr", "source:date": "2018-10-05"}}, {"type": "node", "id": 6380276246, "lat": 43.6663634, "lon": 7.1247275, "tags": {"amenity": "charging_station", "capacity": "4", "fee": "yes", "name": "Cagnes-sur-Mer Supercharger", "note": "4 places de plus pres de l'Avenue des Alpes", "operator": "Tesla"}}, {"type": "node", "id": 6496290423, "lat": 43.698023, "lon": 7.2519273, "tags": {"amenity": "charging_station", "capacity": "4"}}, {"type": "node", "id": 6534835186, "lat": 43.6167103, "lon": 7.071437, "tags": {"amenity": "charging_station", "capacity": "2"}}, {"type": "node", "id": 6565098800, "lat": 43.5441483, "lon": 7.0344334, "tags": {"amenity": "charging_station"}}, {"type": "node", "id": 6737229946, "lat": 43.5919107, "lon": 7.0364392, "tags": {"access": "yes", "amenity": "charging_station", "brand": "Ionity", "brand:wikidata": "Q42717773", "brand:wikipedia": "en:IONITY", "capacity": "6", "fee": "yes", "motorcar": "yes", "name": "IONITY Br\u00e9gui\u00e8res Nord", "network": "Ionity", "opening_hours": "24/7", "operator": "Ionity", "owner": "Ionity", "parking:fee": "no", "payment:app": "yes", "payment:cards": "yes", "payment:contactless": "yes", "ref:EU:EVSE": "FR*ION*P4032", "socket:type2_combo": "6", "socket:type2_combo:output": "350 kW", "start_date": "2019"}}, {"type": "node", "id": 6812202471, "lat": 43.6467536, "lon": 7.1198131, "tags": {"access": "private", "amenity": "charging_station", "capacity": "6", "socket:type2": "6", "socket:type2:output": "3.6 kW", "socket:typee": "6", "socket:typee:output": "3.6 kW"}}, {"type": "node", "id": 6812202472, "lat": 43.6460549, "lon": 7.1212947, "tags": {"access": "private", "amenity": "charging_station", "capacity": "6", "level": "-1", "socket:type2": "6", "socket:type2:output": "3.6 kW", "socket:typee": "6", "socket:typee:output": "2.9 kW"}}, {"type": "node", "id": 6812202473, "lat": 43.6462093, "lon": 7.1217319, "tags": {"access": "private", "amenity": "charging_station", "capacity": "6", "socket:type2": "6", "socket:type2:output": "3.6 kW", "socket:typee": "6", "socket:typee:output": "3.6 kW"}}, {"type": "node", "id": 6815436247, "lat": 43.743623, "lon": 7.3191878, "tags": {"amenity": "charging_station"}}, {"type": "node", "id": 6934762818, "lat": 43.5865837, "lon": 7.1197685, "tags": {"amenity": "charging_station", "capacity": "4", "operator": "Effia"}}, {"type": "node", "id": 6965518380, "lat": 43.702143, "lon": 7.3092999, "tags": {"amenity": "charging_station", "motorcar": "yes"}}, {"type": "node", "id": 6972683929, "lat": 43.6238129, "lon": 7.0619777, "tags": {"access": "private", "amenity": "charging_station", "capacity": "1", "covered": "yes", "level": "-1"}}, {"type": "node", "id": 6972780441, "lat": 43.6224526, "lon": 7.0583817, "tags": {"access": "private", "amenity": "charging_station", "covered": "yes"}}, {"type": "node", "id": 7044863088, "lat": 43.6708227, "lon": 7.1908692, "tags": {"amenity": "charging_station"}}, {"type": "node", "id": 7232728457, "lat": 43.6459942, "lon": 7.1214464, "tags": {"access": "private", "amenity": "charging_station", "capacity": "6", "level": "-1", "socket:typee": "6", "socket:typee:output": "2.9 kW"}}, {"type": "node", "id": 7235364223, "lat": 43.5692031, "lon": 7.0158091, "tags": {"amenity": "charging_station", "capacity": "2", "fee": "yes", "motorcar": "yes", "name": "Le Cannet Parking Grignan", "network": "WiiiZ", "opening_hours": "24/7", "operator": "Izivia", "owner": "CAPL", "ref:EU:EVSE": "FR*A16*P*WIIZ*84*_*_*_", "socket:type2": "2", "socket:typee": "2"}}, {"type": "node", "id": 7235401953, "lat": 43.5547974, "lon": 7.0222179, "tags": {"amenity": "charging_station", "capacity": "2", "fee": "yes", "motorcar": "yes", "name": "Cannes Parking Braille", "network": "WiiiZ", "opening_hours": "24/7", "operator": "Izivia", "operator:wikidata": "Q86671322", "owner": "CAPL", "ref:EU:EVSE": "FR*A16*P*WIIZ*40*_*_*_", "socket:type2": "2", "socket:typee": "2"}}, {"type": "node", "id": 7236685140, "lat": 43.576396, "lon": 7.006267, "tags": {"access": "yes", "amenity": "charging_station", "capacity": "2", "fee": "yes", "motorcar": "yes", "name": "Le Cannet Parking Stade Jeanpierre", "network": "WiiiZ", "opening_hours": "24/7", "operator": "Izivia", "owner": "CAPL", "ref:EU:EVSE": "FR*A16*P*WIIZ*86*_*_*_", "socket:type2": "2", "socket:typee": "2"}}, {"type": "node", "id": 7254762159, "lat": 43.6010909, "lon": 6.9973783, "tags": {"amenity": "charging_station", "capacity": "2", "fee": "yes", "motorcar": "yes", "name": "Mougins Parking du Moulin de la Croix", "network": "WiiiZ", "opening_hours": "24/7", "operator": "Izivia", "owner": "CAPL", "ref:EU:EVSE": "FR*A16*P*WIIZ*44*_*_*_", "socket:type2": "2", "socket:typee": "2"}}, {"type": "node", "id": 7254777480, "lat": 43.6177697, "lon": 7.0746606, "tags": {"access": "yes", "amenity": "charging_station", "authentication:none": "yes", "capacity": "2", "email": "sav@izivia.com", "fee": "yes", "motorcar": "yes", "network": "WiiiZ", "opening_hours": "24/7", "operator": "Izivia", "owner": "CASA", "payment:credit_cards": "no", "phone": "+33972668001", "ref": "MAT-005004", "ref:EU:EVSE": "FR*A16*PWIIZ1911", "socket:type2": "2", "socket:type2:output": "22 kW", "socket:typee": "2", "socket:typee:output": "3 kW", "socket:typee:voltage": "230 V", "source": "data.gouv.fr:Etalab - 05/2022"}}, {"type": "node", "id": 7254778505, "lat": 43.580824, "lon": 6.998574, "tags": {"amenity": "charging_station", "capacity": "2", "fee": "yes", "motorcar": "yes", "name": "Mougins Parking piscine des Campeli\u00e8res", "network": "WiiiZ", "opening_hours": "24/7", "operator": "Izivia", "owner": "CAPL", "ref:EU:EVSE": "FR*A16*P*WIIZ*48*_*_*_", "socket:type2": "2", "socket:typee": "2"}}, {"type": "node", "id": 7284306724, "lat": 43.625148, "lon": 7.054841, "tags": {"amenity": "charging_station", "capacity": "2", "fee": "yes", "operator": "Wiiiz"}}, {"type": "node", "id": 7306751764, "lat": 43.739492, "lon": 7.400442, "tags": {"amenity": "charging_station", "capacity": "2", "fee": "yes", "motorcar": "yes", "network": "Aliz\u00e9 Libert\u00e9", "opening_hours": "24/7", "operator": "Bouygues \u00c9nergies et Services", "owner": "CARF", "ref:EU:EVSE": "FR*A22*P06150*001", "socket:type2": "2", "socket:typee": "2"}}, {"type": "node", "id": 7314626147, "lat": 43.744525, "lon": 7.426915, "tags": {"amenity": "charging_station", "capacity": "2", "fee": "yes", "motorcar": "yes", "network": "Aliz\u00e9 Libert\u00e9", "opening_hours": "24/7", "operator": "Bouygues \u00c9nergies et Services", "operator:wikidata": "Q3046208", "owner": "CARF", "ref:EU:EVSE": "FR*A22*P06012*003", "socket:type2": "2", "socket:typee": "2"}}, {"type": "node", "id": 7314626148, "lat": 43.738728, "lon": 7.416627, "tags": {"amenity": "charging_station", "capacity": "2", "fee": "yes", "motorcar": "yes", "network": "Aliz\u00e9 Libert\u00e9", "opening_hours": "24/7", "operator": "Bouygues \u00c9nergies et Services", "operator:wikidata": "Q3046208", "owner": "CARF", "ref:EU:EVSE": "FR*A22*P06012*002", "socket:type2": "2", "socket:typee": "2"}}, {"type": "node", "id": 7674797767, "lat": 43.6984901, "lon": 7.2556037, "tags": {"amenity": "charging_station", "capacity": "5"}}, {"type": "node", "id": 7812464671, "lat": 43.6582732, "lon": 7.163511, "tags": {"access": "customers", "amenity": "charging_station", "capacity": "2", "fee": "yes", "name": "Station Cagnes-sur-Mer G\u00e9n\u00e9ral Leclerc", "ref": "MAT-007144"}}, {"type": "node", "id": 7812464672, "lat": 43.6533003, "lon": 7.1518108, "tags": {"amenity": "charging_station", "operator": "Prise de Nice"}}, {"type": "node", "id": 8328235981, "lat": 43.5750909, "lon": 7.0215438, "tags": {"amenity": "charging_station", "capacity": "2", "fee": "yes", "level": "-1", "motorcar": "yes", "name": "Le Cannet Parking Val d'Azur", "network": "WiiiZ", "opening_hours": "24/7", "operator": "Izivia", "owner": "CAPL", "socket:type2": "2", "socket:typee": "2"}}, {"type": "node", "id": 8378802756, "lat": 43.7277198, "lon": 7.1864346, "tags": {"access": "customers", "addr:city": "Nice", "addr:country": "FR", "addr:housenumber": "606", "addr:postcode": "06200", "addr:street": "Boulevard du Mercantour", "amenity": "charging_station", "brand": "Tesla Supercharger", "brand:wikidata": "Q17089620", "capacity": "16", "charge": "0,67 EUR/kWh", "fee": "yes", "motorcar": "yes", "name": "Nice supercharger", "opening_hours": "24/7", "operator": "Tesla, Inc.", "operator:wikidata": "Q478214", "short_name": "Tesla", "socket:tesla_supercharger_ccs": "16", "socket:tesla_supercharger_ccs:output": "250 kW", "source": "survey", "website": "https://www.tesla.com/findus/location/supercharger/nicesupercharger"}}, {"type": "node", "id": 8420694849, "lat": 43.6015485, "lon": 7.0706865, "tags": {"amenity": "charging_station", "level": "0", "motorcar": "yes"}}, {"type": "node", "id": 8592829205, "lat": 43.6656409, "lon": 7.1825255, "tags": {"amenity": "charging_station", "capacity": "2"}}, {"type": "node", "id": 8626330888, "lat": 43.5958068, "lon": 7.0918608, "tags": {"amenity": "charging_station", "authentication:membership_card": "yes", "capacity": "2", "fee": "yes", "name": "Wiiiz", "opening_hours": "24/7"}}, {"type": "node", "id": 9008592672, "lat": 43.5721432, "lon": 7.0014225, "tags": {"amenity": "charging_station", "authentication:membership_card": "yes", "brand": "ChargePoint", "brand:wikidata": "Q5176149", "capacity": "2", "fee": "yes", "level": "0", "motorcar": "yes", "name": "ChargePoint", "operator": "ChargePoint", "operator:wikidata": "Q5176149", "socket:chademo": "2", "socket:type2_combo": "2"}}, {"type": "node", "id": 9008592673, "lat": 43.5723773, "lon": 7.0011556, "tags": {"amenity": "charging_station", "authentication:membership_card": "yes", "brand:wikidata": "Q5176149", "capacity": "4", "fee": "yes", "level": "1", "motorcar": "yes", "name": "ChargePoint", "operator": "Centre Commercial E. Leclerc", "socket:chademo": "4", "socket:type2_combo": "4"}}, {"type": "node", "id": 9018140879, "lat": 43.573202, "lon": 7.1251314, "tags": {"access": "yes", "amenity": "charging_station", "capacity": "2", "fee": "yes", "name": "WiiiZ Parking Ponteil", "network": "WiiiZ", "operator": "Sodetrel"}}, {"type": "node", "id": 9060365817, "lat": 43.6636667, "lon": 7.1720295, "tags": {"access": "customers", "amenity": "charging_station", "authentication:membership_card": "yes", "authentication:none": "no", "capacity": "2", "name": "Prise de Nice - Cagnes-sur-Mer - Parking Val Fleuri", "operator": "Prise de Nice", "parking:fee": "yes", "socket:type2": "2", "socket:type2:output": "22 kW", "socket:typee": "2", "socket:typee:output": "3.6 kW"}}, {"type": "node", "id": 9341256494, "lat": 43.7214468, "lon": 6.9773886, "tags": {"amenity": "charging_station", "bicycle": "yes", "brand": "bike-energy", "brand:wikidata": "Q67770877", "description": "Station de recharge VAE + gonflage + outillage", "name": "bike-energy", "operator": "bike-energy", "operator:wikidata": "Q67770877"}}, {"type": "node", "id": 9630820012, "lat": 43.697813, "lon": 7.2635569, "tags": {"amenity": "charging_station", "wikimedia_commons": "File:Recharge de voiture \u00e9lectrique all\u00e9e \u00c9dith Piaf (Nice) en mars 2022.jpg"}}, {"type": "node", "id": 9687570089, "lat": 43.6571244, "lon": 7.1991385, "tags": {"amenity": "charging_station", "description": "niveau P0 all\u00e9e A A34-A52", "fee": "no", "name": "niveau P0 all\u00e9e A A34-A52"}}, {"type": "node", "id": 9766929901, "lat": 43.6230996, "lon": 7.068701, "tags": {"amenity": "charging_station", "capacity": "3", "operator": "Dream Energy"}}, {"type": "node", "id": 9929333917, "lat": 43.7867349, "lon": 7.2762081, "tags": {"amenity": "charging_station"}}, {"type": "node", "id": 9996916023, "lat": 43.6229432, "lon": 7.0517603, "tags": {"access": "yes", "amenity": "charging_station", "capacity": "4", "fee": "yes", "name": "Valbonne Parking Dojo", "operator": "WiiiZ"}}, {"type": "node", "id": 10147314698, "lat": 43.7262951, "lon": 7.2553963, "tags": {"amenity": "charging_station", "capacity": "2", "operator": "metropole nice cote d'azur"}}, {"type": "node", "id": 10147314699, "lat": 43.7263581, "lon": 7.2553817, "tags": {"amenity": "charging_station", "capacity": "2", "operator": "m\u00e9tropole nice cote d'azur"}}, {"type": "node", "id": 10147314700, "lat": 43.7264185, "lon": 7.2553728, "tags": {"amenity": "charging_station", "capacity": "2", "operator": "metropole nice cote d'azur"}}, {"type": "node", "id": 10166313429, "lat": 43.5893291, "lon": 7.1181377}, {"type": "node", "id": 10166313430, "lat": 43.5892683, "lon": 7.1181013}, {"type": "node", "id": 10166313431, "lat": 43.5892175, "lon": 7.1181457}, {"type": "node", "id": 10166313432, "lat": 43.5892822, "lon": 7.118179}, {"type": "node", "id": 10166521502, "lat": 43.7498624, "lon": 7.1446415, "tags": {"amenity": "charging_station", "capacity": "2"}}, {"type": "node", "id": 11006037268, "lat": 43.6178622, "lon": 7.0746974, "tags": {"access": "yes", "amenity": "charging_station", "authentication:none": "yes", "capacity": "2", "email": "sav@izivia.com", "fee": "yes", "motorcar": "yes", "network": "WiiiZ", "opening_hours": "24/7", "operator": "Izivia", "owner": "WiiiZ", "payment:credit_cards": "no", "phone": "+33972668001", "ref": "MAT-005005", "ref:EU:EVSE": "FR*A16*PWIIZ1921", "socket:type2": "2", "socket:type2:output": "22 kW", "socket:typee": "2", "socket:typee:output": "3 kW", "socket:typee:voltage": "230 V", "source": "data.gouv.fr:Etalab - 05/2022"}}, {"type": "node", "id": 11006037269, "lat": 43.6183897, "lon": 7.0749043, "tags": {"amenity": "charging_station", "authentication:none": "yes", "capacity": "2", "email": "sav@izivia.com", "fee": "yes", "motorcar": "yes", "network": "WiiiZ", "opening_hours": "24/7", "operator": "Izivia", "owner": "WiiiZ", "payment:credit_cards": "no", "phone": "+33972668001", "ref": "MAT 021236", "ref:EU:EVSE": "FR*A16*PWIIZ13312", "socket:chademo": "1", "socket:chademo:output": "50 kW", "socket:type2_cable": "1", "socket:type2_cable:output": "43 kW", "socket:type2_combo": "1", "socket:type2_combo:output": "50 kW", "source": "data.gouv.fr:Etalab - 05/2022"}}, {"type": "node", "id": 11010920279, "lat": 43.6957197, "lon": 7.2696067, "tags": {"access": "yes", "amenity": "charging_station", "capacity": "2", "covered": "no", "manufacturer": "Schneider Electric", "operator": "EVlink", "source": "survey", "wheelchair": "yes"}}, {"type": "node", "id": 11010920280, "lat": 43.6957069, "lon": 7.2693664, "tags": {"access": "yes", "amenity": "charging_station", "capacity": "2", "covered": "no", "manufacturer": "Schneider Electric", "operator": "EVlink", "wheelchair": "yes"}}, {"type": "node", "id": 11017915616, "lat": 43.6993571, "lon": 7.2795531, "tags": {"amenity": "charging_station", "capacity": "2"}}, {"type": "node", "id": 11017926020, "lat": 43.6993678, "lon": 7.2796273, "tags": {"amenity": "charging_station", "capacity": "2", "manufacturer": "Schneider Electric"}}, {"type": "node", "id": 11017926718, "lat": 43.6993625, "lon": 7.2795911, "tags": {"amenity": "charging_station", "capacity": "2"}}, {"type": "node", "id": 11021998130, "lat": 43.6950144, "lon": 7.2779753, "tags": {"amenity": "charging_station", "capacity": "2", "operator": "Prise de Nice", "survey:date": "2013-07-03", "wheelchair": "yes"}}, {"type": "node", "id": 11021999290, "lat": 43.6950329, "lon": 7.2777886, "tags": {"amenity": "charging_station", "capacity": "2", "operator": "Prise de Nice", "survey:date": "2023-07-03", "wheelchair": "yes"}}, {"type": "node", "id": 11023061625, "lat": 43.5833128, "lon": 7.1087724, "tags": {"amenity": "charging_station", "name": "Wiiz"}}, {"type": "node", "id": 11109169575, "lat": 43.6580845, "lon": 7.1702342, "tags": {"amenity": "charging_station", "authentication:none": "true", "email": "web@freshmile.com", "fee": "no", "network": "Freshmile", "opening_hours": "24/7", "operator": "Freshmile", "operator:wikidata": "Q111209120", "phone": "+33 3 69 24 67 32", "ref": "WU01S8EWX9", "reservation": "no", "socket:type2": "yes", "socket:type2_cable": "no", "socket:typee": "yes", "start_date": "2022-04-05"}}, {"type": "node", "id": 11109169577, "lat": 43.658197, "lon": 7.142548, "tags": {"amenity": "charging_station", "authentication:none": "true", "email": "info@chargepoint.com", "fee": "no", "network": "CGED CAGNES", "opening_hours": "Mo 06:30-19:00,Tu 06:30-19:00,We 06:30-19:00,Th 06:30-19:00,Fr 06:30-19:00", "ref": "FRCPIE6605175", "reservation": "no", "socket:type2": "yes", "socket:type2_cable": "no", "start_date": "2022-10-12"}}, {"type": "node", "id": 11109169581, "lat": 43.628931, "lon": 7.133592, "tags": {"access": "yes", "amenity": "charging_station", "authentication:none": "true", "capacity": "2", "covered": "no", "email": "sav@izivia.com", "fee": "yes", "network": "WIIIZ", "opening_hours": "24/7", "operator": "Sodetrel", "owner:ref:FR:SIREN": "240600585", "phone": "0972668001", "ref": "FR*SOD*S*WIIZ*99*1*_*_", "reservation": "no", "socket:type2": "yes", "socket:typee": "yes", "start_date": "2020-02-18"}}, {"type": "node", "id": 11109169584, "lat": 43.668879, "lon": 6.988249, "tags": {"amenity": "charging_station", "authentication:none": "true", "email": "info@chargepoint.com", "fee": "no", "network": "GERANIUMS OPIO BORNE 1", "opening_hours": "24/7", "ref": "FRCPIE6755595", "reservation": "no", "socket:type2": "yes", "socket:type2_cable": "no", "start_date": "2023-07-24"}}, {"type": "node", "id": 11109169588, "lat": 43.6721282, "lon": 7.2028597, "tags": {"amenity": "charging_station", "authentication:none": "true", "email": "web@freshmile.com", "fee": "no", "network": "Freshmile", "opening_hours": "24/7", "operator": "Freshmile", "operator:wikidata": "Q111209120", "phone": "+33 3 69 24 67 32", "ref": "ICCUFQUYS4", "reservation": "no", "socket:type2": "yes", "socket:type2_cable": "no", "socket:typee": "yes", "start_date": "2022-10-18"}}, {"type": "node", "id": 11109169593, "lat": 43.624772, "lon": 7.030741, "tags": {"amenity": "charging_station", "authentication:none": "true", "email": "sav@izivia.com", "fee": "no", "network": "WIIIZ", "opening_hours": "24/7", "operator": "Sodetrel", "owner:ref:FR:SIREN": "240600585", "phone": "0972668001", "ref": "FR*SOD*S*WIIZ*116*1*_*_", "reservation": "no", "socket:type2": "yes", "socket:typee": "yes", "start_date": "2020-12-21"}}, {"type": "node", "id": 11109169594, "lat": 43.623628, "lon": 7.044712, "tags": {"amenity": "charging_station", "authentication:none": "true", "email": "sav@izivia.com", "fee": "no", "network": "WIIIZ", "opening_hours": "24/7", "operator": "Izivia", "owner:ref:FR:SIREN": "240600585", "phone": "0972668001", "ref": "FR*SOD*S*WIIZ*147*1*_*_", "reservation": "no", "socket:chademo": "yes", "socket:type2": "yes", "socket:type2_combo": "yes", "start_date": "2022-05-24"}}, {"type": "node", "id": 11109169603, "lat": 43.589499, "lon": 7.12429, "tags": {"amenity": "charging_station", "authentication:none": "true", "email": "sav@izivia.com", "fee": "no", "network": "WIIIZ", "opening_hours": "24/7", "operator": "Izivia", "owner:ref:FR:SIREN": "240600585", "phone": "0972668001", "ref": "FR*SOD*S*WIIZ*151*1*_*_", "reservation": "no", "socket:type2": "yes", "socket:typee": "yes", "start_date": "2022-07-11"}}, {"type": "node", "id": 11109169604, "lat": 43.5871748, "lon": 7.118697, "tags": {"amenity": "charging_station", "authentication:none": "true", "email": "secretariat@lumi-in.fr", "fee": "no", "network": "LUMI'IN", "opening_hours": "24/7", "operator": "LUMI'IN", "owner:ref:FR:SIREN": "807940069", "phone": "754374751", "ref": "34e85270-ea64-11ed-a05b-0242ac120003", "reservation": "no", "socket:type2": "yes", "socket:type2_cable": "no", "start_date": "2023-05-04"}}, {"type": "node", "id": 11109169605, "lat": 43.589299, "lon": 7.118111, "tags": {"amenity": "charging_station", "authentication:none": "true", "email": "sav@izivia.com", "fee": "no", "network": "WIIIZ", "opening_hours": "24/7", "operator": "Sodetrel", "owner:ref:FR:SIREN": "240600585", "phone": "0972668001", "ref": "FR*SOD*S*WIIZ*109*1*_*_", "reservation": "no", "socket:type2": "yes", "socket:typee": "yes", "start_date": "2020-11-26"}}, {"type": "node", "id": 11109169608, "lat": 43.571659, "lon": 7.101737, "tags": {"amenity": "charging_station", "authentication:none": "true", "email": "sav@izivia.com", "fee": "no", "network": "WIIIZ", "opening_hours": "24/7", "operator": "Izivia", "owner:ref:FR:SIREN": "240600585", "phone": "0972668001", "ref": "FR*SOD*S*WIIZ*132*1*_*_", "reservation": "no", "socket:type2": "yes", "socket:typee": "yes", "start_date": "2021-11-17"}}, {"type": "node", "id": 11109169610, "lat": 43.62566, "lon": 7.054662, "tags": {"amenity": "charging_station", "authentication:none": "yes", "fee": "yes", "motorcar": "yes", "network": "WiiiZ", "network:wikidata": "Q81747336", "opening_hours": "24/7", "operator": "Izivia", "operator:email": "sav@izivia.com", "operator:phone": "+33972668001", "operator:wikidata": "Q86671322", "owner": "WiiiZ", "payment:credit_cards": "no", "ref": "FR*SOD*S*WIIZ*98*1*_*_", "ref:EU:EVSE": "FR*A16*PWIIZ9812", "reservation": "no", "socket:type2": "1", "socket:typee": "1", "start_date": "2020-02-12"}}, {"type": "node", "id": 11109169611, "lat": 43.597408, "lon": 7.067345, "tags": {"amenity": "charging_station", "authentication:none": "true", "capacity": "2", "email": "sav@izivia.com", "fee": "no", "network": "WIIIZ", "opening_hours": "24/7", "operator": "Izivia", "owner:ref:FR:SIREN": "240600585", "phone": "0972668001", "ref": "FR*SOD*S*WIIZ*199*1*_*_", "reservation": "no", "socket:type2": "yes", "socket:typee": "yes", "start_date": "2023-03-08"}}, {"type": "node", "id": 11109169614, "lat": 43.6136856, "lon": 7.1248312, "tags": {"amenity": "charging_station", "authentication:none": "true", "email": "web@freshmile.com", "fee": "no", "network": "Freshmile", "opening_hours": "24/7", "operator": "Freshmile SAS", "phone": "0369246732", "ref": "C7FO07OXBQ", "reservation": "no", "socket:type2": "yes", "socket:type2_cable": "no", "socket:typee": "yes", "start_date": "2023-01-31"}}, {"type": "node", "id": 11109169616, "lat": 43.6023265, "lon": 7.0880539, "tags": {"amenity": "charging_station", "authentication:none": "true", "email": "advenir@zeborne.com", "fee": "no", "network": "TOYOTA ANTIBES- NOVELLIPSE", "opening_hours": "Mo-Sa 09:00-19:00, Su 10:00-19:00", "operator": "ZEBORNE", "owner:ref:FR:SIREN": "827876251", "phone": "0252072597", "ref": "60012", "reservation": "yes", "socket:type2": "yes", "start_date": "2021-04-29"}}, {"type": "node", "id": 11109169617, "lat": 43.570407, "lon": 7.021517, "tags": {"amenity": "charging_station", "authentication:none": "true", "email": "sav@izivia.com", "fee": "no", "network": "WIIIZ", "opening_hours": "24/7", "operator": "Izivia", "owner:ref:FR:SIREN": "240600585", "phone": "0972668001", "ref": "FR*SOD*S*WIIZ*189*1*_*_", "reservation": "no", "socket:type2": "yes", "socket:typee": "yes", "start_date": "2022-08-12"}}, {"type": "node", "id": 11109169618, "lat": 43.576079, "lon": 7.012564, "tags": {"amenity": "charging_station", "authentication:none": "true", "email": "advenir@zeborne.com", "fee": "no", "network": "TOYOTA LE CANNET - STAR AUTO", "opening_hours": "Mo-Sa 08:30-19:00", "operator": "ZEBORNE", "owner:ref:FR:SIREN": "315044321", "phone": "0252072597", "ref": "66599", "reservation": "yes", "socket:type2": "yes", "socket:type2_combo": "yes", "start_date": "2021-07-22"}}, {"type": "node", "id": 11109169628, "lat": 43.590169, "lon": 7.003423, "tags": {"amenity": "charging_station", "authentication:none": "true", "email": "sav@izivia.com", "fee": "no", "network": "WIIIZ", "opening_hours": "24/7", "operator": "Izivia", "owner:ref:FR:SIREN": "240600585", "phone": "0972668001", "ref": "FR*SOD*S*WIIZ*232*1*_*_", "reservation": "no", "socket:type2": "yes", "socket:typee": "yes", "start_date": "2023-06-16"}}, {"type": "node", "id": 11109169630, "lat": 43.583708, "lon": 6.997921, "tags": {"amenity": "charging_station", "authentication:none": "true", "email": "sav@izivia.com", "fee": "no", "network": "WIIIZ", "opening_hours": "24/7", "operator": "Izivia", "owner:ref:FR:SIREN": "240600585", "phone": "0972668001", "ref": "FR*SOD*S*WIIZ*137*1*_*_", "reservation": "no", "socket:type2": "yes", "socket:typee": "yes", "start_date": "2022-04-05"}}, {"type": "node", "id": 11109169640, "lat": 43.553686, "lon": 7.025539, "tags": {"amenity": "charging_station", "authentication:none": "true", "brand": "Wiiiz", "email": "sav@izivia.com", "fee": "no", "network": "WIIIZ", "opening_hours": "24/7", "operator": "Sodetrel", "owner:ref:FR:SIREN": "240600585", "phone": "0972668001", "ref": "FR*SOD*S*WIIZ*110*1*_*_", "reservation": "no", "socket:type2": "yes", "socket:typee": "yes", "start_date": "2021-01-27"}}, {"type": "node", "id": 11109169641, "lat": 43.53673, "lon": 7.03772, "tags": {"amenity": "charging_station", "authentication:none": "true", "email": "sav@izivia.com", "fee": "no", "network": "WIIIZ", "opening_hours": "24/7", "operator": "Izivia", "owner:ref:FR:SIREN": "240600585", "phone": "0972668001", "ref": "FR*SOD*S*WIIZ*143*1*_*_", "reservation": "no", "socket:type2": "yes", "socket:typee": "yes", "start_date": "2022-04-21"}}, {"type": "node", "id": 11109169642, "lat": 43.5397, "lon": 7.03597, "tags": {"amenity": "charging_station", "authentication:none": "true", "email": "sav@izivia.com", "fee": "no", "network": "WIIIZ", "opening_hours": "24/7", "operator": "Izivia", "owner:ref:FR:SIREN": "240600585", "phone": "0972668001", "ref": "FR*SOD*S*WIIZ*142*1*_*_", "reservation": "no", "socket:type2": "yes", "socket:typee": "yes", "start_date": "2022-07-28"}}, {"type": "node", "id": 11109169643, "lat": 43.543026, "lon": 7.038457, "tags": {"amenity": "charging_station", "authentication:none": "true", "email": "sav@izivia.com", "fee": "no", "network": "WIIIZ", "opening_hours": "24/7", "operator": "Sodetrel", "owner:ref:FR:SIREN": "240600585", "phone": "0972668001", "ref": "FR*SOD*S*WIIZ*112*1*_*_", "reservation": "no", "socket:type2": "yes", "socket:typee": "yes", "start_date": "2020-12-21"}}, {"type": "node", "id": 11109169737, "lat": 43.705356, "lon": 7.2917546, "tags": {"amenity": "charging_station", "authentication:none": "true", "email": "web@freshmile.com", "fee": "no", "network": "Freshmile", "opening_hours": "24/7", "operator": "Freshmile SAS", "phone": "0369246732", "ref": "YGNJTREMMH", "reservation": "no", "socket:type2": "yes", "socket:type2_cable": "no", "socket:typee": "yes", "start_date": "2022-02-14"}}, {"type": "node", "id": 11109169738, "lat": 43.7060726, "lon": 7.2909152, "tags": {"amenity": "charging_station", "authentication:none": "true", "email": "tanayelectricite@hotmail.com", "fee": "no", "network": "Riviera Car Center", "opening_hours": "24/7", "operator": "TANAY Electricit\u00e9", "owner:ref:FR:SIREN": "421334566", "phone": "0600000000", "ref": "RCC-NICE-01-DC-PKGCLIENT", "reservation": "no", "socket:type2": "yes", "socket:type2_cable": "no", "socket:type2_combo": "yes", "start_date": "2022-10-11"}}, {"type": "node", "id": 11109169739, "lat": 43.704066, "lon": 7.2607943, "tags": {"amenity": "charging_station", "authentication:none": "true", "email": "supervision-ev.france@totalenergies.com", "fee": "no", "network": "INTERPARKING", "opening_hours": "24/7", "operator": "TotalEnergies Marketing France", "owner:ref:FR:SIREN": "692051113", "phone": "03568009", "ref": "FRIPKNGTH", "reservation": "no", "socket:type2": "yes", "socket:typee": "yes", "start_date": "2023-01-09"}}, {"type": "node", "id": 11109169744, "lat": 43.70119, "lon": 7.121963, "tags": {"amenity": "charging_station", "authentication:none": "true", "email": "sav@izivia.com", "fee": "no", "network": "WIIIZ", "opening_hours": "24/7", "operator": "Sodetrel", "owner:ref:FR:SIREN": "240600585", "phone": "0972668001", "ref": "FR*SOD*S*WIIZ*128*1*_*_", "reservation": "no", "socket:type2": "yes", "socket:typee": "yes", "start_date": "2021-07-05"}}, {"type": "node", "id": 11109169746, "lat": 43.6853, "lon": 7.19705, "tags": {"amenity": "charging_station", "authentication:none": "true", "email": "web@freshmile.com", "fee": "no", "network": "Freshmile", "opening_hours": "24/7", "operator": "Freshmile SAS", "phone": "0369246732", "ref": "YSGFNL", "reservation": "no", "socket:type2": "yes", "socket:type2_cable": "no", "socket:typee": "yes", "start_date": "2020-01-09"}}, {"type": "node", "id": 11109169747, "lat": 43.6967734, "lon": 7.1921074, "tags": {"amenity": "charging_station", "authentication:none": "true", "email": "info@electromaps.com", "fee": "no", "network": "CLUB HIPPIQUE DE NICE", "opening_hours": "24/7", "operator": "electromaps", "owner:ref:FR:SIREN": "501380570", "ref": "d642bc84-c3e4-4813-be28-38feb316f9ff", "reservation": "no", "socket:chademo": "yes", "socket:type2": "yes", "socket:typee": "yes"}}, {"type": "node", "id": 11109169748, "lat": 43.703258, "lon": 7.195802, "tags": {"amenity": "charging_station", "authentication:none": "true", "email": "supervision-ev.france@totalenergies.com", "fee": "no", "network": "WARNING", "opening_hours": "Mo-Fr 07:00-17:30", "operator": "TotalEnergies Marketing France", "owner:ref:FR:SIREN": "562013771", "phone": "0483568009", "ref": "FRTCBP00389", "reservation": "no", "socket:type2": "yes", "socket:typee": "yes", "start_date": "2021-06-08"}}, {"type": "node", "id": 11109169753, "lat": 43.7718429, "lon": 7.2012429, "tags": {"amenity": "charging_station", "authentication:none": "true", "email": "secretariat@lumi-in.fr", "fee": "no", "network": "LUMI'IN", "opening_hours": "24/7", "operator": "LUMI'IN", "owner:ref:FR:SIREN": "807940069", "phone": "0754374751", "ref": "f5fc2930-f303-11ed-a05b-0242ac120003", "reservation": "yes", "socket:type2": "yes", "socket:type2_cable": "no", "start_date": "2023-05-15"}}, {"type": "node", "id": 11109169754, "lat": 43.77, "lon": 7.2, "tags": {"amenity": "charging_station", "authentication:none": "true", "email": "secretariat@lumi-in.fr", "fee": "no", "network": "LUMI'IN", "opening_hours": "24/7", "operator": "LUMI'IN", "owner:ref:FR:SIREN": "807940069", "phone": "0754374751", "ref": "4f3433e4-aeb8-4c48-9301-097b84cefc73", "reservation": "no", "socket:type2": "yes", "start_date": "2022-09-08"}}, {"type": "node", "id": 11109175863, "lat": 43.611925, "lon": 7.016626, "tags": {"amenity": "charging_station", "authentication:none": "yes", "email": "e-mobility@sap.com", "fee": "no", "network": "SAP LABS FRANCE", "opening_hours": "Mo-Fr 8:00-18:00", "operator": "SAP LABS FRANCE", "owner:ref:FR:SIREN": "419855127", "phone": "0492286200", "reservation": "no", "socket:chademo": "yes", "socket:type2": "yes", "socket:type2_cable": "1", "socket:type2_combo": "yes"}}, {"type": "node", "id": 11134787849, "lat": 43.6043216, "lon": 7.0910557, "tags": {"amenity": "charging_station", "capacity": "10", "name": "Carrefour Energies", "socket:type2_combo": "4", "socket:type2_combo:output": "300 kW"}}, {"type": "node", "id": 11176152492, "lat": 43.5697818, "lon": 7.1141413, "tags": {"access": "yes", "amenity": "charging_station", "capacity": "2", "covered": "no", "fee": "yes", "man_made": "charge_point", "operator": "Wiiiz"}}, {"type": "node", "id": 11274630076, "lat": 43.7284476, "lon": 7.3623077, "tags": {"access": "customers", "amenity": "charging_station"}}, {"type": "node", "id": 11903214695, "lat": 43.6671965, "lon": 7.2108108, "tags": {"access": "permit", "amenity": "charging_station", "fee": "no", "operator": "A\u00e9roports Nice C\u00f4te d\u2019Azur"}}, {"type": "node", "id": 11918062910, "lat": 43.7023815, "lon": 7.287984, "tags": {"amenity": "charging_station", "capacity": "3"}}, {"type": "node", "id": 12064461050, "lat": 43.7023204, "lon": 7.2881935, "tags": {"amenity": "charging_station", "capacity": "2"}}, {"type": "node", "id": 12077090331, "lat": 43.6655916, "lon": 7.2102178}, {"type": "node", "id": 12077090332, "lat": 43.665607, "lon": 7.210342}, {"type": "node", "id": 12077090333, "lat": 43.6654959, "lon": 7.2103682}, {"type": "node", "id": 12077090334, "lat": 43.6654805, "lon": 7.2102441}, {"type": "node", "id": 12157906172, "lat": 43.6815398, "lon": 7.1893267}, {"type": "node", "id": 12157906173, "lat": 43.6815093, "lon": 7.1893064}, {"type": "node", "id": 12157906174, "lat": 43.6814217, "lon": 7.1893449}, {"type": "node", "id": 12157906175, "lat": 43.6814296, "lon": 7.1893801}, {"type": "node", "id": 12157961703, "lat": 43.6743738, "lon": 7.189863}, {"type": "node", "id": 12157961704, "lat": 43.6743754, "lon": 7.1898392}, {"type": "node", "id": 12157961705, "lat": 43.6742674, "lon": 7.1898265}, {"type": "node", "id": 12157961706, "lat": 43.6742645, "lon": 7.1898501}, {"type": "node", "id": 12157961707, "lat": 43.678213, "lon": 7.1884981}, {"type": "node", "id": 12157961708, "lat": 43.6782258, "lon": 7.1885079}, {"type": "node", "id": 12157961709, "lat": 43.6781872, "lon": 7.1886184}, {"type": "node", "id": 12157961710, "lat": 43.6781729, "lon": 7.1886081}, {"type": "node", "id": 12250153124, "lat": 43.7164962, "lon": 7.0589423, "tags": {"access": "yes", "amenity": "charging_station", "bicycle": "yes", "brand": "bike-energy", "brand:wikidata": "Q67770877", "fee": "no", "name": "bike-energy", "operator": "bike-energy", "operator:wikidata": "Q67770877"}}, {"type": "node", "id": 12250153125, "lat": 43.7221991, "lon": 7.1110956, "tags": {"amenity": "charging_station", "bicycle": "yes", "brand": "bike-energy", "brand:wikidata": "Q67770877", "fee": "no", "name": "bike-energy", "operator": "bike-energy", "operator:wikidata": "Q67770877"}}, {"type": "node", "id": 12299055411, "lat": 43.7019311, "lon": 7.2598329, "tags": {"amenity": "charging_station", "website": "https://prisedenice.fr"}}, {"type": "node", "id": 12312281372, "lat": 43.7058433, "lon": 7.2910699, "tags": {"amenity": "charging_station", "capacity": "2"}}, {"type": "node", "id": 12312293832, "lat": 43.7059164, "lon": 7.2897738, "tags": {"amenity": "charging_station", "bicycle": "yes", "capacity": "4", "fee": "yes"}}, {"type": "node", "id": 12312422828, "lat": 43.7425058, "lon": 7.3113875, "tags": {"amenity": "charging_station", "capacity": "2", "fee": "yes"}}, {"type": "node", "id": 12314150105, "lat": 43.6627706, "lon": 7.1950386, "tags": {"amenity": "charging_station", "bicycle": "yes", "capacity": "2", "fee": "yes"}}, {"type": "node", "id": 12314277971, "lat": 43.6605495, "lon": 7.1676051, "tags": {"access": "yes", "amenity": "charging_station", "bicycle": "yes", "capacity": "4", "fee": "yes"}}, {"type": "node", "id": 12314357191, "lat": 43.6582372, "lon": 7.1473956, "tags": {"amenity": "charging_station", "capacity": "27", "fee": "yes"}}, {"type": "node", "id": 12314570003, "lat": 43.6114839, "lon": 7.1263193, "tags": {"amenity": "charging_station", "bicycle": "yes", "capacity": "2", "covered": "yes", "fee": "yes"}}, {"type": "node", "id": 12315329958, "lat": 43.5707836, "lon": 7.1111205, "tags": {"access": "yes", "amenity": "charging_station", "bicycle": "yes", "capacity": "4", "fee": "yes"}}, {"type": "node", "id": 12315329960, "lat": 43.5707611, "lon": 7.1119106, "tags": {"amenity": "charging_station", "capacity": "2", "fee": "yes"}}, {"type": "node", "id": 12315441943, "lat": 43.5713777, "lon": 7.1115253, "tags": {"amenity": "charging_station", "capacity": "2"}}, {"type": "node", "id": 12320147568, "lat": 43.7922738, "lon": 7.379972, "tags": {"access": "yes", "amenity": "charging_station", "bicycle": "yes", "capacity": "2", "covered": "yes", "fee": "no"}}, {"type": "node", "id": 12320194070, "lat": 43.6979427, "lon": 7.258917, "tags": {"amenity": "charging_station", "website": "https://www.prisedenice.fr"}}, {"type": "node", "id": 12323435462, "lat": 43.7450619, "lon": 7.4290434, "tags": {"amenity": "charging_station"}}, {"type": "node", "id": 12323435467, "lat": 43.7266639, "lon": 7.4113206, "tags": {"amenity": "charging_station"}}, {"type": "node", "id": 12324119513, "lat": 43.6007536, "lon": 7.090962, "tags": {"amenity": "charging_station", "capacity": "2", "operator": "WiiiZ"}}, {"type": "way", "id": 1111044575, "nodes": [10166313429, 10166313430, 10166313431, 10166313432, 10166313429], "tags": {"access": "yes", "amenity": "charging_station", "bicycle": "no", "capacity": "2", "check_date": "2023-07-08", "fee": "yes", "manufacturer": "Schneider Electric", "motorcar": "yes", "motorcycle": "yes", "network": "WiiiZ", "network:wikidata": "Q81747336", "nev": "yes", "operator": "Izivia", "operator:wikidata": "Q86671322", "socket:type2": "2", "socket:type2:output": "22 kW", "socket:type2:voltage": "400", "socket:typee": "2", "socket:typee:current": "14", "socket:typee:output": "3 kW", "socket:typee:voltage": "230"}}, {"type": "way", "id": 1304104819, "nodes": [12077090331, 12077090332, 12077090333, 12077090334, 12077090331], "tags": {"access": "customers", "amenity": "charging_station", "capacity": "10"}}, {"type": "way", "id": 1313516683, "nodes": [12157906172, 12157906173, 12157906174, 12157906175, 12157906172], "tags": {"amenity": "charging_station", "capacity": "2", "operator": "Prise de nice"}}, {"type": "way", "id": 1313517441, "nodes": [12157961703, 12157961704, 12157961705, 12157961706, 12157961703], "tags": {"amenity": "charging_station", "operator": "Prise de nice"}}, {"type": "way", "id": 1313517442, "nodes": [12157961707, 12157961708, 12157961709, 12157961710, 12157961707], "tags": {"amenity": "charging_station", "operator": "Prise de nice"}}]}