{"version": 0.6, "generator": "Overpass API 0.7.62.1 084b4234", "osm3s": {"timestamp_osm_base": "2024-11-20T16:41:00Z", "copyright": "The data included in this document is from www.openstreetmap.org. The data is made available under ODbL."}, "elements": [{"type": "node", "id": 8381749718, "lat": 41.0639873, "lon": 15.2518934, "tags": {"access": "yes", "amenity": "charging_station", "bicycle": "yes", "capacity": "4", "description": "Ricarica e-bike 3 Kw", "fee": "no", "motorcar": "yes", "name": "Colonnina ricarica", "operator": "Free charge EU domestic plug"}}, {"type": "node", "id": 8785276599, "lat": 41.2944302, "lon": 15.1575197, "tags": {"amenity": "charging_station", "brand": "Enel", "brand:wikidata": "Q651222", "brand:wikipedia": "en:Enel", "name": "Enel"}}, {"type": "node", "id": 10794812095, "lat": 41.0646896, "lon": 15.3142062, "tags": {"access": "yes", "amenity": "charging_station", "brand": "Free to X", "operator": "Free to X", "source": "https://www.forumelettrico.it/forum/search.php?keywords=Calaggio&fid%5B0%5D=760"}}, {"type": "node", "id": 11155497997, "lat": 41.1026799, "lon": 15.0540053, "tags": {"access": "yes", "amenity": "charging_station", "brand": "Enel X", "brand:wikidata": "Q5376815", "capacity": "2", "fee": "yes", "name": "Enel X", "operator": "Enel X", "operator:wikidata": "Q5376815"}}, {"type": "node", "id": 11244874523, "lat": 41.0602219, "lon": 15.0134627, "tags": {"access": "yes", "amenity": "charging_station", "brand": "Free To X", "operator": "Free To X", "source": "https://www.facebook.com/FreeToX", "start_date": "2023-10-05"}}, {"type": "node", "id": 11819440407, "lat": 41.3548009, "lon": 14.8108961, "tags": {"access": "yes", "amenity": "charging_station", "brand": "Comune di Circello", "fee": "no", "operator": "GaraGeeks", "socket:device:USB-A": "6", "socket:device:qi-wireless": "3", "source": "survey"}}]}