{"version": 0.6, "generator": "Overpass API 0.7.62.1 084b4234", "osm3s": {"timestamp_osm_base": "2024-11-20T16:41:00Z", "copyright": "The data included in this document is from www.openstreetmap.org. The data is made available under ODbL."}, "elements": [{"type": "node", "id": 5895462456, "lat": 37.8536984, "lon": 15.2888207, "tags": {"amenity": "charging_station", "motorcar": "yes", "operator": "Enel"}}, {"type": "node", "id": 6704288555, "lat": 37.5085407, "lon": 15.075628, "tags": {"amenity": "charging_station", "name": "Enel X Way", "operator": "Enel X Way", "operator:wikidata": "Q116116836", "operator:wikipedia": "it:Enel X Way"}}, {"type": "node", "id": 6704288568, "lat": 37.5064822, "lon": 15.0882398, "tags": {"amenity": "charging_station", "name": "Enel X Way", "operator": "Enel X Way", "operator:wikidata": "Q116116836", "operator:wikipedia": "it:Enel X Way"}}, {"type": "node", "id": 6704288569, "lat": 37.5091269, "lon": 15.084482, "tags": {"amenity": "charging_station", "name": "Enel X Way", "operator": "Enel X Way", "operator:wikidata": "Q116116836", "operator:wikipedia": "it:Enel X Way"}}, {"type": "node", "id": 6704288570, "lat": 37.5175036, "lon": 15.0840342, "tags": {"amenity": "charging_station", "name": "Enel X Way", "operator": "Enel X Way", "operator:wikidata": "Q116116836", "operator:wikipedia": "it:Enel X Way"}}, {"type": "node", "id": 6704288571, "lat": 37.51847, "lon": 15.1020303, "tags": {"amenity": "charging_station", "name": "Enel X Way", "operator": "Enel X Way", "operator:wikidata": "Q116116836", "operator:wikipedia": "it:Enel X Way"}}, {"type": "node", "id": 6704288572, "lat": 37.5082311, "lon": 15.0841118, "tags": {"amenity": "charging_station", "capacity": "2", "name": "Enel X Way", "operator": "Enel X Way", "operator:wikidata": "Q116116836", "operator:wikipedia": "it:Enel X Way"}}, {"type": "node", "id": 6704288573, "lat": 37.5043735, "lon": 15.0811587, "tags": {"amenity": "charging_station", "capacity": "2", "fee": "yes", "motorcar": "yes", "name": "Enel X Way", "opening_hours": "24/7", "operator": "Enel X Way", "operator:wikidata": "Q116116836", "operator:wikipedia": "it:Enel X Way"}}, {"type": "node", "id": 6704288574, "lat": 37.535716, "lon": 15.117846, "tags": {"amenity": "charging_station", "name": "Enel X Way", "operator": "Enel X Way", "operator:wikidata": "Q116116836", "operator:wikipedia": "it:Enel X Way"}}, {"type": "node", "id": 6704288575, "lat": 37.5361744, "lon": 15.0841185, "tags": {"amenity": "charging_station", "name": "Enel X Way", "operator": "Enel X Way", "operator:wikidata": "Q116116836", "operator:wikipedia": "it:Enel X Way"}}, {"type": "node", "id": 6704288576, "lat": 37.5081822, "lon": 15.0911459, "tags": {"amenity": "charging_station", "name": "Enel X Way", "operator": "Enel X Way", "operator:wikidata": "Q116116836", "operator:wikipedia": "it:Enel X Way"}}, {"type": "node", "id": 6704288577, "lat": 37.5208059, "lon": 15.1123005, "tags": {"amenity": "charging_station", "capacity": "2", "name": "Enel X Way", "operator": "Enel X Way", "operator:wikidata": "Q116116836", "operator:wikipedia": "it:Enel X Way"}}, {"type": "node", "id": 6704288578, "lat": 37.5224306, "lon": 15.0950908, "tags": {"amenity": "charging_station", "capacity": "2", "name": "Enel X Way", "operator": "Enel X Way", "operator:wikidata": "Q116116836", "operator:wikipedia": "it:Enel X Way"}}, {"type": "node", "id": 6704288579, "lat": 37.5150475, "lon": 15.0960577, "tags": {"amenity": "charging_station", "capacity": "2", "name": "Enel X Way", "operator": "Enel X Way", "operator:wikidata": "Q116116836", "operator:wikipedia": "it:Enel X Way"}}, {"type": "node", "id": 6704288580, "lat": 37.5133385, "lon": 15.0931066, "tags": {"amenity": "charging_station", "capacity": "2", "name": "Enel X Way", "operator": "Enel X Way", "operator:wikidata": "Q116116836", "operator:wikipedia": "it:Enel X Way"}}, {"type": "node", "id": 6704288581, "lat": 37.5133502, "lon": 15.0931938, "tags": {"amenity": "charging_station", "capacity": "2", "name": "Enel X Way", "operator": "Enel X Way", "operator:wikidata": "Q116116836", "operator:wikipedia": "it:Enel X Way"}}, {"type": "node", "id": 6704288582, "lat": 37.5150576, "lon": 15.0961147, "tags": {"amenity": "charging_station", "capacity": "2", "name": "Enel X Way", "operator": "Enel X Way", "operator:wikidata": "Q116116836", "operator:wikipedia": "it:Enel X Way"}}, {"type": "node", "id": 6704288583, "lat": 37.5224232, "lon": 15.0950237, "tags": {"amenity": "charging_station", "capacity": "2", "name": "Enel X Way", "operator": "Enel X Way", "operator:wikidata": "Q116116836", "operator:wikipedia": "it:Enel X Way"}}, {"type": "node", "id": 6704288584, "lat": 37.5175537, "lon": 15.0840306, "tags": {"amenity": "charging_station", "name": "Enel X Way", "operator": "Enel X Way", "operator:wikidata": "Q116116836", "operator:wikipedia": "it:Enel X Way"}}, {"type": "node", "id": 6704316685, "lat": 37.518495, "lon": 15.101976, "tags": {"amenity": "charging_station", "name": "Enel X Way", "operator": "Enel X Way", "operator:wikidata": "Q116116836", "operator:wikipedia": "it:Enel X Way"}}, {"type": "node", "id": 6704316686, "lat": 37.5081737, "lon": 15.0841078, "tags": {"amenity": "charging_station", "capacity": "2", "name": "Enel X Way", "operator": "Enel X Way", "operator:wikidata": "Q116116836", "operator:wikipedia": "it:Enel X Way"}}, {"type": "node", "id": 6704316688, "lat": 37.5091147, "lon": 15.0844236, "tags": {"amenity": "charging_station", "name": "Enel X Way", "operator": "Enel X Way", "operator:wikidata": "Q116116836", "operator:wikipedia": "it:Enel X Way"}}, {"type": "node", "id": 6704316689, "lat": 37.5082046, "lon": 15.0911446, "tags": {"amenity": "charging_station", "name": "Enel X Way", "operator": "Enel X Way", "operator:wikidata": "Q116116836", "operator:wikipedia": "it:Enel X Way"}}, {"type": "node", "id": 6704316690, "lat": 37.5044278, "lon": 15.0811165, "tags": {"amenity": "charging_station", "capacity": "2", "fee": "yes", "motorcar": "yes", "name": "Enel X Way", "opening_hours": "24/7", "operator": "Enel X Way", "operator:wikidata": "Q116116836", "operator:wikipedia": "it:Enel X Way"}}, {"type": "node", "id": 6704316691, "lat": 37.5064385, "lon": 15.0883511, "tags": {"amenity": "charging_station", "name": "Enel X Way", "operator": "Enel X Way", "operator:wikidata": "Q116116836", "operator:wikipedia": "it:Enel X Way"}}, {"type": "node", "id": 6704316692, "lat": 37.5154645, "lon": 15.0874425, "tags": {"amenity": "charging_station", "name": "Enel X Way", "operator": "Enel X Way", "operator:wikidata": "Q116116836", "operator:wikipedia": "it:Enel X Way"}}, {"type": "node", "id": 6704316698, "lat": 37.5356565, "lon": 15.1178688, "tags": {"amenity": "charging_station", "name": "Enel X Way", "operator": "Enel X Way", "operator:wikidata": "Q116116836", "operator:wikipedia": "it:Enel X Way"}}, {"type": "node", "id": 6704316699, "lat": 37.5018983, "lon": 15.0852183, "tags": {"amenity": "charging_station", "name": "Enel X Way", "operator": "Enel X Way", "operator:wikidata": "Q116116836", "operator:wikipedia": "it:Enel X Way"}}, {"type": "node", "id": 6704316723, "lat": 37.536185, "lon": 15.0842352, "tags": {"amenity": "charging_station", "name": "Enel X Way", "operator": "Enel X Way", "operator:wikidata": "Q116116836", "operator:wikipedia": "it:Enel X Way"}}, {"type": "node", "id": 6704316725, "lat": 37.505122, "lon": 15.0875712, "tags": {"amenity": "charging_station", "name": "Enel X Way", "operator": "Enel X Way", "operator:wikidata": "Q116116836", "operator:wikipedia": "it:Enel X Way"}}, {"type": "node", "id": 6704316726, "lat": 37.5170436, "lon": 15.1047327, "tags": {"amenity": "charging_station", "capacity": "2", "name": "Enel X Way", "operator": "Enel X Way", "operator:wikidata": "Q116116836", "operator:wikipedia": "it:Enel X Way"}}, {"type": "node", "id": 6704316727, "lat": 37.5208633, "lon": 15.1122824, "tags": {"amenity": "charging_station", "capacity": "2", "name": "Enel X Way", "operator": "Enel X Way", "operator:wikidata": "Q116116836", "operator:wikipedia": "it:Enel X Way"}}, {"type": "node", "id": 8385004266, "lat": 37.531812, "lon": 15.1070085, "tags": {"amenity": "charging_station", "name": "Enel X Way", "operator": "Enel X Way", "operator:wikidata": "Q116116836", "operator:wikipedia": "it:Enel X Way"}}, {"type": "node", "id": 8385004267, "lat": 37.5318194, "lon": 15.1069254, "tags": {"amenity": "charging_station", "name": "Enel X Way", "operator": "Enel X Way", "operator:wikidata": "Q116116836", "operator:wikipedia": "it:Enel X Way"}}, {"type": "node", "id": 8385004268, "lat": 37.5318311, "lon": 15.1084475, "tags": {"amenity": "charging_station", "name": "Enel X Way", "operator": "Enel X Way", "operator:wikidata": "Q116116836", "operator:wikipedia": "it:Enel X Way"}}, {"type": "node", "id": 8385004269, "lat": 37.5318354, "lon": 15.1083778, "tags": {"amenity": "charging_station", "name": "Enel X Way", "operator": "Enel X Way", "operator:wikidata": "Q116116836", "operator:wikipedia": "it:Enel X Way"}}, {"type": "node", "id": 8991458370, "lat": 37.5104967, "lon": 15.1019838, "tags": {"amenity": "charging_station", "name": "Enel X Way", "operator": "Enel X Way", "operator:wikidata": "Q116116836", "operator:wikipedia": "it:Enel X Way"}}, {"type": "node", "id": 8991458371, "lat": 37.5104418, "lon": 15.1019593, "tags": {"amenity": "charging_station", "name": "Enel X Way", "operator": "Enel X Way", "operator:wikidata": "Q116116836", "operator:wikipedia": "it:Enel X Way"}}, {"type": "node", "id": 8997249005, "lat": 37.5143624, "lon": 15.0827882, "tags": {"amenity": "charging_station", "name": "Enel X Way", "operator": "Enel X Way", "operator:wikidata": "Q116116836", "operator:wikipedia": "it:Enel X Way"}}, {"type": "node", "id": 8997249006, "lat": 37.5143986, "lon": 15.0827647, "tags": {"amenity": "charging_station", "name": "Enel X Way", "operator": "Enel X Way", "operator:wikidata": "Q116116836", "operator:wikipedia": "it:Enel X Way"}}, {"type": "node", "id": 9141343670, "lat": 37.551578, "lon": 15.0667801, "tags": {"amenity": "charging_station", "brand": "Tesla Supercharger", "brand:wikidata": "Q17089620", "capacity": "4", "fee": "yes", "name": "Tesla Supercharger", "opening_hours": "24/7", "operator": "Tesla Inc.", "socket:tesla_supercharger_ccs": "4", "socket:tesla_supercharger_ccs:output": "250 kW", "source": "https://www.tesla.com/findus/location/supercharger/cataniaitsupercharger"}}, {"type": "node", "id": 9737952215, "lat": 37.5108907, "lon": 15.041564, "tags": {"amenity": "charging_station"}}, {"type": "node", "id": 9737966047, "lat": 37.5141119, "lon": 15.0904056, "tags": {"amenity": "charging_station", "capacity": "2", "name": "Duferco", "operator": "Duferco Energia"}}, {"type": "node", "id": 9737966048, "lat": 37.5190965, "lon": 15.1030348, "tags": {"amenity": "charging_station", "name": "Duferco", "operator": "Duferco Energia"}}, {"type": "node", "id": 9737966049, "lat": 37.507595, "lon": 15.0924173, "tags": {"amenity": "charging_station", "name": "Duferco", "operator": "Duferco Energia"}}, {"type": "node", "id": 9737966050, "lat": 37.5040841, "lon": 15.0956105, "tags": {"amenity": "charging_station", "name": "Duferco", "operator": "Duferco Energia"}}, {"type": "node", "id": 9737966052, "lat": 37.5044501, "lon": 15.0937336, "tags": {"amenity": "charging_station", "name": "Enel X Way", "operator": "Enel X Way", "operator:wikidata": "Q116116836", "operator:wikipedia": "it:Enel X Way"}}, {"type": "node", "id": 9737966053, "lat": 37.5044485, "lon": 15.0936089, "tags": {"amenity": "charging_station", "name": "Enel X Way", "operator": "Enel X Way", "operator:wikidata": "Q116116836", "operator:wikipedia": "it:Enel X Way"}}, {"type": "node", "id": 10756497713, "lat": 37.5358004, "lon": 15.0751062, "tags": {"amenity": "charging_station", "fee": "yes", "operator": "Lidl", "operator:wikidata": "Q151954", "payment:credit_cards": "yes"}}, {"type": "node", "id": 10931089549, "lat": 37.5747011, "lon": 14.8955556, "tags": {"amenity": "charging_station", "name": "Driwe", "socket:type2": "2"}}, {"type": "node", "id": 10942471531, "lat": 37.574658, "lon": 14.8955965, "tags": {"amenity": "charging_station", "name": "Driwe", "socket:type2": "2"}}, {"type": "node", "id": 11108569964, "lat": 37.5731213, "lon": 15.0525717, "tags": {"amenity": "charging_station", "name": "Enel X Way", "operator": "Enel X Way", "operator:wikidata": "Q116116836", "operator:wikipedia": "it:Enel X Way"}}, {"type": "node", "id": 11108765062, "lat": 37.5125141, "lon": 15.0785972, "tags": {"amenity": "charging_station", "capacity": "2", "name": "Enel X Way", "operator": "Enel X Way", "operator:wikidata": "Q116116836", "operator:wikipedia": "it:Enel X Way"}}, {"type": "node", "id": 11110278742, "lat": 37.5237059, "lon": 15.1158658, "tags": {"amenity": "charging_station", "name": "Enel X Way", "operator": "Enel X Way", "operator:wikidata": "Q116116836", "operator:wikipedia": "it:Enel X Way"}}, {"type": "node", "id": 11124079316, "lat": 37.6881972, "lon": 15.1048332, "tags": {"amenity": "charging_station", "name": "Enel X Way", "operator": "Enel X Way", "operator:wikidata": "Q116116836", "operator:wikipedia": "it:Enel X Way"}}, {"type": "node", "id": 11124079416, "lat": 37.666443, "lon": 15.0989109, "tags": {"amenity": "charging_station", "name": "Enel X Way", "operator": "Enel X Way", "operator:wikidata": "Q116116836", "operator:wikipedia": "it:Enel X Way"}}, {"type": "node", "id": 11177634790, "lat": 37.5973893, "lon": 15.1307568, "tags": {"amenity": "charging_station", "name": "Enel X Way", "operator": "Enel X Way", "operator:wikidata": "Q116116836", "operator:wikipedia": "it:Enel X Way"}}, {"type": "node", "id": 11194910642, "lat": 37.5830364, "lon": 15.1417546, "tags": {"amenity": "charging_station", "name": "Enel X Way", "operator": "Enel X Way", "operator:wikidata": "Q116116836", "operator:wikipedia": "it:Enel X Way"}}, {"type": "node", "id": 11212645123, "lat": 37.5445922, "lon": 15.143327, "tags": {"amenity": "charging_station", "capacity": "2", "name": "Duferco"}}, {"type": "node", "id": 11436692464, "lat": 37.8796348, "lon": 15.3040468, "tags": {"amenity": "charging_station", "brand": "Enel X", "capacity": "2", "fee": "yes", "motorcar": "yes", "name": "Enel X", "opening_hours": "24/7", "operator": "Enel X", "operator:wikidata": "Q5376815"}}, {"type": "node", "id": 11436692465, "lat": 37.8796531, "lon": 15.3040048, "tags": {"amenity": "charging_station", "brand": "Enel X", "capacity": "2", "fee": "yes", "motorcar": "yes", "name": "Enel X", "opening_hours": "24/7", "operator": "Enel X", "operator:wikidata": "Q5376815"}}, {"type": "node", "id": 11439169503, "lat": 37.6653831, "lon": 15.1664696, "tags": {"amenity": "charging_station", "capacity": "2", "fee": "yes", "motorcar": "yes", "name": "Enel X Way", "opening_hours": "24/7", "operator": "Enel X Way"}}, {"type": "node", "id": 11497009036, "lat": 37.5503882, "lon": 15.0688979, "tags": {"amenity": "charging_station", "capacity": "2", "fee": "yes", "motorcar": "yes", "name": "Enel X Way", "opening_hours": "24/7", "operator": "Enel X Way", "operator:wikidata": "Q116116836"}}, {"type": "node", "id": 11497009037, "lat": 37.551008, "lon": 15.0682613, "tags": {"amenity": "charging_station", "capacity": "2", "fee": "yes", "motorcar": "yes", "name": "Be Charge", "opening_hours": "24/7", "operator": "Be Charge", "operator:wikidata": "Q113289535"}}, {"type": "node", "id": 11503120675, "lat": 37.5502564, "lon": 15.1458167, "tags": {"amenity": "charging_station", "capacity": "2", "fee": "yes", "motorcar": "yes", "name": "Enel X Way", "opening_hours": "24/7", "operator": "Enel X Way"}}, {"type": "node", "id": 11503182263, "lat": 37.5399681, "lon": 15.1319241, "tags": {"amenity": "charging_station", "brand": "Enel X Way", "capacity": "2", "fee": "yes", "motorcar": "yes", "name": "Enel X Way", "opening_hours": "24/7", "operator": "Enel X Way", "operator:wikidata": "Q116116836", "operator:wikipedia": "it:Enel X Way"}}, {"type": "node", "id": 11503265794, "lat": 37.5333952, "lon": 15.1157374, "tags": {"amenity": "charging_station", "capacity": "2", "fee": "yes", "motorcar": "yes", "name": "Enel X Way", "opening_hours": "24/7", "operator": "Enel X Way"}}, {"type": "node", "id": 11513730342, "lat": 37.5960021, "lon": 15.1677393, "tags": {"access": "customers", "amenity": "charging_station", "brand": "Enel X", "brand:wikidata": "Q5376815", "capacity": "2", "fee": "yes", "name": "Enel X Way", "operator": "Enel X", "operator:wikidata": "Q5376815", "operator:wikipedia": "it:Enel X Way"}}, {"type": "node", "id": 11513993227, "lat": 37.8458506, "lon": 15.2829804, "tags": {"amenity": "charging_station", "brand": "Enel X", "capacity": "2", "fee": "yes", "motorcar": "yes", "name": "Enel X", "opening_hours": "24/7", "operator": "Enel X", "operator:wikidata": "Q5376815"}}, {"type": "node", "id": 11513996267, "lat": 37.8353839, "lon": 15.2722472, "tags": {"amenity": "charging_station", "fee": "yes", "motorcar": "yes", "name": "Duferco", "opening_hours": "24/7", "operator": "Duferco", "operator:wikidata": "Q1263955"}}, {"type": "node", "id": 11595690870, "lat": 37.6437416, "lon": 15.1575883, "tags": {"amenity": "charging_station", "name": "Enel X Way", "operator": "Enel X Way"}}, {"type": "node", "id": 11595691025, "lat": 37.6156932, "lon": 15.1538627, "tags": {"amenity": "charging_station", "brand": "Enel X Way", "capacity": "2", "name": "Enel X Way", "operator": "Enel X Way", "socket:chademo": "1", "socket:chademo:output": "50 kW", "socket:type2": "1", "socket:type2:output": "34 kW", "socket:type2_combo": "1", "socket:type2_combo:output": "50 kW"}}, {"type": "node", "id": 11709292960, "lat": 37.6111357, "lon": 15.0076689, "tags": {"amenity": "charging_station", "name": "Enel X Way", "operator": "Enel X Way", "operator:wikidata": "Q116116836", "operator:wikipedia": "it:Enel X Way"}}, {"type": "node", "id": 11800348687, "lat": 37.5344484, "lon": 15.0313313, "tags": {"amenity": "charging_station", "name": "Enel X Way", "operator": "Enel X Way", "operator:wikidata": "Q116116836", "operator:wikipedia": "it:Enel X Way"}}, {"type": "node", "id": 11800348688, "lat": 37.5344058, "lon": 15.0313595, "tags": {"amenity": "charging_station", "name": "Enel X Way", "operator": "Enel X Way", "operator:wikidata": "Q116116836", "operator:wikipedia": "it:Enel X Way"}}, {"type": "node", "id": 11802661705, "lat": 37.6124987, "lon": 15.0328723, "tags": {"amenity": "charging_station", "name": "Enel X Way", "operator": "Enel X Way", "operator:wikidata": "Q116116836", "operator:wikipedia": "it:Enel X Way"}}, {"type": "node", "id": 11802661706, "lat": 37.6124647, "lon": 15.0329058, "tags": {"amenity": "charging_station", "name": "Enel X Way", "operator": "Enel X Way", "operator:wikidata": "Q116116836", "operator:wikipedia": "it:Enel X Way"}}, {"type": "node", "id": 11821436603, "lat": 37.6018711, "lon": 14.9850636, "tags": {"access": "yes", "amenity": "charging_station", "brand": "Solar Lite Comune di Belpasso", "fee": "no", "operator": "Garageeks", "socket:device:USB-A": "4", "socket:device:qi-wireless": "1", "source": "survey"}}, {"type": "node", "id": 11830192382, "lat": 37.5044875, "lon": 15.0810507, "tags": {"amenity": "charging_station", "brand": "Enel X", "brand:wikidata": "Q5376815", "name": "Enel X", "operator": "Enel X", "operator:wikidata": "Q5376815"}}, {"type": "node", "id": 12059826870, "lat": 37.5218376, "lon": 14.9689996, "tags": {"amenity": "charging_station", "capacity": "2", "fee": "yes", "name": "Enel X Way", "operator": "Enel X Way", "operator:wikidata": "Q116116836", "operator:wikipedia": "it:Enel X Way"}}, {"type": "node", "id": 12245884161, "lat": 37.5119596, "lon": 15.0209055, "tags": {"amenity": "charging_station", "fee": "yes", "name": "Enel X Way", "operator": "Enel X Way", "operator:wikidata": "Q116116836", "operator:wikipedia": "it:Enel X Way", "payment:credit_cards": "yes"}}, {"type": "node", "id": 12310488008, "lat": 37.6115022, "lon": 15.1641288, "tags": {"amenity": "charging_station", "name": "Enel X Way", "operator": "Enel X Way", "operator:wikidata": "Q116116836", "operator:wikipedia": "it:Enel X Way"}}, {"type": "node", "id": 12328949667, "lat": 37.6073992, "lon": 15.1571162, "tags": {"amenity": "charging_station", "name": "Enel X Way", "operator": "Enel X Way", "operator:wikidata": "Q116116836", "operator:wikipedia": "it:Enel X Way"}}]}