{"version": 0.6, "generator": "Overpass API 0.7.62.1 084b4234", "osm3s": {"timestamp_osm_base": "2024-11-20T22:05:08Z", "copyright": "The data included in this document is from www.openstreetmap.org. The data is made available under ODbL."}, "elements": [{"type": "node", "id": 2268163814, "lat": 44.9603113, "lon": 6.8779979, "tags": {"access": "yes", "amenity": "charging_station", "bicycle": "yes", "fixme": "verificare la posizione", "name": "DINAclub - Stazione di Ricarica e-Bike", "network": "DINAclub", "operator": "Repower", "operator:wikidata": "Q674712", "website": "https://www.repower.com/it/dina/"}}, {"type": "node", "id": 5240624194, "lat": 44.7659838, "lon": 6.7400034, "tags": {"amenity": "charging_station", "capacity": "2", "fee": "yes", "motorcar": "yes", "network": "E Born", "opening_hours": "24/7", "operator": "SYME05", "owner": "SYME05", "ref:EU:EVSE": "FR*S05*P05007*A", "socket:type2": "2", "socket:type2_cable": "no", "socket:typee": "2", "source": "data.gouv.fr:Etalab - 01/2020"}}, {"type": "node", "id": 5840097103, "lat": 44.719623, "lon": 6.8475949, "tags": {"amenity": "charging_station", "name": "Eborn"}}, {"type": "node", "id": 5840097106, "lat": 44.7196814, "lon": 6.8475792, "tags": {"amenity": "charging_station", "brand": "bike-energy", "brand:wikidata": "Q67770877", "capacity": "4", "description": "TOWER T4B f\u00fcr 4 E-Bikes;\nDas bike-energy Ladekabel erhalten Sie direkt auf www.bike-energy.com", "name": "bike-energy Ladestation", "operator": "bike-energy", "operator:wikidata": "Q67770877"}}, {"type": "node", "id": 5863650106, "lat": 44.7809376, "lon": 6.8695439, "tags": {"amenity": "charging_station", "authentication:none": "yes", "capacity": "2", "email": "contact@reseau-eborn.fr", "fee": "yes", "motorcar": "yes", "network": "eborn", "opening_hours": "24/7", "operator": "SPBR1", "operator:email": "contact@reseau-eborn.fr", "operator:phone": "+33423100350", "owner": "SPBR1", "payment:credit_cards": "yes", "ref:EU:EVSE": "FR*S05*P05003*A;FR*EBN*PTUNFILFNT4", "socket:type2": "2", "socket:typee": "2", "source": "data.gouv.fr:Etalab - 05/2022", "start_date": "2020-06-21"}}, {"type": "node", "id": 6074518783, "lat": 44.8658413, "lon": 7.2692224, "tags": {"amenity": "charging_station", "bicycle": "yes", "operator": "eviso", "voltage": "230"}}, {"type": "node", "id": 6966278202, "lat": 44.9313706, "lon": 6.7256992, "tags": {"amenity": "charging_station", "authentication:none": "yes", "capacity": "2", "email": "contact@reseau-eborn.fr", "fee": "yes", "motorcar": "yes", "network": "eborn", "opening_hours": "24/7", "operator": "SPBR1", "owner": "SPBR1", "payment:credit_cards": "yes", "phone": "+33423100350", "ref:EU:EVSE": "FR*EBN*PRXIEJHAHQH", "socket:type2": "2", "socket:typee": "2", "source": "data.gouv.fr:Etalab - 05/2022"}}, {"type": "node", "id": 7042316532, "lat": 44.7007955, "lon": 6.8686243, "tags": {"access": "private", "amenity": "charging_station", "brand": "Tesla, Inc.", "brand:wikidata": "Q478214", "capacity": "2", "fee": "no", "name": "Tesla Destination Charger", "not:brand:wikidata": "Q17089620", "operator": "Hotel Alta Peyra", "short_name": "Tesla"}}, {"type": "node", "id": 7118933862, "lat": 44.8230313, "lon": 6.7330025, "tags": {"amenity": "charging_station", "bicycle": "yes", "fee": "no", "motorcar": "no", "name": "Bosch eBike Power Station", "operator": "Refuge Napol\u00e9on"}}, {"type": "node", "id": 7913432093, "lat": 44.6991272, "lon": 6.8660843, "tags": {"amenity": "charging_station", "authentication:none": "yes", "capacity": "2", "email": "contact@reseau-eborn.fr", "fee": "yes", "motorcar": "yes", "network": "eborn", "opening_hours": "24/7", "operator": "SPBR1", "operator:email": "contact@reseau-eborn.fr", "operator:phone": "+33423100350", "owner": "SPBR1", "payment:credit_cards": "yes", "ref:EU:EVSE": "FR*S05*P05157*A;FR*EBN*PT00CHAS1VP", "socket:type2": "2", "socket:typee": "2", "source": "data.gouv.fr:Etalab - 05/2022", "start_date": "2020-06-21"}}, {"type": "node", "id": 8814451507, "lat": 44.9584856, "lon": 7.1897015, "tags": {"amenity": "charging_station", "authentication:app": "yes", "authentication:membership_card": "yes", "brand": "Enel X", "brand:wikidata": "Q5376815", "capacity": "2", "fee": "yes", "motorcar": "yes", "name": "Enel X", "opening_hours": "24/7", "operator": "Enel X", "operator:wikidata": "Q5376815", "socket:type2": "2", "website": "https://www.enelx.com/it/it"}}, {"type": "node", "id": 9857674775, "lat": 44.807632, "lon": 7.1174957, "tags": {"access": "yes", "amenity": "charging_station", "brand": "bike-energy", "brand:wikidata": "Q67770877", "fee": "yes", "name": "bike-energy", "operator": "bike-energy", "operator:wikidata": "Q67770877"}}, {"type": "node", "id": 9870926109, "lat": 44.8058686, "lon": 7.157251, "tags": {"amenity": "charging_station", "bicycle": "yes", "operator": "eviso", "voltage": "230"}}, {"type": "node", "id": 9870980247, "lat": 44.8547023, "lon": 7.2504735, "tags": {"amenity": "charging_station", "bicycle": "yes", "operator": "eviso", "voltage": "230"}}, {"type": "node", "id": 9880755009, "lat": 44.8945688, "lon": 6.9185764, "tags": {"access": "yes", "amenity": "charging_station", "bicycle": "yes", "covered": "yes", "motorcar": "no"}}, {"type": "node", "id": 9906089678, "lat": 45.0109119, "lon": 6.9364388, "tags": {"amenity": "charging_station", "brand": "Enel X", "brand:wikidata": "Q5376815", "name": "enel x", "operator": "Enel X", "operator:wikidata": "Q5376815"}}, {"type": "node", "id": 10167521570, "lat": 44.8173529, "lon": 7.2380486, "tags": {"amenity": "charging_station"}}, {"type": "node", "id": 10600766322, "lat": 45.068444, "lon": 6.7331447, "tags": {"access": "yes", "amenity": "charging_station", "bicycle": "yes", "description": "Komoot App for e-bike charging station in Italy https://www.komoot.com/collection/1840155", "network": "DINAclub", "operator": "Repower", "operator:wikidata": "Q674712", "operator:wikipedia": "it:Repower", "voltage": "230", "website": "https://www.repower.com/it/dina/"}}, {"type": "node", "id": 11003021476, "lat": 44.973766, "lon": 6.8980839, "tags": {"access": "yes", "amenity": "charging_station", "bicycle": "yes", "network": "DINAclub", "operator": "Repower", "operator:wikidata": "Q674712", "website": "https://www.repower.com/it/dina/"}}, {"type": "node", "id": 11003052566, "lat": 44.9618365, "lon": 6.8791338, "tags": {"access": "yes", "amenity": "charging_station", "bicycle": "yes", "network": "DINAclub", "operator": "Repower", "operator:wikidata": "Q674712", "operator:wikipedia": "it:Repower", "website": "https://www.repower.com/it/dina/"}}, {"type": "node", "id": 11124445411, "lat": 44.8683431, "lon": 6.7213284, "tags": {"amenity": "charging_station", "authentication:none": "yes", "capacity": "2", "email": "contact@reseau-eborn.fr", "fee": "yes", "motorcar": "yes", "network": "eborn", "opening_hours": "24/7", "operator": "SPBR1", "owner": "SPBR1", "payment:credit_cards": "yes", "phone": "+33423100350", "ref:EU:EVSE": "FR*EBN*PUHJOVHVZUL", "socket:type2": "2", "socket:typee": "2", "source": "data.gouv.fr:Etalab - 05/2022"}}, {"type": "node", "id": 11197062883, "lat": 44.8356685, "lon": 7.0682564, "tags": {"amenity": "charging_station", "name": "Bike & USB Charging", "opening_hours": "24/7"}}, {"type": "node", "id": 11197103085, "lat": 44.7987198, "lon": 7.0549596, "tags": {"amenity": "charging_station", "name": "Ladestation Fahrr\u00e4der", "opening_hours": "24/7"}}, {"type": "node", "id": 11363849314, "lat": 45.0484143, "lon": 7.0263732, "tags": {"amenity": "charging_station"}}, {"type": "node", "id": 11775774256, "lat": 44.7612768, "lon": 6.8219767, "tags": {"amenity": "charging_station", "authentication:none": "yes", "capacity": "2", "email": "contact@reseau-eborn.fr", "fee": "yes", "motorcar": "yes", "network": "eborn", "opening_hours": "24/7", "operator": "SPBR1", "operator:email": "contact@reseau-eborn.fr", "operator:phone": "+33423100350", "owner": "SPBR1", "payment:credit_cards": "yes", "ref:EU:EVSE": "FR*EBN*POTB2ORHCSB", "socket:type2": "2", "socket:typee": "2", "source": "data.gouv.fr:Etalab - 05/2022", "start_date": "2020-06-21"}}, {"type": "node", "id": 11921616074, "lat": 44.973139, "lon": 6.8970135, "tags": {"access": "yes", "amenity": "charging_station", "bicycle": "yes", "fixme": "verificare la posizione", "name": "DINAclub - Stazione di Ricarica e-Bike", "network": "DINAclub", "operator": "Repower", "operator:wikidata": "Q674712", "website": "https://www.repower.com/it/dina/"}}, {"type": "node", "id": 12033668603, "lat": 45.0151659, "lon": 6.9424301, "tags": {"amenity": "charging_station", "bicycle": "designated"}}, {"type": "node", "id": 12167809521, "lat": 45.0359809, "lon": 7.0499048, "tags": {"amenity": "charging_station", "fee": "yes", "motorcar": "yes", "motorcycle": "yes", "operator": "EnelX"}}]}