{"version": 0.6, "generator": "Overpass API 0.7.62.1 084b4234", "osm3s": {"timestamp_osm_base": "2024-11-20T22:04:06Z", "copyright": "The data included in this document is from www.openstreetmap.org. The data is made available under ODbL."}, "elements": [{"type": "node", "id": 6443047987, "lat": 42.7746582, "lon": 9.4740468, "tags": {"amenity": "charging_station", "authentication:nfc": "yes", "capacity": "2", "fee": "yes", "motorcar": "yes", "operator": "Mairie de Brando", "socket:type2": "1", "socket:type2_combo": "1"}}, {"type": "node", "id": 9967598423, "lat": 42.7018435, "lon": 9.4528933, "tags": {"amenity": "charging_station", "capacity": "2"}}, {"type": "node", "id": 10945765994, "lat": 42.9644294, "lon": 9.3481606, "tags": {"access": "customers", "amenity": "charging_station", "capacity": "2", "fee": "yes", "network": "Emotum", "operator": "E-motum", "payment:credit_cards": "yes", "payment:debit_cards": "yes", "socket:type2_combo": "2", "website": "https://e-motum.net/"}}, {"type": "node", "id": 11109168853, "lat": 42.809196, "lon": 9.483918, "tags": {"amenity": "charging_station", "authentication:none": "true", "email": "contact@e-motum.net", "fee": "no", "network": "e-motum", "opening_hours": "24/7", "operator": "sas e-motum", "owner:ref:FR:SIREN": "752982645", "phone": "04 95 30 05 25", "ref": "fb1b24c2-1623-4007-8986-98e98e43deca", "reservation": "no", "socket:type2": "yes", "socket:type2_cable": "no", "start_date": "2021-07-09"}}, {"type": "node", "id": 11109168854, "lat": 42.740571, "lon": 9.460777, "tags": {"amenity": "charging_station", "authentication:none": "true", "email": "info@chargepoint.com", "fee": "no", "network": "MAIRIE SMDL PARKING RDC", "opening_hours": "24/7", "ref": "FRCPIE6699575", "reservation": "no", "socket:type2": "yes", "socket:type2_cable": "no", "start_date": "2023-03-20"}}, {"type": "node", "id": 11109168855, "lat": 42.742776, "lon": 9.456518, "tags": {"amenity": "charging_station", "authentication:none": "true", "email": "info@chargepoint.com", "fee": "no", "network": "MAIRIE SMDL HOTEL DE VILLE", "opening_hours": "24/7", "ref": "FRCPIE6664415", "reservation": "no", "socket:type2": "yes", "socket:type2_cable": "no", "start_date": "2022-12-22"}}, {"type": "node", "id": 11109168857, "lat": 42.742843, "lon": 9.453566, "tags": {"amenity": "charging_station", "authentication:none": "true", "email": "info@chargepoint.com", "fee": "no", "network": "MAIRIE SMDL GROUPE SCOLAIRE", "opening_hours": "24/7", "ref": "FRCPIE6737755", "reservation": "no", "socket:type2": "yes", "socket:type2_cable": "no", "start_date": "2023-06-27"}}, {"type": "node", "id": 11109168859, "lat": 42.7382541, "lon": 9.4605483, "tags": {"amenity": "charging_station", "authentication:none": "true", "email": "secretariat@lumi-in.fr", "fee": "no", "network": "LUMI'IN", "opening_hours": "24/7", "operator": "LUMI'IN", "owner:ref:FR:SIREN": "807940069", "phone": "754374751", "ref": "95bb75f0-fedc-11ed-be56-0242ac120002", "reservation": "no", "socket:type2": "yes", "socket:type2_cable": "no", "start_date": "2023-05-30"}}, {"type": "node", "id": 11109168860, "lat": 42.741337, "lon": 9.456341, "tags": {"amenity": "charging_station", "authentication:none": "true", "email": "contact@e-motum.net", "fee": "no", "network": "e-motum", "opening_hours": "24/7", "operator": "sas e-motum", "owner:ref:FR:SIREN": "752982645", "phone": "04 95 30 05 25", "ref": "00effb79-072c-45b1-97c5-96657f7983c0", "reservation": "no", "socket:type2": "yes", "socket:type2_cable": "no", "start_date": "2021-07-13"}}, {"type": "node", "id": 11109168878, "lat": 42.96541, "lon": 9.350708, "tags": {"amenity": "charging_station", "authentication:none": "true", "email": "contact@e-motum.net", "fee": "no", "network": "e-motum", "opening_hours": "24/7", "operator": "sas e-motum", "owner:ref:FR:SIREN": "752982645", "phone": "04 95 30 05 25", "ref": "6e542516-266d-42ae-8d2d-4c8a422812bb", "reservation": "no", "socket:type2": "yes", "socket:type2_cable": "no", "start_date": "2021-07-14"}}, {"type": "node", "id": 11109168886, "lat": 42.628813, "lon": 9.467278, "tags": {"amenity": "charging_station", "authentication:none": "true", "capacity": "2", "email": "contact@e-motum.net", "fee": "no", "network": "e-motum", "opening_hours": "24/7", "operator": "sas e-motum", "owner:ref:FR:SIREN": "752982645", "phone": "04 95 30 05 25", "ref": "dba85b2f-0987-475f-af0f-c9e73bed1006", "reservation": "no", "socket:type2_cable": "no", "socket:type2_combo": "yes", "start_date": "2021-11-01"}}, {"type": "node", "id": 11109168893, "lat": 42.655748, "lon": 9.440757, "tags": {"amenity": "charging_station", "authentication:none": "true", "email": "contact@e-motum.net", "fee": "no", "network": "e-motum", "opening_hours": "24/7", "operator": "sas e-motum", "owner:ref:FR:SIREN": "752982645", "phone": "04 95 30 05 25", "ref": "e3cdf95e-31f4-4088-a0ec-0014477b4c97", "reservation": "no", "socket:type2_cable": "no", "socket:type2_combo": "yes", "start_date": "2021-10-23"}}, {"type": "node", "id": 12300019609, "lat": 42.9261111, "lon": 9.4516855, "tags": {"amenity": "charging_station"}}]}