{"version": 0.6, "generator": "Overpass API 0.7.62.1 084b4234", "osm3s": {"timestamp_osm_base": "2024-11-20T16:42:00Z", "copyright": "The data included in this document is from www.openstreetmap.org. The data is made available under ODbL."}, "elements": [{"type": "node", "id": 6146913286, "lat": 40.6547312, "lon": 17.9350385, "tags": {"amenity": "charging_station"}}, {"type": "node", "id": 6188576272, "lat": 40.6193222, "lon": 17.9033498, "tags": {"access": "yes", "amenity": "charging_station", "brand": "Enel X", "brand:wikidata": "Q651222", "capacity": "2", "fee": "yes", "level": "0", "motorcar": "yes", "name": "Enel X", "opening_hours": "24/7", "operator": "Enel X", "operator:wikidata": "Q5376815", "source": "survey", "website": "https://www.enelx.com"}}, {"type": "node", "id": 6196560964, "lat": 40.6301074, "lon": 17.939551, "tags": {"amenity": "charging_station", "capacity": "2", "car": "yes", "operator": "ENEL", "website": "https://www.enelx.com"}}, {"type": "node", "id": 6214388072, "lat": 40.635609, "lon": 17.9330054, "tags": {"amenity": "charging_station", "car": "yes", "operator": "ENEL"}}, {"type": "node", "id": 6721254640, "lat": 40.6306743, "lon": 17.9392869, "tags": {"amenity": "charging_station", "operator": "Enelx"}}, {"type": "node", "id": 7297108666, "lat": 40.6366602, "lon": 17.9454143, "tags": {"amenity": "charging_station"}}, {"type": "node", "id": 9127071786, "lat": 40.5644733, "lon": 17.8146147, "tags": {"amenity": "charging_station", "capacity": "2", "operator": "ENEL X"}}, {"type": "node", "id": 9127166003, "lat": 40.6198132, "lon": 17.9026029, "tags": {"access": "yes", "amenity": "charging_station", "brand": "Tesla, Inc.", "brand:wikidata": "Q478214", "capacity": "8", "covered": "no", "fee": "yes", "level": "0", "manufacturer": "Tesla", "motorcar": "yes", "name": "Brindisi Supercharger", "opening_hours": "24/7", "operator": "Tesla, Inc.", "operator:wikidata": "Q478214", "short_name": "Tesla", "socket:tesla_supercharger_ccs": "8", "socket:tesla_supercharger_ccs:output": "250 kW", "source": "survey", "website": "https://www.tesla.com/findus/location/supercharger/brindisisupercharger"}}, {"type": "node", "id": 9331087037, "lat": 40.6481055, "lon": 17.9208237, "tags": {"amenity": "charging_station"}}, {"type": "node", "id": 9682204544, "lat": 40.6099575, "lon": 17.9526099, "tags": {"amenity": "charging_station", "brand": "Enel X", "name": "Enel X", "operator": "Enel X", "operator:wikidata": "Q5376815", "operator:wikipedia": "en:Enel X"}}, {"type": "node", "id": 9722126348, "lat": 40.6311896, "lon": 17.9369198, "tags": {"amenity": "charging_station", "brand": "Enel", "brand:wikidata": "Q651222", "capacity": "2", "name": "Enel", "operator": "Enel", "operator:wikidata": "Q651222"}}, {"type": "node", "id": 9722240717, "lat": 40.626463, "lon": 17.9251488, "tags": {"amenity": "charging_station", "brand": "Enel", "brand:wikidata": "Q651222", "capacity": "2", "name": "Enel", "operator": "Enel", "operator:wikidata": "Q651222"}}, {"type": "node", "id": 9891442732, "lat": 40.6481772, "lon": 17.9379132, "tags": {"amenity": "charging_station", "operator": "EnelX"}}, {"type": "node", "id": 9981543902, "lat": 40.6270545, "lon": 17.9217012, "tags": {"amenity": "charging_station", "motorcar": "yes", "operator": "Enel X"}}, {"type": "node", "id": 9986523134, "lat": 40.5515524, "lon": 17.8140313, "tags": {"amenity": "charging_station", "operator": "E-mobility"}}, {"type": "node", "id": 9999379395, "lat": 40.6225483, "lon": 17.9163274, "tags": {"amenity": "charging_station", "operator": "Mediaworld"}}, {"type": "node", "id": 10557351484, "lat": 40.6589267, "lon": 17.9620357, "tags": {"amenity": "charging_station", "boat": "yes", "capacity": "2"}}, {"type": "node", "id": 10607763642, "lat": 40.5579121, "lon": 17.7994573, "tags": {"amenity": "charging_station", "capacity": "2", "operator": "Acea energia"}}, {"type": "node", "id": 10607763666, "lat": 40.5612259, "lon": 17.8052989, "tags": {"amenity": "charging_station", "capacity": "2", "operator": "Acea energia"}}, {"type": "node", "id": 10900106298, "lat": 40.6205138, "lon": 17.9103997, "tags": {"amenity": "charging_station", "motorcar": "yes"}}, {"type": "node", "id": 11020565472, "lat": 40.6604348, "lon": 17.9612475, "tags": {"access": "yes", "amenity": "charging_station", "capacity": "2", "covered": "no", "fee": "yes", "level": "0", "operator": "Camer", "source": "survey"}}, {"type": "node", "id": 11724573596, "lat": 40.6280767, "lon": 17.9367531, "tags": {"amenity": "charging_station", "capacity": "2", "operator": "EnelX"}}, {"type": "node", "id": 11874947086, "lat": 40.6397026, "lon": 17.9269208, "tags": {"amenity": "charging_station"}}, {"type": "node", "id": 12282210457, "lat": 40.6185417, "lon": 17.9037702, "tags": {"amenity": "charging_station", "capacity": "1", "description": "180Kw", "fee": "yes", "motorcar": "yes", "motorcycle": "no", "opening_hours": "Mo-Su 09:00-21:00", "operator": "Electrip", "website": "https://electripglobal.com"}}, {"type": "node", "id": 12282210458, "lat": 40.6185591, "lon": 17.9037515, "tags": {"amenity": "charging_station", "capacity": "1", "description": "180Kw", "fee": "yes", "motorcar": "yes", "motorcycle": "no", "opening_hours": "Mo-Su 09:00-21:00", "operator": "Electrip", "website": "https://electripglobal.com"}}, {"type": "node", "id": 12282210459, "lat": 40.6184718, "lon": 17.9038437, "tags": {"amenity": "charging_station", "capacity": "1", "description": "180Kw", "fee": "yes", "motorcar": "yes", "motorcycle": "no", "opening_hours": "Mo-Su 09:00-21:00", "operator": "Electrip", "website": "https://electripglobal.com"}}, {"type": "node", "id": 12282210460, "lat": 40.618524, "lon": 17.9037881, "tags": {"amenity": "charging_station", "capacity": "1", "description": "180Kw", "fee": "yes", "motorcar": "yes", "motorcycle": "no", "opening_hours": "Mo-Su 09:00-21:00", "operator": "Electrip", "website": "https://electripglobal.com"}}, {"type": "node", "id": 12282210461, "lat": 40.6185066, "lon": 17.9038068, "tags": {"amenity": "charging_station", "capacity": "1", "description": "180Kw", "fee": "yes", "motorcar": "yes", "motorcycle": "no", "opening_hours": "Mo-Su 09:00-21:00", "operator": "Electrip", "website": "https://electripglobal.com"}}, {"type": "node", "id": 12282210462, "lat": 40.6184888, "lon": 17.9038247, "tags": {"amenity": "charging_station", "capacity": "1", "description": "180Kw", "fee": "yes", "motorcar": "yes", "motorcycle": "no", "opening_hours": "Mo-Su 09:00-21:00", "operator": "Electrip", "website": "https://electripglobal.com"}}, {"type": "node", "id": 12282210463, "lat": 40.61844, "lon": 17.903881, "tags": {"amenity": "charging_station", "capacity": "1", "description": "180Kw", "fee": "yes", "motorcar": "yes", "motorcycle": "no", "opening_hours": "Mo-Su 09:00-21:00", "operator": "Electrip", "website": "https://electripglobal.com"}}, {"type": "node", "id": 12282210464, "lat": 40.6184227, "lon": 17.9038997, "tags": {"amenity": "charging_station", "capacity": "1", "description": "180Kw", "fee": "yes", "motorcar": "yes", "motorcycle": "no", "opening_hours": "Mo-Su 09:00-21:00", "operator": "Electrip", "website": "https://electripglobal.com"}}, {"type": "node", "id": 12282210465, "lat": 40.6184049, "lon": 17.9039177, "tags": {"amenity": "charging_station", "capacity": "1", "description": "180Kw", "fee": "yes", "motorcar": "yes", "motorcycle": "no", "opening_hours": "Mo-Su 09:00-21:00", "operator": "Electrip", "website": "https://electripglobal.com"}}, {"type": "node", "id": 12282210466, "lat": 40.6183878, "lon": 17.9039367, "tags": {"amenity": "charging_station", "capacity": "1", "description": "180Kw", "fee": "yes", "motorcar": "yes", "motorcycle": "no", "opening_hours": "Mo-Su 09:00-21:00", "operator": "Electrip", "website": "https://electripglobal.com"}}, {"type": "node", "id": 12304079169, "lat": 40.6482297, "lon": 17.9207273, "tags": {"amenity": "charging_station", "capacity": "2", "fee": "yes", "motorcar": "yes", "motorcycle": "no", "name": "E-shore", "opening_hours": "24/7", "url": "https://www.eshoremobility.com/"}}]}