{"version": 0.6, "generator": "Overpass API 0.7.62.1 084b4234", "osm3s": {"timestamp_osm_base": "2024-11-20T22:04:06Z", "copyright": "The data included in this document is from www.openstreetmap.org. The data is made available under ODbL."}, "elements": [{"type": "node", "id": 4419171706, "lat": 46.6528216, "lon": 10.032471, "tags": {"amenity": "charging_station", "description": "Ladestation f\u00fcr Elektroautos", "motorcar": "yes", "name": "In Lain Hotel Cadonau", "network": "Plug'n Roll", "operator": "Plug'n Roll", "operator:wikidata": "Q115241443", "operator:wikipedia": "de:Repower AG", "voltage": "400", "website": "https://plugnroll.com"}}, {"type": "node", "id": 4988001910, "lat": 46.7755285, "lon": 10.1539735, "tags": {"access": "customers", "amenity": "charging_station", "brand": "tesla", "capacity": "3", "car": "yes", "motorcar": "yes", "opening_hours": "24/7", "operator": "Hotel Meisser", "socket:tesla_supercharger": "3"}}, {"type": "node", "id": 5126734138, "lat": 46.702132, "lon": 10.0948853, "tags": {"amenity": "charging_station", "authentication:app": "yes", "authentication:membership_card": "yes", "authentication:nfc": "yes", "bicycle": "no", "brand": "evpass", "capacity": "1", "covered": "no", "fee": "yes", "hgv": "no", "motorcar": "yes", "motorcycle": "no", "name": "Hotel Baer & Post", "opening_hours": "24/7", "parking:fee": "no", "socket:tesla_supercharger": "0", "socket:type2_combo": "1", "socket:type2_combo:output": "44"}}, {"type": "node", "id": 5126734139, "lat": 46.7020884, "lon": 10.0948975, "tags": {"amenity": "charging_station", "amperage": "32", "authentication:app": "yes", "authentication:membership_card": "yes", "authentication:nfc": "yes", "bicycle": "no", "brand": "Z Volt", "capacity": "2", "covered": "no", "fee": "yes", "hgv": "no", "motorcar": "yes", "motorcycle": "no", "name": "Hotel Baer & Post", "network": "evpass", "opening_hours": "24/7", "parking:fee": "no", "socket:chademo": "1", "socket:chademo:output": "22 kW", "socket:type2": "0", "socket:type2:output": "22 kW", "socket:type2_cable": "1", "socket:type2_combo": "0", "voltage": "400"}}, {"type": "node", "id": 5861317473, "lat": 46.5863065, "lon": 9.9383112, "tags": {"amenity": "charging_station", "bicycle": "yes", "capacity": "1", "fee": "no", "motorcar": "no", "name": "Via Principela", "operator": "Gemeinde Madulain"}}, {"type": "node", "id": 5861327937, "lat": 46.6020943, "lon": 9.9591512, "tags": {"access": "yes", "addr:city": "Zuoz", "addr:country": "CH", "addr:postcode": "7524", "amenity": "charging_station", "bicycle": "yes", "capacity": "1", "description": "e-lounge / e-bike Ladestation Gemeinde Zuoz", "fee": "no", "image": "https://goo.gl/maps/Fbr5NbBmmX1PgftJ6", "manufacturer": "Repower AG", "motorcar": "no", "name": "e-bike Ladestation", "name:de": "Ladestation", "name:en": "Charging Station", "name:it": "stazione di ricarica", "operator": "Gemeinde Zuoz", "socket:schuko": "yes", "website": "https://www.zuoz.ch/"}}, {"type": "node", "id": 6712992101, "lat": 46.5936212, "lon": 9.6052144, "tags": {"access": "yes", "amenity": "charging_station", "capacity": "1", "covered": "no", "motorcar": "yes", "motorcycle": "yes", "operator": "Uffer AG", "parking:fee": "no", "socket:type1": "1", "socket:type1:output": "7 kW", "socket:type2_cable": "1", "socket:type2_cable:output": "22 kW"}}, {"type": "node", "id": 9004588641, "lat": 46.6315351, "lon": 9.7461031, "tags": {"access": "yes", "amenity": "charging_station", "authentication:app": "yes", "authentication:nfc": "yes", "capacity": "2", "description": "Plug'n Roll Ladestation", "fee": "yes", "motorcar": "yes", "name": "Plug'n Roll Ladestation", "network": "Plug'n Roll", "opening_hours": "24/7", "operator": "Plug'n Roll", "operator:wikidata": "Q115241443", "operator:wikipedia": "de:Repower AG", "socket:type2": "2", "socket:type2:output": "11", "website": "https://plugnroll.com"}}, {"type": "node", "id": 9100779132, "lat": 46.6642043, "lon": 10.2103155, "tags": {"access": "yes", "amenity": "charging_station", "authentication:app": "yes", "authentication:contactless": "yes", "bicycle": "no", "capacity": "2", "covered": "no", "fee": "yes", "motorcar": "yes", "name": "Hotel Parc Naziunal Il Fuorn", "network": "Swisscharge", "opening_hours": "24/7", "parking:fee": "no", "socket:type2": "2", "socket:type2:output": "22 kW"}}, {"type": "node", "id": 9105472351, "lat": 46.6975893, "lon": 10.0901189, "tags": {"access": "yes", "amenity": "charging_station", "bicycle": "no", "brand": "Plug'n Roll", "capacity": "2", "covered": "no", "fee": "yes", "motorcar": "yes", "network": "Plug'n Roll", "opening_hours": "24/7", "operator": "Plug'n Roll", "operator:wikidata": "Q115241443", "operator:wikipedia": "de:Repower AG", "ref:EU:EVSE": "CH*REPE101*01", "socket:type2": "2", "voltage": "400", "website": "https://plugnroll.com"}}, {"type": "node", "id": 9105477014, "lat": 46.6993877, "lon": 10.0945721, "tags": {"access": "yes", "amenity": "charging_station", "authentication:app": "yes", "authentication:contactless": "yes", "authentication:none": "yes", "bicycle": "no", "capacity": "2", "covered": "no", "fee": "yes", "hgv": "no", "motorcar": "yes", "motorcycle": "no", "network": "evpass", "opening_hours": "24/7", "operator": "Gemeinde Zernez", "parking:fee": "no", "payment:app": "yes", "payment:rfid_card": "yes", "payment:sms": "yes", "ref:EU:EVSE": "CH*EVP*E36389;CH*EVP*E36390", "socket:chademo": "2", "socket:chademo:output": "44 kW", "socket:type2_combo": "2", "socket:type2_combo:output": "44 kW"}}, {"type": "node", "id": 9105498263, "lat": 46.6993169, "lon": 10.0909585, "tags": {"access": "yes", "amenity": "charging_station", "authentication:app": "yes", "authentication:contactless": "yes", "authentication:none": "yes", "bicycle": "no", "capacity": "1", "covered": "no", "fee": "yes", "hgv": "no", "motorcar": "yes", "motorcycle": "no", "name": "Hotel Crusch Alba", "network": "evpass", "opening_hours": "24/7", "parking:fee": "no", "payment:sms": "yes", "socket:chademo": "1", "socket:chademo:output": "22 kW", "socket:type2_combo": "1", "socket:type2_combo:output": "22 kW"}}, {"type": "node", "id": 9131893482, "lat": 46.5966023, "lon": 9.9646508, "tags": {"access": "yes", "amenity": "charging_station", "authentication:app": "yes", "bicycle": "no", "capacity": "2", "covered": "no", "description": "Plug'n Roll Ladestation", "fee": "yes", "motorcar": "yes", "name": "Plug'n Roll Ladestation", "network": "Plug'n Roll", "opening_hours": "24/7", "operator": "Plug'n Roll", "operator:wikidata": "Q115241443", "operator:wikipedia": "de:Repower AG", "parking:fee": "unknown", "socket:type2": "2", "socket:type2:output": "22 kW", "website": "https://plugnroll.com"}}, {"type": "node", "id": 9421438390, "lat": 46.7031895, "lon": 9.713508, "tags": {"access": "customers", "amenity": "charging_station", "authentication:none": "no", "bicycle": "no", "capacity": "1", "covered": "no", "description:de": "Geh\u00f6rt Hotel Bellevue", "fee": "no", "motorcar": "yes", "network": "Tesla Destination Charging", "opening_hours": "24/7", "parking:fee": "no", "socket:type2_cable": "1", "socket:type2_cable:output": "11 kW"}}, {"type": "node", "id": 9421438411, "lat": 46.7206273, "lon": 9.8499544, "tags": {"access": "yes", "amenity": "charging_station", "authentication:none": "yes", "bicycle": "no", "capacity": "1", "covered": "no", "fee": "no", "motorcar": "yes", "opening_hours": "24/7", "operator": "EWD Davos", "parking:fee": "yes", "socket:sev1011_t23": "1", "socket:sev1011_t23:output": "3.7 kW", "socket:type2": "1", "socket:type2:output": "22 kW"}}, {"type": "node", "id": 9505014181, "lat": 46.7759883, "lon": 10.1456476, "tags": {"access": "yes", "amenity": "charging_station", "authentication:app": "yes", "authentication:contactless": "yes", "bicycle": "no", "capacity": "2", "covered": "no", "fee": "yes", "motorcar": "yes", "network": "Ost-Mobil", "opening_hours": "24/7", "parking:fee": "yes", "ref:EU:EVSE": "CH*CCI*E21111;CH*CCI*E21112", "socket:type2": "2", "socket:type2:current": "32 A", "socket:type2:output": "22 kW", "socket:type2:voltage": "400"}}, {"type": "node", "id": 9505014182, "lat": 46.7751634, "lon": 10.1975995, "tags": {"access": "customers", "amenity": "charging_station", "authentication:app": "yes", "bicycle": "no", "capacity": "1", "covered": "no", "description": "SCHORTA\u2019S ALVETERN Ladestation", "fee": "yes", "motorcar": "yes", "name": "Plug'n Roll Ladestation", "network": "Plug'n Roll", "opening_hours": "24/7", "operator": "Plug'n Roll", "operator:wikidata": "Q115241443", "parking:fee": "no", "ref:EU:EVSE": "CH*REPE175*01", "socket:type2": "1", "socket:type2:output": "22 kW", "website": "https://plugnroll.com"}}, {"type": "node", "id": 9510155540, "lat": 46.5936468, "lon": 9.6052395, "tags": {"access": "yes", "amenity": "charging_station", "authentication:app": "yes", "authentication:contactless": "yes", "authentication:none": "yes", "bicycle": "no", "capacity": "2", "covered": "no", "fee": "yes", "hgv": "no", "motorcar": "yes", "motorcycle": "yes", "opening_hours": "24/7", "operator": "Uffer AG", "parking:fee": "no", "payment:sms": "yes", "socket:chademo": "1", "socket:chademo:output": "50 kW", "socket:type2_cable": "1", "socket:type2_cable:output": "22 kW", "socket:type2_combo": "1", "socket:type2_combo:output": "50 kW"}}, {"type": "node", "id": 9580466836, "lat": 46.5850616, "lon": 9.9360076, "tags": {"access": "yes", "amenity": "charging_station", "description": "Plug'n Roll Ladestation", "motorcar": "yes", "name": "Plug'n Roll  Ladestation", "network": "Plug'n Roll", "opening_hours": "24/7", "operator": "Plug'n Roll", "operator:wikidata": "Q115241443", "operator:wikipedia": "de:Repower AG", "website": "https://plugnroll.com"}}, {"type": "node", "id": 9585008136, "lat": 46.6178975, "lon": 10.0102683, "tags": {"access": "yes", "addr:city": "S-chanf", "addr:country": "CH", "amenity": "charging_station", "bicycle": "yes", "description": "e-lounge / e-bike Ladestation", "image": "https://goo.gl/maps/TJP7Lbk9CWZ3UaR59", "motorcar": "no", "name": "e-bike Ladestation", "name:de": "Ladestation", "name:en": "charging station", "name:it": "stazione di ricarica", "name:nl": "oplaadstation", "operator": "Pras\u00fcras, Restaurant, 7525 S-chanf", "socket:schuko": "yes", "website": "https://www.repower.com/e-lounge/"}}, {"type": "node", "id": 9923270255, "lat": 46.6984616, "lon": 10.095625, "tags": {"access": "yes", "amenity": "charging_station", "bicycle": "yes", "car": "no"}}, {"type": "node", "id": 11118931795, "lat": 46.7736609, "lon": 10.2019718, "tags": {"amenity": "charging_station", "capacity": "1", "fee": "yes", "fixme": "position", "operator": "Swisscharge", "operator:wikidata": "Q113162249", "ref:EU:EVSE": "CH*SWI*E146351", "socket:type2": "1", "socket:type2:current": "16", "socket:type2:output": "11 kW", "socket:type2:voltage": "400"}}, {"type": "node", "id": 12043238054, "lat": 46.6299799, "lon": 9.7422738, "tags": {"amenity": "charging_station", "authentication:nfc": "yes", "brand": "Juice", "capacity": "1", "covered": "no", "fee": "yes", "indoor": "no", "level": "0", "motorcar": "yes", "opening_hours": "24/7", "parking:fee": "no"}}]}